Name,Address,Postal Code,Locality,Brands,Website,URL
,,,,,
Heinrich Schröder Landmaschinen KG,Heemstrasse 51-55,27793,Wildeshausen - Germany,"Amazone, Bema, Caterpillar, Fendt, Massey Ferguson, Merlo, Schäffer, Tuchel, Weidemann, Valtra",www.schroeder-gruppe.de
VEMAC GmbH,Lange Göhren 7b,39171,Osterweddingen/Magdeburg - Germany,,
MERKANTIL Export-Import GmbH,Neubrandenburger Straße 28a,17094,Pragsdorf - Germany,"Amazone, Case IH, Deutz-Fahr, Grimme, Hardi, Hawe, Horsch, John Deere, Kemper, Köckerling, Kuhn, Kverneland, Lemken, New Holland, Vaderstad, CLAAS",www.youtube.com/watch?v=MsaLddaiq4o
Fricke Landmaschinen GmbH,Wichernstraße 2,27404,Bockel - Germany,,www.fricke24.de
Raiffeisen Waren GmbH,Lindener Bergsfeld 8,31188,Holle-Grasdorf - Germany,,www.rt-grasdorf.de
Josef Greving Landmaschinen,Sabstätte 37,48683,Ahaus - Germany,,
LVD Bernard Krone GmbH,Max-Eyth-Str. 1,48480,Spelle - Germany,"Case IH, Fendt, Horsch, John Deere, Kramer, Krone, Lemken, New Holland, Weidemann, CLAAS",www.krone-agropark.com
Kopf Landmaschinen GmbH,Kürzellerstr. 1-3,77743,Schutterzell - Germany,"Fendt, Geringhoff, JCB, Kemper, Massey Ferguson, Rabe, CLAAS",
VR PLUS Altmark-Wendland eG,"Krebsweg 25
                                                                    Gebrauchtmaschinenzentrum",39606,Osterburg (Altmark) - Germany,,www.vb-ware.de
Deppe & Stücker GmbH,Barbiser Straße 134,37431,Bad Lauterberg im Harz - Germany,"Annaburger, Bednar, John Deere, Köckerling, Kramer, Krampe, Kuhn, Lemken, Pöttinger, Rauch",
Raiffeisen Waren-Zentrale Rhein-Main AG,Altenberger Straße 1a,50668,Köln - Germany,"Amazone, Binger, Dewulf, Fella, Fendt, Köckerling, Lemken, Maschio, Massey Ferguson, Miedema, Pöttinger, Strautmann, Valtra",www.rwz.de
A1 Gebrauchtmaschinen - Center REBO LANDMASCHINEN GMBH,Ringstrasse 4,49434,Neuenkirchen-Vörden - Germany,John Deere,www.rebo.de
August Bruns Landmaschinen,Zum Brook 30,49661,Cloppenburg - Germany,"Agrifac, Alo - Quicke, Bruns, CHD, Köckerling, Kuhn, New Holland Agriculture, New Holland Construction, Quivogne, Rauch, Strautmann",www.abc-bruns.de
Fritz Brandt,Hodenberger Strasse 40,28355,Bremen - Germany,"Bobcat, Briri, Case, Deutz-Fahr, Doosan, Fendt, Fiat, Fortschritt, Geringhoff, Hürlimann, Iseki, JCB, John Deere, Kemper, Krone, Kubota, Lamborghini, Manitou, Massey Ferguson, McCormick, Mercedes-Benz, Merlo, New Holland, Renault, Steyr, Welger, Yanmar, CLAAS",www.brandt-traktoren.de
Clemens Hoping GmbH,Kapellenweg 3,49456,Bakum - Germany,,www.hoping.de/
Kotschenreuther Forst- & Landtechnik GmbH & Co. KG,Neufang 153,96349,Steinwiesen - Germany,,
Hans Völk GmbH & Co. KG,Habacher Straße 1,82387,Antdorf - Germany,,www.hans-voelk.de/
Zürn Landtechnik GmbH,Kapellenstr. 1,74214,SCHÖNTAL-WESTERNHAUSEN - Germany,John Deere,www.zuern.de
Fricke Landtechnik GmbH,Klänhammer Weg 02,17109,Demmin - Germany,"Fendt, CLAAS",
D.O.B. Landtechnik AG,Bukaresterstraße 8,93055,Regensburg - Germany,,
A1-Traktor.de,Rudolf-Diesel-Str. 7,27419,Sittensen - Germany,"Bergmann, Brantner, Carre, John Deere, Knies, Kramer, Kuhn, Rauch, Samson, Strautmann",www.a1-traktor.de
Thomas Gruber KG,Schweppermannstr. 36,84539,Ampfing - Germany,"Amazone, Case IH, Farmland, Fella, Fliegl, Kongskilde, Merlo, Rotoland, Silomaxx, Steyr",
D. Lankhorst & Co. GmbH,Darwinstraße 1,48488,Emsbüren - Germany,"Amazone, Caterpillar, DeLaval, Deutz-Fahr, Giant, Horsch, Joskin, Krone, Kverneland, Lamborghini, Lemken, Maschio, Same",
Agrikontor Neuholland GmbH,Pappelhof 2,16775,Löwenberger Land OT Grüneberg - Germany,,www.agrikontor.de
Eggers Landmaschinen GmbH & Co.KG,Salzwedeler Straße 8,29562,Suhlendorf - Germany,Massey Ferguson,www.landmaschineneggers.de
Mahr & Schwebel e.K.,"Am Schaubacher Berg 14
                                                                    Standard",64401,Gross-Bieberau - Germany,,
Fischer Landmaschinen GmbH,Friedelsheimer Strasse 22,67150,Niederkirchen - Germany,"Honda, John Deere, Kuhn, Pellenc, Sabo, Stihl",www.fischer-landmaschinen.de
Raiffeisen Technik HSL GmbH,Rögen 1,23843,Bad Oldesloe - Germany,,
AGRINUBA GMBH,Brüssower Allee 92,17291,Prenzlau - Germany,,
CLAAS Centrum Landsberg,"FIRST CLAAS USED Center
                                                                    Köthener Str. 8",06188,Landsberg - Germany,CLAAS,www.claas-landsberg.de
Dorn Gmbh,Kreut 6,84079,Bruckberg - Germany,,
CLAAS Württemberg GmbH - Langenau,Magirusstr. 17,89129,Langenau - Germany,CLAAS,www.suedostbayern.claas-partner.de/
LVD Bernard Krone GmbH,Am Stecknitztal 21,23881,Alt-Mölln - Germany,"Case, Fendt, Horsch, John Deere, Kramer, Krone, Lemken, New Holland, Weidemann, CLAAS",www.krone-agropark.com
Agrartechnik Altenberge GmbH,Kümperstiege 2,48341,Altenberge - Germany,"Agrifac, Akpil, Alö, JCB, Kverneland, New Holland, Reisch, Siloking, Vermeer, Vicon",www.agrartechnik-altenberge.de
Leinweber Landtechnik GmbH & Co. KG,In der Eller 5,36119,Neuhof - Dorfborn - Germany,,www.landtechnikleinweber.de/
LVB Steinbrink GmbH,An der Zuckerfabrik 2,30890,Barsinghausen OT Groß Munzel - Germany,,
ZG Raiffeisen Technik GmbH,Lauterbergstr. 1-5,76137,Karlsruhe - Germany,"Agria, Fendt, Güttler, Honda, Horsch, Irus, Kaweco, Maschio, Stihl, Valtra",
Seiler GmbH & Co.KG,An der Eich 8,91522,Ansbach - Germany,"Alo - Quicke, Amazone, Case IH, Dragone, Evers, Fliegl, Hydrac, JCB, Keenan, Krone, Kuhn, Sampo, Steyr, Weidemann",www.seiler-landtechnik.de
Mecklenburger Landtechnik GmbH,Tarnower Landweg 8,18276,Mühlengeez - Germany,CLAAS,www.mecklenburger-lt.de
Lankhorst Nord GmbH,Zu den Norderstücken 1,26607,Niedersachsen - Aurich - Germany,,
Hermann Wagener,Ederstrasse 34,34537,Bad Wildungen - Germany,John Deere,
MAGER & WEDEMEYER,"Gebrauchtmaschinenzentrum
                                                                    Margarete-Steiff-Str. 11",28876,Oyten - Germany,"Case IH, Steyr",gebrauchte.muw.de
CLAAS Südostbayern GmbH - Töging,Franz-Marc-Str. 12,84513,Töging am Inn - Germany,CLAAS,www.claas-suedostbayern.de
BayWa AG GMZ Straubing,Sensfelder Straße 34,94315,Straubing - Germany,"Fendt, Horsch, Maschio, Massey Ferguson, Pöttinger, Valtra, CLAAS",www.baywa.de
AGROM Agrartechnik GmbH,Auf dem Pfahl 4,77974,Meißenheim-Kürzell - Germany,,
Raiffeisen Technik Ostküste GmbH,Rosseer Weg 19-21,24340,Eckernförde - Germany,"Case, Deutz, Fendt, John Deere, Köckerling, Krampe, Lemken, New Holland, Valtra, CLAAS",www.rt-ostkueste.de
LVD Bernard Krone GmbH,Hallesche Str. 15,06679,Zorbau - Germany,"Case, Fendt, Horsch, John Deere, Kramer, Krone, Lemken, New Holland, Weidemann, CLAAS",www.krone-agropark.com
LVA Landtechnik GmbH,Buttenkrug 1,39171,Sülzetal OT Altenweddingen - Germany,,www.lvaltenweddingen.de
Schlichting Landmaschinen,Hauptstraße 10,21439,Marxen - Germany,John Deere,
Gruma Fördertechnik GmbH,Daimlerstraße 4,85748,Garching bei München - Germany,Mercedes-Benz,
Grimme Landmaschinenfabrik GmbH & Co. KG,Hunteburger Str. 32,49401,Damme - Germany,"Asa-Lift, Grimme, Kleine",www.grimme.de
Schütz Landmaschinen OHG,Oberdeggenbach 81,84069,Schierling - Germany,CLAAS,
BayWa AG GMZ Erbach,Riedmühle 1,89155,Erbach - Germany,"Fendt, Horsch, Maschio, Massey Ferguson, Pöttinger, Valtra, CLAAS",www.baywa.de
Robert Aebi Landtechnik GmbH,Dr.-Oetker-Str. 20,54516,Wittlich - Germany,"Case, Caterpillar, Deutz-Fahr, John Deere, Komatsu, Kuhn, Massey Ferguson, Reisch, Saphir, Steyr, Volvo, CLAAS",www.robert-aebi-landtechnik.de
CLAAS VERTRIEBSGES. MBH GMZ HOCKENHEIM,"FIRST CLAAS USED Center
                                                                    Talhausstrasse 8",68766,Hockenheim - Germany,CLAAS,www.claas-hockenheim.de
BayWa AG GMZ Schönau,Hohenthanner Str. 4,83104,Tuntenhausen - Germany,"Fendt, Horsch, Maschio, Massey Ferguson, Pöttinger, Valtra, CLAAS",www.baywa.de
E. Engbers Söhne GmbH,Itterbecker Strasse 39,49843,Uelsen - Germany,"Case IH, JCB, Ploeger, Pöttinger, Schuitemaker, Siloking, Steyr, Veenhuis",www.engberssoehne.de
Titan Machinery Germany,"Säuritzer Straße 1-2
                                                                    Gewerbegebiet West",01906,Burkau - Germany,,
Steinhage Landtechnik Prenzlau GmbH,"Am Damm 1
                                                                    OT Schmarsow",17309,Rollwitz - Germany,"Amazone, Bednar, DeLaval, Köckerling, Kverneland, Lemken, Stiga, Stihl, Strautmann, Weidemann, CLAAS",www.steinhage-prenzlau.de
BayWa AG Jengen,Gewerbestrasse,86860,Jengen - Germany,"Fendt, Horsch, Maschio, Massey Ferguson, Pöttinger, Valtra, CLAAS",www.baywa.de
BayWa AG GMZ Manching,Weberstr. 9,85077,Manching - Germany,"Fendt, Horsch, Maschio, Massey Ferguson, Pöttinger, Valtra, CLAAS",www.baywa.de
tec-finder GmbH,Köthener Strasse 10,06420,Könnern - Germany,,
CLAAS Vertriebsgesellschaft mbH -  Traktoren Centrum Molbergen,"FIRST CLAAS USED Center
                                                                    Ermker Weg 15 b",49696,Molbergen - Germany,CLAAS,
Buchheister Technik GmbH,Herkenser Str. 45,31863,Coppenbrügge - Germany,Massey Ferguson,
Gruber Agrartechnik GmbH,Arnoldplatz 55,04319,Leipzig OT Engelsdorf - Germany,"Amazone, Case IH, Farmet, Krone, Krpan, Kverneland, Schäffer, Steyr, Strautmann, ZDT",www.gruber-agrartechnik.de
BayWa AG GMZ Dinkelsbühl,Von-Raumerstr. 7,91550,Dinkelsbühl - Germany,"Fendt, Horsch, Maschio, Massey Ferguson, Pöttinger, Valtra, CLAAS",www.baywa.de
BayWa Obertraubling,Edekastraße 8,93083,Obertraubling - Germany,"Fendt, Horsch, Maschio, Massey Ferguson, Pöttinger, Valtra, CLAAS",www.baywa.de
B+S Landtechnik GmbH,Lassahner Str. 21,19300,Grabow - Germany,John Deere,www.bs-landtechnik.de
Wilhelm Mayer Gottenheim GmbH & Co KG,Bötzinger Str. 12,79288,GOTTENHEIM - Germany,"Alö, Binderberger, Brantner, Case IH, Krone, Siloking, Steyr, Vaderstad",www.wm-gottenheim.de
Sham Machinery,Rauental 77A,42289,Wuppertal - Germany,,www.sham-machinery.com
Türpisch Landmaschinen,Am Weinberg 28,06722,Wetterzeube OT Haynsburg - Germany,,ct-landmaschinen.de/
LTZ Chemnitz GmbH,Mühlauer Straße 11,09232,Hartmannsdorf - Germany,CLAAS,www.claasboerse-sued.com
BayWa AG Bamberg T170,Hafenstrasse 5,96052,Bamberg - Germany,"Fendt, Horsch, Maschio, Massey Ferguson, Pöttinger, CLAAS",www.baywa.de
BayWa AG GMZ Bamberg,Hafenstraße 5,96052,Bamberg - Germany,"Fendt, Horsch, Maschio, Massey Ferguson, Pöttinger, Valtra, CLAAS",www.baywa.de
Agrartechnik Vertrieb Sachsen GmbH,Zweitannenweg 3,01561,Ebersbach - Germany,"Annaburger, GEA, Grimme, Holmer, Horsch, JCB, Krone, Lemken, New Holland, Strautmann",www.agrartechnik-sachsen.de
W.Doormann&Kopplin GmbH&Co.KG,Ratjendorfer Weg 2-10,24217,Schönberg - Germany,"Horsch, JCB, Joskin, Kerner, Kuhn, Massey Ferguson, Rauch",www.doormann-kopplin.de
Harald Bruhns GmbH,Postliner Straße 18h,19357,Karstädt - Germany,Fendt,
WORCH LANDTECHNIK GMBH,Nordstrasse 1,39264,SCHORA STADT ZERBST - Germany,"Amazone, Bednar, Brantner, Fliegl, Kverneland, Muthing, Rabe, Strautmann, Weidemann, CLAAS",
Oliver Schmitt Gabelstapler,Schloßstr. 66,64668,Rimbach - Germany,,www.gbl-schmitt.de
HAWART OMV Landtechnik GmbH,Wulkenziner Str. 16,17033,D-Neubrandenburg / Weitin - Germany,"Horsch, John Deere, Manitou",
Kattelmann landtechnik,Im Meer 4,28816,Stuhr - Germany,,
Krull Landtechnik GmbH,Ziegelkamp 5,26901,Lorup - Germany,,www.krull-landtechnik.de
Wüstenberg Landtechnik Börm GmbH & Co.KG,Dorfstrasse 3,24863,Börm - Germany,,
Maschinen Bader-Ritter GmbH & Co KG,Bötzinger Straße 8,79111,Freiburg - Germany,"Brielmaier, Case, Deutz-Fahr, Fendt, Kärcher, Kubota, Massey Ferguson, New Holland, New Holland Agriculture, Posch, Pöttinger, Rapid, Reform, Ritter, sepp knusel, Stihl, Toro, Valmet",www.bader-ritter.de
Podlasly Baumaschinen GmbH,Zeiss-Straße 18,23626,Ratekau - Germany,"Caterpillar, Komatsu, Volvo",www.podlasly-baumaschinen.de
CLAAS Main-Donau GmbH & Co. KG - Vohburg,Kronwiedstr. 2,85088,Vohburg - Germany,CLAAS,
Faltner GmbH,Hauptstraße 20 - 24,94124,Büchlberg - Germany,,
REBO Motorgeräte Handels- und Reparatur GmbH,Daimlerstraße 1,49661,Cloppenburg - Germany,John Deere,www.rebo-gebraucht.de
Wüstenberg Landtechnik GmbH & Co. KG,Am Schulwald 3-5,25813,Husum - Germany,,
Wüstenberg Landtechnik GmbH & Co. KG,Teterower Straße 60,17168,Jördestorf - Germany,,
Schlüter Landtechnik,Oberer Westring 26,33142,Büren - Germany,,
TechnikCenter Grimma GmbH,Gewerbestraße 1,04688,Grimma / OT Mutzschen - Germany,CLAAS,www.claasboerse-sued.com
S & L Connect GmbH,John-Deere-Straße 4,03249,Sonnenwalde - Germany,John Deere,www.schlieper-agrarservice.de/
BLT Brandenburger Landtechnik GmbH,Liebenthaler Bahnhof 2,16909,Heiligengrabe OT Liebenthal - Germany,"Amazone, Honda, Husqvarna, Köckerling, Kverneland, Lemken, Muthing, Samson, Strautmann, Tebbe, Vaderstad, Weidemann, Zunhammer, CLAAS",
LVA Landtechnik GmbH Zweigniederlassung,Kleptow 25H,17291,Schenkenberg - Germany,,
BayWa AG Großweitzschen GMZ,Heiterer Blick 6,04720,Großweitzschen - Germany,"Fendt, Horsch, Maschio, Massey Ferguson, Pöttinger, Valtra, CLAAS",www.baywa-standorte.de/landtechnik-herzberg/
JCB Vertrieb & Service GmbH,Europaallee 113,50226,Frechen - Germany,"Caterpillar, Doosan, JCB, John Deere, Komatsu, Kramer, Kubota, Liebherr, Volvo, Wacker Neuson",
Harvest Park GmbH,Darwinstrasse 1,48488,Emsbüren - Germany,"Case, Deutz-Fahr, Geringhoff, John Deere, Kemper, Krone, New Holland, CLAAS",www.harvestpark.com
BayWa AG Kommunal-Vertriebszentrum Franken,Hafenstraße 5,96052,Bamberg - Germany,"Fendt, Horsch, Maschio, Massey Ferguson, Pöttinger, CLAAS",www.baywa.de
CLAAS Main-Donau  GmbH & Co. KG - Aurach,Steinauer Weg 13,91589,Aurach - Germany,CLAAS,
CLAAS Südostbayern GmbH - Grabenstätt-Erlstätt,Kirchbergstr. 1,83355,Grabenstätt-Erlstätt - Germany,CLAAS,www.claasboerse-sued.com
Harms Landtechnik GmbH,"Hauptstraße 2
                                                                    2",27404,Sassenholz - Germany,,
Ewers Landtechnik GmbH & Co.KG,Laurentiusstraße 9,33154,Salzkotten-Thüle - Germany,Massey Ferguson,www.ewers-landtechnik.de
k&h Landmaschinenhandel,Expopark 1,15236,Jacobsdorf - Germany,"Amazone, Dammann, Hawe, Köckerling, Krampe, Tebbe, Trioliet, Weidemann, Zunhammer, CLAAS",www.k-h-landmaschinen.de
Raiffeisen Technik Nord-Ost GmbH,Dorfstraße 52,17129,Kruckow - Germany,,rt-nord-ost.de
BayWa AG GMZ Mindelheim,Allgäuerstr. 38,87711,Mindelheim - Germany,"Fendt, Horsch, Maschio, Massey Ferguson, Pöttinger, Valtra, CLAAS",www.baywa.de
Carl Beutlhauser Kommunal- und Förder- technik GmbH & Co. KG,Regensburger Straße 23,93095,Hagelstadt - Germany,"Bucher Municipal, Dücker, Duecker, Goupil, Hansa, Lindner, Mercedes-Benz, Mulag, Reform, Zaugg",
CLAAS Main Donau Landtechnik-Vertrieb - Aurach,Steinauer Weg 13,91589,Aurach - Germany,CLAAS,www.suedostbayern.claas-partner.de
Landtechnik Schulze Lammers,Einsteinstraße 1a,46325,Borken - Germany,,www.schulzelammers.com
Baase Landmaschinen GmbH,Holthof 39,18513,Splietsdorf - Germany,"Amazone, Annaburger, Dal-Bo, DeLaval, John Deere, Krone, Maschio Gaspardo, Rabe, Siloking, Stihl, Weidemann",
BayWa AG GMZ Giebelstadt,An der Goldleite 1,97232,Giebelstadt - Germany,"Fendt, Horsch, Maschio, Massey Ferguson, Pöttinger, Valtra, CLAAS",www.baywa.de
Hölscher Landtechnik GmbH & Co. KG,Raiffeisenstr.35,48231,Warendorf - Germany,"Akpil, Fortuna, Krone, Kverneland, Massey Ferguson, Muthing, Vicon",
Calenberger Landtechnik GmbH,Calenberger Straße 37,31171,Nordstemmen - Germany,,
BayWa AG GMZ Wülfershausen,Am Angertor 8,97618,Wülfershausen - Germany,"Fendt, Horsch, Maschio, Massey Ferguson, Pöttinger, Valtra, CLAAS",www.baywa.de
Holland Middle East Trading BV,Park Broekheurne 16,7544 NK,Enschede - Netherlands,,
agroXX techniCCenter,Büttrup 13,59320,Ennigerloh - Germany,,
Thomas Breu e.K.,Raiffeisen Str. 2,93413,Cham - Germany,"Case IH, Demmler, Deutz-Fahr, Fendt, Krone, Kuhn, Lemken, Mengele, Mörtl, MTD, Muthing, Pöttinger, Rabe, Reform, Stoll, Wolf, CLAAS",www.breu-cham.de
CLAAS Nordostbayern GmbH & Co. KG - Schwend,Hauptstr. 2,92262,Schwend - Germany,CLAAS,www.claasboerse-sued.com
MC-AGRI GmbH,Sand 107 B,03185,Drachhausen - Germany,,
Goos OHG Landmaschinen,Hubertusstr. 4,90579,Langenzenn - Germany,,
MVMV Maschinenvertrieb Mecklenburg-Vorpommern,Am Kamp 9,17034,Neubrandenburg - Germany,,
SRB Westprignitzer Landtechnik GmbH,Schulstrasse 7 b,19357,Karstädt - Germany,,
SCHÜTTE Bernhard GmbH Landmaschinen,Am Knapp 30,34431,MARSBERG-GIERSHAGEN - Germany,John Deere,
SCHWARZ GmbH Landtechnik-Oekotech Vertrieb,Siemenstr.15,71546,ASPACH - Germany,John Deere,www.schwarz-lt.de
ForstmaschinenZentrum oHG,Zum Hutanger 3,91227,Leinburg - Germany,,www.forstmaschinenzentrum.de
Landmaschinenhandel Helmut Feder,Laasower Str.16D,15913,Straupitz - Germany,"Amazone, Case IH, Hawe, Horsch, John Deere, Lemken, Monosem, New Holland, Vaderstad, CLAAS",www.landmaschinenhf.de
CLAAS Nordostbayern GmbH & Co. KG - Cham,Altenstadter Str. 6,93413,Cham - Germany,CLAAS,www.claas-suedostbayern.de
Wüstenberg  KG,Klanxbüller Straße 9,25899,Niebüll - Germany,,www.wuestenberg-landtechnik.de
CLAAS Südostbayern GmbH - Mengkofen,Ettenkofen 18,84152,Mengkofen - Germany,CLAAS,www.claasboerse-sued.com
KREMMER,Schlesischer Weg 12,02829,Markersdorf - Germany,"Horsch, JCB, Köckerling",
Langbehn Landmaschinen GmbH & Co. KG,Sarauer Straße 2a,23628,Klempau - Germany,"Case, Case IH, Steyr",www.langbehn-landmaschinen.de
Claas Nordostbayern  GmbH & Co KG - Altenstadt,Auf der Haide 8,92665,Altenstadt a.d. Waldnaab - Germany,CLAAS,www.suedostbayern.claas-partner.de
Claas Nordostbayern GmbH & Co. KG - Hollfeld,Hofäckerstr. 2,96142,Hollfeld - Germany,CLAAS,www.claasboerse-sued.com
B+K Traktoren Vertriebs GmbH,Industriestraße 3,49577,Kettenkamp - Germany,,www.bktraktoren.de
Kloster Adam Land-und Baumaschinen Handels GmbH,Pfeddersheimer Strasse 6,67591,Mörstadt - Germany,,
Herpich Landtechnik GmbH,Gelenauer Str. 13,09430,Drebach - Germany,John Deere,
Junge Landtechnik GmbH & Co. KG,"Lindenallee 5
                                                                    Ankelohe",27624,Geestland - Germany,"Amazone, BVL, Case, Deutz-Fahr, Düvelsdorf, Keenan, Kerner, Kramer, Krone, Oelher, Same, Stehr, Stockmann",www.junge-landtechnik.de
Drümmer GmbH & Co KG,Westerkamp 5,24640,Schmalfeld - Germany,,
AVL Import Export,Route de Beaufort,49350,Les Rosiers-sur-Loire - France,,
CLAAS Südostbayern GmbH - Hutthurm,Kringeller Str. 84,94116,Hutthurm - Germany,CLAAS,
CLAAS Vertriebsgesellschaft mbH FIRST CLAAS USED Center,Waller See 24,38179,Schwülper - Germany,,
Scharfenberger GmbH & Co. KG,Philipp-Krämer-Ring 30,67098,Bad Dürkheim - Germany,"Braud, Europress, New Holland",www.scharfenberger.de
LEMKEN GmbH & Co. KG,Weseler Straße 5,46519,Alpen - Germany,,
Quinte Landtechnik GmbH & Co. KG,Niederwiesenweg 50,33165,Lichtenau-Kleinenberg - Germany,"John Deere, CLAAS",www.quinte-landtechnik.de
CLAAS Südostbayern GmbH - Obersöchering,Aidlinger Str. 1,82395,Obersöchering - Germany,CLAAS,www.claasboerse-sued.com/
CLAAS Main-Donau  GmbH & Co. KG - Heilsbronn,Caspar-Othmayr-Straße 10,91560,Heilsbronn - Germany,CLAAS,
Borries-Lader e.K.,Siemensstr. 16 b,50374,Erftstadt - Germany,,radlader-zentrum.de/
CLAAS Nordostbayern GmbH & Co. KG - Gefrees,Helmut-Sandler-Str. 2,95482,Gefrees - Germany,CLAAS,www.claasboerse-sued.com
Wernsmann- Industrieservice GmbH,"Naendorf
                                                                    77",48629,Metelen - Germany,"AGS, Fendt, John Deere, Liebherr, New Holland, CLAAS",
Auer Landtechnik,Mainzerstr. 12,55296,Lörzweiler - Germany,,www.auer-landtechnik.de
AGRIMEX,Dorfstraße 31,06268,Weißenschirmbach - Germany,,
Knoblauch Landtechnik GmbH,Tannenkirch,79400,KANDERN - Germany,John Deere,www.knoblauch.gmbh
LANDTECHNIK ZIMMERMANN,Duerenerstraße 1a,52445,Titz-Ameln - Germany,,www.LT-Zimmermann.de
AVR bvba,Meensesteenweg 545,8800,Roeselare - Belgium,,
BRUNS Maschinenhandel,Rheinuferstraße 90,41468,Neuss - Germany,,www.hwbruns.de
P. Urny Handel,Münsterstraße 28,59302,Oelde - Germany,"Bobcat, Geringhoff, JCB, Kramer, Linde, Manitou, Merlo, Takeuchi, CLAAS",
Maschinenhandel Höing Gmbh & Co KG,Liebigstrasse 8,48712,Gescher - Germany,"Case IH, Challenger, Deutz-Fahr, Fendt, John Deere, Massey Ferguson, New Holland, CLAAS",www.mhg-maschinen.com
CLAAS Südostbayern GmbH - Arnstdorf,Schönauer Str. 29,94424,Arnstdorf - Germany,CLAAS,www.claasboerse-sued.com/
HIMEL Maschinen GmbH&Co.KG,Mittelhofen 11,72393,Melchingen - Germany,,
HDK Kaltensundheim,"Mittelsdorferstraße 23
                                                                    OT/ Kaltensundheim",36452,Kaltennordheim - Germany,"Amazone, Briol, Köckerling, Kraiburg, Krone, Massey Ferguson, Patura, Schäffer, Stallkamp",
LGRain GmbH,Zur Hasenheide 1,29559,Wrestedt - Germany,,www.lgrain.de
"Thomas Roßmann, Land- und Gartentechnik","Mainburger Str. 26
                                                                    Tegernbach",84104,Rudelzhausen - Germany,,
Schillinger GMBH Beregnungsanlagen,Ihringer Landstraße 25,79206,Breisach am Rhein - Germany,"Bauer, Green Power, Idrofoglia",www.schillinger-beregnungsanlagen.de
Pfeifer Landmaschinen,Am Kranichfelder Weg 2,99334,Elleben OT Riechheim - Germany,"Case, Caterpillar, Dal-Bo, Hardi, John Deere, Steyr, Vaderstad",www.pfeifer-landmaschinen.de
CLAAS Nordostbayern GmbH & Co. KG - Freystadt,Berchinger Str. 29,92342,Freystadt - Germany,CLAAS,www.claasboerse-sued.com
ROPA Fahrzeug- und Maschinenbau GmbH,Sittelsdorf 24,84097,Herrngiersdorf - Germany,"Agrifac, AVR, Dewulf, Grimme, Holmer, Ropa, Vervaet, WM Kartoffeltechnik",www.ropa-maschinenbau.de
BayWa AG Weinbautechnik Zentrum Volkach,Dieselstraße 2,97332,Volkach - Germany,"Fendt, Horsch, Maschio, Massey Ferguson, Pöttinger, CLAAS",www.baywa.de
Lars Hentschel Landtechnikhandel,Bahnhofsweg 2a,14547,Beelitz - Germany,,
AB-Auction BayWa,Weberstr. 9,85077,Manching - Germany,"Fendt, Horsch, Maschio, Massey Ferguson, Pöttinger, CLAAS",www.ab-auction.com
Handelshof GmbH Bismark,Stendaler Straße 43,39629,Bismark - Germany,"Hawe, Horsch, Kuhn, Manitou, New Holland, Weidemann",
E.M.S. Agri Baden Württemberg GmbH & Co. KG,Ferdinand-Porsche-Straße 4,72189,Vöhringen - Germany,,www.ems-agri-bw.de
REMA Fahrzeug & Landtechnik GmbH,Am Denkmal 1,14806,Bad Belzig - Germany,CLAAS,www.rema-landtechnik.de
CLAAS Südostbayern GmbH - Moos-Langenisarhofen,Bundestr. 49,94554,Moos-Langenisarhofen - Germany,CLAAS,www.suedostbayern.claas-partner.de/
BayWa AG Murnau,Straßäcker 31,82418,Murnau am Staffelsee - Germany,"Fendt, Horsch, Maschio, Massey Ferguson, Pöttinger, Valtra, CLAAS",www.baywa-standorte.de/landtechnikmurnau/
Bremer Maschinenbau GmbH,Schmiedestraße 10,31249,Hohenhameln - Germany,Bremer,
HOLMER Maschinenbau GmbH,Regensburger Strasse 20,84069,"Schierling, OT Eggmühl - Germany",,holmer-maschinenbau.com
Chorbacher GmbH,Am Markt 11,91598,Colmberg - Germany,,
KUMM Technik,Industriepark 70 -74,56593,Krunkel - Germany,,
CLAAS Main-Donau  GmbH & Co. KG - Wassertrüdingen,Bahnhofstraße 34,91717,Wassertrüdingen - Germany,CLAAS,
CLAAS Main-Donau  GmbH & Co. KG - Schlüsselfeld,Steinäcker 4,96132,Schlüsselfeld - Germany,CLAAS,
CLAAS Main-Donau GmbH & Co. KG - Werneck,Am Pfaffenpfad 19,97440,Werneck - Germany,CLAAS,
CLAAS Main-Donau GmbH & Co. KG - Gollhofen,Südstraße 6,97258,Gollhofen - Germany,CLAAS,
Günter Sieben Landtechnik,Rudolf-Diesel-Str. 1,52428,Jülich - Germany,,www.Sieben-Landtechnik.de
Maurer GmbH,Neuweg 4,79365,Rheinhausen - Germany,,
Hilken Fahrzeugbau,Große Straße 16,27412,Vorwerk - OT Buchholz - Germany,,
APS Agrar-und Industrietechnik GmbH & Co.KG,Hünenstein 22,28790,Schwanewede - Germany,,
Horschzentrum,Delitzscher Straße 15,06188,Landsberg OT Sietzsch - Germany,"Amazone, Berthoud, Dammann, Horsch, Inuma, Kerner, Köckerling, Lemken, Vaderstad",www.horschzentrum.de
BELIMPEX-Handels GmbH,Gräfestr. 33,04129,Leipzig - Germany,,
Land- und Kommunalmaschinen Metzner,Seiferitzer Schulweg 3c,08393,Meerane - Germany,"Conow, Hardi, Hawe, Kuhn, Rauch, Schäffer, Tuchel, Vaderstad",
Land- & Gartentechnik Aschersleben GmbH,Am Spittelsberg 12,06449,Aschersleben - Germany,,www.lga-gmbh.de
Landmaschinen Roschwitz,Th.Mützer 39,06406,Bernburg - Germany,"Kverneland, Massey Ferguson, Merlo, Weidemann",
Wallentin & Partner GmbH,Wustrower Chaussee 1a,17255,Wesenberg - Germany,"Belarus, Husqvarna, Krone, Kubota, Kuhn, Massey Ferguson",www.wup.de
DS Maschinenhandel,Paul Reusch Str. 50,89551,Königsbronn - Germany,,
Hartl GmbH,"Augsburger Str. 20a
                                                                    OT Mühlhausen",86444,Affing - Germany,,
CLAAS Nordostbayern GmbH & Co. KG - Schwandorf,Max-Planck-Str. 12,92421,Schwandorf - Germany,CLAAS,www.claasboerse-sued.com
BayWa Oberschöna,Alte Salzstrasse 1,09600,Oberschöna - Germany,"Fendt, Horsch, Maschio, Massey Ferguson, Pöttinger, CLAAS",
Güttler GmbH,Karl-Arnold-Str. 10,73230,Kirchheim/Teck - Germany,,www.guettler.de
UNI-mobile GmbH,Am Noßbach 1,99820,Hörselberg-Hainich - Germany,"Branson, Eurotrac, Linhai, Lovol, UTV International",
WEBERS GmbH,Schagern 22,48612,Horstmar - Germany,"BVL, Faresin, Kuhn, Marchner, RMH, sgariboldi, Siloking, Stoll, Strautmann, Trioliet",www.webers-gmbh.de
Radlmaier Land- u. Kommunaltechnik,Griesmeier 1,83547,Babensham - Germany,Deutz-Fahr,www.radlmaier.de
New Blue Trading GmbH,Sunrenkamp 59,22335,Hamburg - Germany,,
Schwab & Jaeger,Bahnhofstraße 12,86681,Fünfstetten - Germany,"Bogballe, John Deere, Joskin, Kemper, Kerner, Kramer, Krone, Kuhn",
Rottmann Group GmbH,Boschstraße 10,48683,Ahaus - Germany,"Buschhoff, Gmelin, Tropper",
NATURATEC GmbH,Zeppelinring 4,88696,Owingen - Germany,"AHWI, Backhus, FAE, Fendt, Forus, Prinoth, Seppi, Terra Select, Willibald",www.naturatec-gmbh.de
Raiffeisen-Techni-Trak GmbH,Am Feldschlößchen 8,99439,Buttelstedt - Germany,,www.raiffeisen-techni-trak.de
Landmaschinenhandel Udo Seibert Seibert-LKG,Ziegelhüttenstraße 48,64832,Babenhausen - Germany,Valtra,www.seibert-lkg.de
Horst Körner GmbH & Co. KG,Homburger Str. 19,66459,Kirkel-Altstadt - Germany,,www.landtechnik-koerner.de
CLAAS Main-Donau  GmbH & Co. KG - Wülfershausen,Am Angertor 8,97618,Wülfershausen - Germany,CLAAS,
CLAAS Main-Donau  GmbH & Co. KG - Allershausen,Bürgermeister-Sgoff-Straße 2,85391,Allershausen - Germany,CLAAS,
CLAAS Nordostbayern GmbH & Co. KG - Bad Abbach,Lindenstr. 7,93077,Bad Abbach - Germany,CLAAS,www.claasboerse-sued.com
von Pflug-Maurer GmbH,Feldstraße 76,77972,Mahlberg-Orschweier - Germany,"Bogballe, Breviglieri, Dal-Bo, Monosem",
Forstag GmbH,HOFSTRASSE 4a,79232,March - Germany,,www.forst.ag
AMC Technikland GmbH,Idastrasse 43,04425,Taucha - Germany,,
Hans Wittrock GmbH,Dorfstrasse 38,26899,Rhede/ Brual - Germany,CLAAS,www.wittrock-landtechnik.de
Euromaster GmbH,Theodor-Heuss-Anlage 12,68165,Mannheim - Germany,"Alliance, BKT, Firestone, Kleber, Michelin, Mitas, Trelleborg, Vredestein",
MH-Maschinentechnik,Bahnweg 3,91249,Weigendorf - Germany,,
CHR. WILLEMSEN GmbH,Düster Stegge 60,48703,Stadtlohn - Germany,,
Kasper Baumaschinen e.K.,Auf Dornbruch 11,56288,Kastellaun - Germany,,
Claas Main-Donau GmbH & Co. KG -  Asbach - Bäumenheim,Bürgermeister- Müller- Str. 5,86663,Asbach-Bäumenheim - Germany,CLAAS,
Birner Landtechnik GmbH,Gasfabrikstraße 13,92224,Amberg - Germany,,
WiLLMES GmbH,Bensheimer Straße 101,64653,Lorsch - Germany,,www.willmes.de/
Johann Fehlberger GmbH,Hörlkofener Straße 18,85435,Erding - Germany,"Alö, Amazone, Fliegl, John Deere, Joskin, Kuhn, Reisch, Ropa, Weidemann, Zunhammer",
Wolff,Krebsbacherhof 1,53520,Meuspath - Germany,,
M.A.S. Keltereiprodukte GmbH,Lahnstrasse 19-21,64625,Bensheim - Germany,,www.mas-keltereiprodukte.de/home-214.html
Vehling Motorgeräte GmbH & Co.KG,Volksdorf 35,31715,Meerbeck - Germany,,www.vehling-motorgeraete.de
Kamps SEPPI M. Deutschland GmbH,Unterer Hammer 3,64720,Michelstadt - Germany,,www.kamps-seppi.de/de/t/home.html
CLAAS Nordostbayern GmbH & Co. KG - Lichtenfels,Bamberger Str. 46,96215,Lichtenfels - Germany,CLAAS,www.claasboerse-sued.com
BayWa Bayreuth Melktechnik,Gottlieb-Keim-Str. 49,95448,Bayreuth - Germany,"Fendt, Horsch, Maschio, Massey Ferguson, Pöttinger, Valtra, CLAAS",
BayWa AG Schönau Melktechnik,Ahornweg 19,83104,Schönau - Germany,"Fendt, Horsch, Maschio, Massey Ferguson, Pöttinger, CLAAS",www.baywa.de
BayWa AG Erlingen,Markterstr. 2,86405,Erlingen - Germany,"Fendt, Horsch, Maschio, Massey Ferguson, Pöttinger, Valtra, CLAAS",www.baywa.de
BayWa AG Pfatter,Straubinger Straße 14,93102,Pfatter - Germany,"Fendt, Horsch, Maschio, Massey Ferguson, Pöttinger, Valtra, CLAAS",www.baywa-standorte.de/service-werkstaette-pfatter/
Ralf Stadach Land und Baumaschinen,Dümmelsweg 10,56299,Ochtendung - Germany,"Foton Lovol, Merlo",www.stadach.de/
Landtechnik,Im Grund 9,86479,Aichen - Germany,,www.lu-Schuster.de
AGRO-STAR,Kirchstr. 12,76831,Billigheim-Ingenheim - Germany,"Alma, Braud, Case, Deutz-Fahr, Ero, Grégoire, John Deere, Laverda, New Holland, CLAAS",agro-star.de/fr/
Baertschi Agrartecnic Deutschland GmbH,Marta Fraenkel Strasse 1,01097,Dresden - Germany,"Baertschi, BF Tecnic, Fobro",
ADRESSE TEST,strasse 2,1254,BERLIN - Germany,,
Claas Tuningen,Neue Wiesen 3,78609,Tuningen - Germany,CLAAS,www.claasboerse-sued.com
Claas Schwaben,Aichacherstr. 18,86453,Dasing - Germany,CLAAS,www.claasboerse-sued.com
Claas Allgäu Zweigbetrieb der Claas Württemberg,Egelsbergweg,87784,Westerheim - Germany,CLAAS,www.claasboerse-sued.com
Stütz GmbH,Am Unkenbach 28,97529,Sulzheim - Germany,,www.stuetz-agrarservice.de
Claas Baden,Niederwaldstr. 1,79336,Herbolzheim - Germany,CLAAS,www.claasboerse-sued.com/
Agro Haider GmbH,Wenger Str. 2,84164,Rimbach - Germany,"John Deere, CLAAS",
AMAZONEN-WERKE H. DREYER SE & Co. KG,Am Amazonenwerk 9-13,49205,Hasbergen-Gatse - Germany,Amazone,
Landtechnik Kohlstock OHG,Aura 15,36142,Tann - Germany,,
Martin Graml,Oberer Markt 25,94149,Kößlarn - Germany,John Deere,
ERO GmbH,Am ERO-Werk,55469,Simmern - Germany,,www.ero.eu
Blank Landtechnik OHG,Lindenstraße 4,53332,Bornheim - Germany,,www.blank-landtechnik.de
Claas Württemberg - Herrenberg,Heerstr. 2,71083,Herrenberg - Germany,CLAAS,www.claasboerse-sued.com
Penzkofer-Landtechnik GbR,"Hauptstrasse 22
                                                                    Unterwattenbach",84051,Essenbach - Germany,,
De Lage Landen Leasing GmbH,Theo-Champion-Str. 1,40549,Düsseldorf - Germany,,
Claas Württemberg - Neuenstein,Robert Bosch Str. 11,74632,Neuenstein - Germany,CLAAS,www.claasboerse-sued.com
CLAAS Südostbayern GmbH - Moosthenning,Wenger Str. 1,84164,Moosthenning - Germany,,
HEN-AG,Obere Seewiesen 48,71711,Steinheim an der Murr - Germany,"Bema, Bonetti, HEN, Unimog",
Claas Württemberg - Osterburken,Industriepark 3,74706,Osterburken - Germany,CLAAS,www.claasboerse-sued.com
H&B Landmaschinen,Grünbergerstraße 90a,36304,Alsfeld - Germany,,
Peter Lorenz Kfz.- & Landmaschinen-Werkstatt,"Gimmeler Weg 5
                                                                    OT Altkirchen",04626,Schmölln - Germany,,
Claas Württemberg GmbH - Oberessendorf,Petrusstraße 4,88436,Oberessendorf - Germany,CLAAS,www.claasboerse.sued.com
