Name,Address,Postal Code,Locality,Brands,Website
TMO,1 ZI de Keriel,29800,Plouédern - France,,
OUVRARD SAS,ZA L’aubépine,85120,ANTIGNY - France,New Holland Agriculture,
MARSALEIX SARL,Le Bourg,19410,ST BONNET L'ENFANTIER - France,"Fendt, Lamborghini, Massey Ferguson",www.marsaleix-agri.com
GROUPE DEPUSSAY,15 rue Chanzy,28140,TERMINIERS - France,"JCB, CLAAS",www.depussay.com
AGRIGOM PNEUS AGRICOLES NORD,2 RUE DE SERANVILLERS,59258,CREVECOEUR SUR ESCAUT - France,,www.agrigom.fr
PATOUX EQUIPAGRI,3 Rue Henelle,62136,RICHEBOURG - France,"Agrisem, Grimme, John Deere",
VERHAEGHE,ZA Route Lynck,59630,CAPPELLE-BROUCK - France,"AVR, Caterpillar, Fendt, Horsch, Irrifrance, Lemken, Trioliet",
INTER BUSINESS FR,5 Rue du Cabas,8220,SEVIGNY WALEPPE - France,,www.inter-business.fr/#!/pageAbout
ROMET SAS,2 Rue Division Leclerc,53200,GENNES SUR GLAIZE - France,"Agrisem, Massey Ferguson, Merlo",
AGRI AVENIR,"ZA JARRY IV
                                                                    13 CHEMIN SAINT ELOI DE NOYON",33610,CESTAS - France,"Agrisem, Amazone, Challenger, Massey Ferguson, Merlo, Vaderstad, Valtra",
GROUPE CHEVAL (SEMA),Rue du 150ème RI,55300,CHAUVONCOURT - France,"Agrisem, Kuhn, New Holland Agriculture, Promodis",
AGRIOCCAS,23 rue de cambrai,59266,Banteux - France,"Kuhn, New Holland Agriculture",
PM PRO,Route de Charmont,10150,FEUGES - France,"Bednar, Grégoire Besson, John Deere, Kramer, Sulky",concession-jd.com/pm-pro
RAVILLON SA,"7 Rue du Général de Gaulle
                                                                    BP 107",51130,VERT-TOULON - France,New Holland Agriculture,
BPM AGRI,Route d'Ancenis - BP 19,44390,NORT SUR ERDRE - France,John Deere,
GROUPE DOUILLET,36 Rue des Forges,53640,LE HORPS - France,"Agrisem, New Holland Agriculture",
SM3 CLAAS FLEURY,"46 route de Granville - La Bertochère
                                                                    CS 50046",50800,Fleury - France,"JCB, Lemken, CLAAS",
Blanchard Agriculture,ZA de la Tertrais 2,35590,L HERMITAGE - France,New Holland Agriculture,
SOFIMAT OCCASION (PENCRAN / 29),Keravel,29800,PENCRAN - France,"Alpego, Amazone, Caterpillar, Emily, Euromark, Grégoire Besson, Howard, John Deere, Kongskilde, Kuhn, Magsi, Rolland, SMA",
JACOPIN EQUIPEMENTS AGRICOLES,Zone de Bocquenay,56230,QUESTEMBERT - France,Massey Ferguson,www.jacopin.com
AGRIVISION CENTRE OCCASION AGRICOLE,11 route departementale 117,64300,CASTETIS - France,"Agrisem, Berthoud, Can-Am, DeLaval, Gianni Ferrari, Horsch, Husqvarna, JCB, John Deere, Kuhn, Monosem, Pellenc, Promodis, Razol, SMA, Stihl",
DUPUY,"465 ROUTE DE TARTAS
                                                                    AURICE",40500,SAINT-SEVER - France,"Agrisem, Alpego, Faucheux, John Deere, Kramer, Kuhn, Mailleux, OCMIS, Promodis, SMA",
SV-PRO,13 Rue de l'Industrie,89100,MALAY-LE-GRAND - France,John Deere,
ANSELIN SAS,"1 Route de Dieppe
                                                                    les hayons",76270,Esclavelles - France,"Deutz-Fahr, Evrard, Hardi, Kuhn, Lamborghini, Same",
ROUSSEL AGRI 62,23 Route Nationale D939,62127,TINCQUES - France,,www.rousselagri.com
GROUPE SAVAS,"Route de Doué-Distré
                                                                    ZA Le Fief aux Moines",49400,SAUMUR - France,"Agrisem, CLAAS",
SARL RICARD & FILS,La Jeraphie,23300,LA SOUTERRAINE - France,"Deutz-Fahr, Same",www.placedespros.com
JARNY GROUPE,19 rue de Nantes,44270,ST ETIENNE DE MER MORTE - France,"Caterpillar, Fendt",
CLOUE occasion-PRO CULTURE EQUIPEMENT,ZI de Laumont - 20 rue Chambourdon,86530,NAINTRE - France,Case IH,www.cloue.fr
HAAG SAS,141 RUE DU GENERAL LECLERC,54122,AZERAILLES - France,"Bednar, John Deere, Joskin, Kramer, Lemken, Pöttinger, Trioliet",haag.fr/
AGRAM SERVICE DIRECT,gustave eiffel,28630,Gellainville - France,,
AGRI DISTRIBUTION,Route de Passat,3410,ST VICTOR - France,,
DAVID SA,425 RUE JEAN MONNET,2120,GUISE - France,"Agrisem, Case IH, Kuhn, Merlo",
VIMO OCCASION,RUE DU BOIS PREVOST,60130,SAINT JUST EN CHAUSSE - France,,
VIOUX DUBOIS,Route de Montluçon,36330,LE POINCONNET - France,"Case IH, Manitou",
NAULEAU SAS,ZAE DE LA GARE - 1 IMPASSE DES ORMEAUX,85700,La Meilleraie-Tillay - France,,
GHESTEM AGRI,4 CHEMIN DE LA HAIE DU MOULIN,28800,Sancheville - France,"Amazone, Duro-France, Fendt, Hatzenbichler",
NOVA,514 Avenue Jean Monnet ZA La Pile Budeou,13760,SAINT CANNAT - France,John Deere,
GONNIN MA,38 Route de Civray,79190,SAUZE VAUSSAIS - France,"Kuhn, New Holland Agriculture, Promodis",
UNITER 45,8 RUE DU BAS DE GRANGE,18100,Vierzon - France,,www.uniter45.com
SARL Boutinon,564 route du château,16380,MARTHON - France,,
MATERIEL AGRICOLE GAUTHIER,49 Route de Chalon sur Saône,71330,SAINT GERMAIN DU BOIS - France,"Agrisem, New Holland Agriculture",
DEFI-MAT,ZAC DU PUY D'ESBAN Rue Galilée AURILLAC,15130,YTRAC - France,"Avant, Horsch, John Deere, Kramer, Kuhn, Mauguin, Pichon, Rolland, Sodimac, Trioliet",
GROUPE METHIVIER,975 Route de Bellegarde,45460,BRAY EN VAL - France,"Kuhn, New Holland Agriculture, Promodis",
ETS PASTOR SAS,Rue de Touraine,41310,AUTHON - France,"Berthoud, Gilibert, Kverneland, Laverda, McCormick, New Holland, Rolmako, Vaderstad, Vicon",
ARTOIS MOTOCULTURE SAS,79 Route de Béthune,62223,Sainte Catherine - France,Massey Ferguson,www.artoismotoculture.fr
Surplus Industries,zir Mas de Rest,81600,Gaillac - France,,
DEMETERRE,5 rue de l’industrie,25660,SAONE - France,"Dieci, John Deere, Joskin, Kuhn",
LESIEUR SA,ROUTE DE OISSEAU / PARIGNE -  BP 17,53100,MAYENNE - France,"Fendt, McCormick",www.lesieur-sa.fr
BILLAUD - SEGEBA,"ZI La Bottière
                                                                    200 boulevard de POITIERS",79300,BRESSUIRE - France,"Deutz-Fahr, Krone, Kverneland, Lamborghini, Rolland, Same",www.billaud-segeba.com
MALECOT POIRIER AGRI,Route d'Alligny,58200,SAINT LOUP - France,"Alpego, Arland, Case, Evrard, Gaspardo, Grégoire Besson, Krone, Lemken, Thievin, Vaderstad",
VIVAGRI,ZA Carrefour des biards,50540,Isigny -Le-Buat - France,Case IH,
AGRIZONE,38 route de Civray,79190,Sauzé-Vaussais - France,,
DELAGREE,Parc d'Activités La Vigne,35370,ETRELLES - France,"Artec, Kuhn, Mauguin, Monosem, Rolland",www.delagree.eu
PAGOT CAPUT SA,26 Rue Henri Poincaré - BP 65,70000,VESOUL - France,"JCB, CLAAS",
TERREA,ZI Baleycourt,55100,Verdun - France,"John Deere, Kuhn",terrea-sas.fr
AGRI SANTERRE SAS,ZI OUEST rue du champs macret,80700,ROYE - France,"Amazone, Case IH, Grimme",
SAS Michel ODIC,P.A. Saint Eloi,56300,NEULLIAC - France,"Amazone, Deutz-Fahr, Grimme, Joskin, Kuhn, McHale, Polaris, Vaderstad",
CADAUMA MACHINES AGRICOLES,ZA Les Molinières - RD 888,12450,CALMONT - France,"Fendt, Krone, Kuhn, Valtra",www.cadauma.net
CMA,Route de Conques,12000,Rodez - France,"Agrisem, Kuhn, New Holland Agriculture",
MS EQUIPEMENT,LE SIGNAN,56300,Pontivy - France,"Caterpillar, John Deere",msequipement.fr
DIMA SAS,2154 route de Lyon,1630,PERON - France,,
SAS DUVAL FRERES,Le Grand Delieuc,35750,IFFENDIC - France,"Kubota, Merlo, Valtra",www.duvalfreres.com
MARTEL SA,L'Ermitage,51230,Connantre - France,"Fendt, Valtra",www.martelsa.com
COSTE MACHINES AGRICOLES SAS,10 Rue de la Fauconniere,25160,OYE ET PALLET - France,Case IH,
FIRST STOP AYME,17 - 19 RUE JEAN ZAY,69808,SAINT PRIEST cedex - France,"Bridgestone, Firestone, Kleber, Michelin, Trelleborg, Vredestein",
International Trucks & Tractors,"P.I. Roca, c/ St. Martí, s/n",8107,Martorelles - Spain,,www.ITT1878.es
EURO BAEHREL MARLENHEIM,5b Rue des Prés,67520,MARLENHEIM - France,Massey Ferguson,
BELLAMY MICHEL SAS,1 Le Bas des Landes,50680,ST CLAIR SUR ELLE - France,"Deutz-Fahr, Kubota",www.michel-bellamy.fr
SAS MECAVISTA,15 Chemin des Chinois,54290,Virecourt - France,"BVL, Emily, Fendt, Horsch, Iseki, Kuhn, Kverneland, Legrand, McHale, Pichon, Rolland, Samson, Valtra",www.agriaffaires.biz/cal
LAGARRIGUE SA,125 Impasse du Serayol - Morlhon le Haut,12200,VILLEFRANCHE DE ROUERGUE - France,CLAAS,
CLAAS AVIGNON,ZA La Crau,13670,ST ANDIOL EN PROVENCE - France,CLAAS,www.tractomarket.com/avignon
MAC CASTELBRIANTAIS,ZA La Bergerie,44110,LOUISFERT - France,New Holland Agriculture,www.mac.fr
CMS DISTRIBUTION,288 RUE DU STADE,70110,villersexel - France,,
PELLENC BORDEAUX CHARENTES,Lieu dit Goujon - RN89,33500,Néac - France,Pellenc,
CHESNEAU AGRI-OUEST,7 Rue du Calvaire  (Axe LAVAL-LE MANS N157) ou par autoroute A81 et sortie N°1,72540,Joué-en-Charnie - France,"Bednar, John Deere, Kramer, Kuhn",
CLAAS MACON,ZI des Berthilliers - 407 Chemin des Jonchères,71850,CHARNAY LES MACON - France,"Agrisem, CLAAS",www.tractomarket.com/macon
EXPEMAT,Parc Technologique du Canal,31520,Ramonville-Saint-Agne - France,,
BOSSON SAS,123 route de la Bergue,74380,CRANVES-SALES - France,"Fendt, JCB",www.bosson-sa.com
CHAVANEL SAS,230 Rue des Champagnes,73290,LA MOTTE SERVOLEX - France,"Deutz-Fahr, Same",www.chavanel.fr
TMC BEJENNE,951 rue de la Glandée,86530,NAINTRÉ - France,,
RUAUX AGRICOLE SAS,RN 13,14100,MAROLLES - France,"Caterpillar, John Deere",
AIMA PAYS DE CHALLANS,"80 RUE GUSTAVE EIFFEL - BP 619
                                                                    P.A DE LA BLOIRE",85300,CHALLANS Cedex - France,"Kuhn, New Holland Agriculture",www.aima-groupe.fr
POEY AGRICULTURE SAS,RD 936 - Rond-point de Castelnau-Camblon,64190,NAVARRENX - France,New Holland Agriculture,
MCDA,ZAC de JUILLAT,63260,AIGUEPERSE - France,"John Deere, Kramer, Pichon, Pöttinger",www.groupemcda.fr/
ETS GABILLET,Route de Saint Jean Brevelay,56420,PLUMELEC - France,New Holland Agriculture,
VACHER,ZAC de Layat - Route de Paris,63200,RIOM - France,"Fendt, Kubota, Kverneland, Massey Ferguson, Merlo",
AGRIPELLE,LD La Chapelle St Martin,79350,Chiché - France,"JCB, Kubota, Manitou",www.agripelle.com
EMC2,Nid de Cygne,55100,BRAS SUR MEUSE - France,"Caterpillar, Fendt, Massey Ferguson",
GILLY  SAS,RN 85 les Faisses,4510,Mallemoisson - France,"Same, CLAAS",
AGRI MONNAIE,"rd 910
                                                                    Le Boulay",37380,Monnaie - France,"Agrofactory, Jarmet, Landstal, Metal-technik, Sonarol, Stark, Talex",
DUBOURG Y. SAS,1 Rue de l'orée du Bois - BP 17,44130,BLAIN - France,"Agrisem, JCB, Kuhn, CLAAS",
TERAGRI MATERIELS ET SERVICES,88 route de Sommery,76440,Mauquenchy - France,CLAAS,
CLAAS BRETAGNE SUD,ZA Goheleve - BP 88,56300,PONTIVY - France,CLAAS,www.tractomarket.com/bretagnesud
DOUSSET MATELIN,18 Avenue de l'Europe,86170,NEUVILLE DE POITOU - France,"Agrifac, Amazone, Berthoud, Desvoys, Fliegl, Kioti, Lemken, Maschio, Maschio Gaspardo, Merlo, Ovlac, Rabe, Rousseau, Sulky, CLAAS",www.dousset-matelin.com
LENDRE SAS,Le Bourg,64190,NARP - France,Massey Ferguson,
BL PRO,Rue Henri Pluyaud,23300,La Souterraine - France,"Kuhn, Massey Ferguson",
MESSEANT SAS,ZA du Trehoult,62490,VITRY EN ARTOIS - France,Valtra,www.messeant.fr/occasion-agriculture
SARL CROZET,254 route du Forez,42260,CREMEAUX - France,"Caterpillar, Fendt",www.crozetagricole.com
MOTIN SAS - AMS,Route de St Lô,50180,Saint-Gilles - France,"Belair, Joskin, Kverneland, Lely, Massey Ferguson, Pöttinger, SMA, Welger",www.motin.fr/
CASA SERVICE MACHINE,ZI Est Avenue d'Immecourt,62217,TILLOY LES MOFFLAINES - France,"Grégoire Besson, Grimme, Trioliet, CLAAS",
LEBAUDY JACQUES SAS,Route de Tinchebray - BP 1,61700,LONLAY-L'ABBAYE - France,"Caterpillar, John Deere",
AGRI BESSIN,ZA Bayeux Intercom,14400,ST MARTIN DES ENTREES - France,"Bruneau, Demblon, Kuhn, Maupu, Rau-Vicon, Sulky",
Agripartner – Société GANAYE,ZA le charconnay,79270,ST SYMPHORIEN - France,,
MOULIAC & FILS SARL,Route des Bessières,12420,Sainte-Geneviève-sur-Argence - France,CLAAS,
DAVID EST,5 Rue Albert Caquot,8400,VOUZIERS - France,"Case IH, Khun, Kuhn",
CARTON SARL,BP 5,3110,BROUT VERNET - France,"Kubota, Laverda",
CLAAS AQUITAINE,ZA Bois Majou Sud,33124,AILLAS - France,CLAAS,www.tractomarket.com/aquitaine
DIFFUSION DIRECTE,1271 Route de Niort,17400,ST JEAN D'ANGELY - France,,www.diffusion-directe.fr
Le Groupe Lecoq,32 Rue de la mairie,28360,Fresnay-le-Comte - France,New Holland Agriculture,
L'Occaz Agri,LES CARRIERES,86460,AVAILLES LIMOUZINE - France,,
CLAAS RESEAU AGRICOLE PAYS DE LA LOIRE,Boulevard Pierre Lefaucheux,72230,ARNAGE - France,CLAAS,www.tractomarket.com/paysdelaloire
POTTIER SAS,43 rue montaton,53300,AMBRIERES LES VALLEES - France,,
GUEUDET AGRI SOMME - DEBOFFE,RD 1029  (route de Rouen sur GPS),80480,SALEUX - France,CLAAS,
AGRI-POLE,Route de Farrou,12200,VILLEFRANCHE DE ROUERGUE - France,"John Deere, Lemken, Merlo",www.agri-pole.com
CHEVILLARD AGRI,1096 Grande Route,1630,ST JEAN DE GONVILLE - France,"Caterpillar, Kubota, Landini, Valtra",www.chevillard-agri.com
LBMOTOCULTURE,2 BIS GRANDE RUE,51250,VILLERS LE SEC - France,,
MODEMA AGRI SAS,Le Moulin des Landes,49122,BEGROLLES EN MAUGES - France,,www.modema.fr
MECAGRI 19,79 Avenue Carnot,19200,USSEL - France,Case IH,
AJIMATERIEL CAP ALLIANCE,La Houzais,35150,CORPS NUDS - France,"Amazone, Carre, Gyrax, Jeantil, Krone, Siloking",
AGRI MONTAUBAN,780 Chemin de Faure,82000,MONTAUBAN - France,"Laverda, New Holland Agriculture",
MARTIN HVA - Groupe Balthazard,1 Route de l'Usine,88120,JULIENRUPT - France,Deutz-Fahr,
SAS MANAGER,60 AVENUE DU CHASSELAS,82200,MOISSAC - France,Fendt,www.manager-agri.fr
SN COMPTOIR AGRICOLE BASQUE,135 rue Pertikenia,64120,SAINT PALAIS - France,John Deere,
GONNIN DURIS,Route de Levroux,36100,ISSOUDUN - France,"Agrisem, Kuhn, New Holland Agriculture, Promodis",
FREULET SAS,3 Rue d'Amiens,60220,FORMERIE - France,"JCB, Kubota, Lamborghini, Same",
Centragri SA,"La Sente à Rabot
                                                                    Route de La Charité",18390,Saint-Germain du Puy - France,John Deere,
GDV AGRIVITI,RN 3,51460,COURTISOLS - France,"Deutz-Fahr, Lamborghini, Pöttinger, Same",
NOUVELLON SARL,Bois de Feugeres - RN 10,28800,BOUVILLE - France,Deutz-Fahr,www.nouvellon28.com
CLAAS BOURGOGNE,Route de Gray,21490,VAROIS & CHAIGNOT - France,CLAAS,www.tractomarket.com/bourgogne
ALFADOU SARL,Route de Baume les Dames,25360,GONSANS - France,"Deutz-Fahr, Kuhn, Same",
OCCITAINE AGRI,1111 route de Beaumarchès,32160,Saint-Aunix-Lengros - France,"Agrimaster, Amazone, Bauer, Berthoud, Calvet, Jeulin, Joskin, Kongskilde, Krone, Kverneland, New Holland, Razol",
DACHARD SAS,1 Rue du Commerce,3220,TRETEAU - France,New Holland Agriculture,www.dachard-sa.com
SJP,D905   (ANCIENNE RN 5),21130,AUXONNE - France,Michelin,
DAFP SAS,Route de Joigny,89130,TOUCY - France,"Agrisem, Case IH",www.dafp-agri.com
ROUERGUE MOTOCULTURE SA- ETS. MERAVILLES G.,"Route de Decazeville
                                                                    47 rue des routiers",12000,RODEZ - France,Deutz-Fahr,www.rouergue-motoculture.com
JP FRANCE,ZA - 2 Rue Charles Biguet,28480,THIRON GARDAIS - France,,
CLAAS EST,Route de L'Aéroport Régional,57420,CHEMINOT - France,CLAAS,www.tractomarket.com/est
CLAAS BRETAGNE NORD,ZI de Kerbriant - CS 11000,29610,PLOUIGNEAU - France,CLAAS,www.tractomarket.com/bretagnenord
T3M LAVAIL,Route de Castelnaudary - BP 104,31250,REVEL - France,,
SNQM-MARSALEIX,Bagou 342 ROUTE DE GRAMAT,46400,ST MEDARD DE PRESQUE - France,Massey Ferguson,
CLAAS  AUVERGNE,RN 9 - Saulzet,3800,SAULZET - France,CLAAS,www.tractomarket.com/auvergne
BOUCHARD AGRICULTURE,D619,77720,MORMANT - France,John Deere,
SAS HUOT,1 Route de Plénise,25110,VILLERS ST MARTIN - France,New Holland Agriculture,www.huot-agri.com
BALTHAZARD SARL,107 Rue Charles de Gaulle,68370,ORBEY - France,"Deutz-Fahr, Same",
TISSIER SARL,Les Aubis,3210,BRESNAY - France,"Deutz-Fahr, Gyrax, Kuhn, Lemken, McConnel, Ponge, Sodimac, Supertino, Valtra",
GARNIER SARL,1 Rue de la Petite Cote,25270,LEVIER - France,Fendt,
PRIMAULT SAS,102 Bis Rue de Courcelles,51100,REIMS - France,CLAAS,
BONFILS,"ZI LE PLAN
                                                                    zi",38140,Renage - France,"Caterpillar, John Deere",
CHAMOUX VIDONNE SARL,400 RUE DU QUARRE,74800,Amancy - France,New Holland,
ETS CAPELLE,Route de Raulhac,15800,JOU SOUS MONJOU - France,CLAAS,
SICA ARTOIS TERNOIS,Route de Frévent,62130,HERLIN LE SEC - France,"Case IH, New Holland Agriculture",
OCCAMAT,ZA Les Molinières - RD 888,12450,LA PRIMAUBE - France,,www.occamat.net
CENTRAL GARAGE,674 Route de Paris CS 20053,79185,CHAURAY CEDEX - France,Massey Ferguson,
BERNY M&S,La Borde,37110,MONTHODON - France,"Krone, Laverda, Valtra",
PONCELET R. SA,25 Rue des Cloyères,10380,PLANCY-L'ABBAYE - France,"Amazone, Berthoud, Case IH, Merlo",www.rponcelet.com
CHAMBON & FILS,6 Chemin Verdet,33500,Libourne - France,"Case IH, New Holland Agriculture",
AGRI MODERNE SARL,246 Avenue Albert Thomas,81000,Albi - France,CLAAS,www.agrimoderne.com
CHAVANEL AGRI,70 CHEMIN DU BERTRAND,26600,PONT DE L ISERE - France,,
JEAN BOUVIER SAS,148 zone artisanale de la tuiliere,1300,BREGNIER-CORDON - France,"Kuhn, New Holland Agriculture",www.jean-bouvier.com
SERVIMAC,"47 Boulevard du Docteur Audureau
                                                                    JALLAIS",49510,Beaupréau-en-Mauges - France,"Deutz-Fahr, Same",www.service-agri.fr
Quatuor Transactions,Zone du Bronut,56500,MOREAC - France,,www.quatuor-transactions.com
SARL RECUPERATION AGRICOLE GADET,7 Rue de Vieilleville,49430,BARACE - France,,www.pieces-neuves-agricole.com
BALLANGER,Route de la Gare,17290,AIGREFEUILLE D'AUNIS - France,CLAAS,
BRICO'TECH,ZI Les Fromentaux,38270,BEAUREPAIRE - France,"Balfor, Multione, Pronar, Roltrac, Sipma",
VIARD sas,9 rue des écoles,71760,CRESSY SUR SOMME - France,"Case IH, Caterpillar",
LE NORMAND SAS,Z.I de La Rochette,56120,JOSSELIN - France,,
Migaud SAS,1 rue Virginie Heriot,85170,Dompierre-sur-Yon - France,,
MARIDAT SAS,67 Grande Rue,23800,COLONDANNES - France,"JCB, CLAAS",
DOMBES SAVOIE AGRI,297 ROUTE DE VILLENEUVE,1480,CHALEINS - France,Fendt,
CAP Agri Quercy Service,Route du Bourg,46120,LACAPELLE MARIVAL - France,"Landini, Valtra",
SAS SOMAT,"2, Allée de l'Albatros",80440,Glisy - France,"Fendt, Massey Ferguson",
MECADOC SAS,ZI Engachies,32000,AUCH - France,New Holland Agriculture,
CLOUET ETS,Z.A. de la Porte Rouge,27150,Etrepagny - France,New Holland Agriculture,
FOURCADE SAS,510 Avenue de Daniate,32110,NOGARO - France,"Agrisem, Alpego, Berthoud, Braun, Clemens, Collard, Fendt, Hatzenbichler, Kuhn, Pellenc, Spedo, Vaderstad",www.groupefourcade.fr
AGRI MAT SERVICES ( A.M.S ),7 ROUTE DE BOURBON - LES VIGNES,3160,YGRANDE - France,,
DANTAN SARL,RD 6014,27420,VILLERS EN VEXIN - France,"Amazone, Artec, Chevance, Desvoys, Honda, Husqvarna, Iseki, LeBoulch, Stihl, Vaderstad, Viking, CLAAS",
SARL GOURDEAU & FILS,La Rochemairand,86700,ROMAGNE - France,"Krone, Lemken",
LAMOUREUX GUILLAUME SARL,31 bis RN 43 - BP 4,8110,BLAGNY - France,"Fendt, Massey Ferguson",
GUEUDET 1880 - LA MOTOCULTURE,265 Rue de Clermont,60000,BEAUVAIS - France,CLAAS,
DISTAGRI,"ZI
                                                                    1 rue Henri Rotschi",25120,MAICHE - France,Valtra,
DYNA TOURAINE,La Roche Martel,37370,LOUESTAULT - France,,
TERRINOV,ZI de L’Erette,44810,HERIC - France,"Agrisem, Case IH",
VAMAT,ZA LES COTEAUX DE LA TOUCHE,16330,Vars - France,,www.vamat.fr
ETS BANC ET FILS,160 Route de Mauves,7300,PLATS - France,Case IH,www.banc-agriculture.com
MEYER GILBERT NEGOCE,Place des Fines Herbes ou Zone industrielle Sud - Rue des Ateliers,67210,OBERNAI - France,,
ETS R.MOREAU S.A.S,34 ROUTE DE CHATEAUROUX,36500,BUZANÇAIS - France,"Agrisem, Massey Ferguson",
LORA DISTRIBUTION SARL,12 Rue de Jussey,70500,GEVIGNEY ET MERCEY - France,"Agrisem, Deutz-Fahr, Valtra",
ARSILAC,"806 Avenue Cugnot
                                                                    ZAC des Escampades II",84170,Monteux - France,,
LHERMITE AGRI VERNOUILLET,Boulevard de l'Europe - BP 15,28500,Vernouillet - France,"Caterpillar, John Deere, Kuhn",
TECHMAGRI,2 Grande Rue,10140,AMANCE - France,,
VAUDAUX MANUTENTION AGRI,395 ROUTE DE BOURG,1370,Saint-Etienne-du-Bois - France,"Dieci, Kubota, Lely, Reform",
DAUSQUE AGRI SAS,D 341,62380,LEDINGHEM - France,"Deutz-Fahr, Same, Valtra",www.dausqueagri.com
CHAYS ETS,4 Grande Rue BP 21,25800,VALDAHON - France,Valtra,
SAS WILLEMAND,"130, Route de Frévent",62140,Sainte-Austreberthe - France,"Agrimat, Amazone, Bonnel, BVL, Deutz-Fahr, Grégoire Besson, Kuhn, McHale, Merlo, Monosem",www.willemand.fr
NADAL SARL,1344 rue des routiers - ZA Bel Air,12000,RODEZ - France,Kubota,
GRABE-BIDAU,Chemin Milhe,64160,LOMBIA - France,"Agrisem, CLAAS",
SAS RIVET BMA,GERMANAS,16350,Benest - France,,
PELLENC LANGUEDOC ROUSSILLON,PAE La Baume10 rue des entrepreneurs,34290,SERVIAN - France,"Alpego, Berthoud, Desvoys, Gimbre, Hardi, Jean de Bru, Khun, Maschio, Pellenc, CLAAS",
QUIERS SARL,"15 Route du VEINAZES
                                                                    RD 920",15120,LADINHAC - France,"Agrisem, New Holland Agriculture",
AGRICENTRE 36,ZI des Plantes de Chabenet,36800,LE PONT CHRETIEN - France,"Horsch, John Deere, Kramer, Kuhn",
GUEUDET AGRI AISNE - SN DACHY,35 Route de Chambry,2840,Athies-sous-Laon - France,,
SUOMA SAS OCCASION,58 Route de Nantes,85000,LA ROCHE SUR YON - France,"Agrisem, Kuhn, CLAAS",
AGRICULTURE RIOLAISE SARL - agent KUBOTA,ZA DE LA CHARRIERE,70190,RIOZ - France,,
AGRI 86,5 Route de Châtellerault,86140,ST GENEST D'AMBIERE - France,"Caterpillar, John Deere",
GUYONNET JEAN LOUIS SAS,ZA Les Places - RN 82,42110,CIVENS - France,"Deutz-Fahr, Same",
AGRINOVE,"521, IMPASSE DU PRÉ D'ENFER
                                                                    AGRINOVE",71260,SENOZAN - France,"Case IH, Lucas, Maschio Gaspardo, Pöttinger",
Equipment Machinery Service,1 Rue Emile Desvaux,14500,Vire - France,,
NEUFVILLE AGRI,"31 rue du haras
                                                                    D 925",76450,OUAINVILLE - France,"Caterpillar, Fendt",
BERNARD MATERIELS AGRICOLES,723 AVENUE DE L'INDUSTRIE,1120,DAGNEUX - France,Massey Ferguson,
SAMA,Rue des métiers,27230,THIBERVILLE - France,Massey Ferguson,
AGRILANDADSL SARL,4 rue de l'industrie,56440,Languidic - France,,www.agrilandtrader.com
CLAAS ST OMER,14 Rue Jules Verne - BP 8,62575,BLENDECQUES - France,CLAAS,www.tractomarket.com/blendecques
GARNIER SAS,"5, route du Bancillon
                                                                    Saint Jean la Bussière",69550,Saint-Jean-la-Bussière - France,New Holland Agriculture,
SAS AB ConsultAgri,30 RUE DU REVERMONT,1250,Revonnas - France,"Amazone, Fendt, John Deere, Joskin, Krone, Kuhn, Massey Ferguson, New Holland, Pichon, CLAAS",
SAS AGRI OUEST,8 Rue de la Marechallerie,61350,PASSAIS LA CONCEPTION - France,,
BRETAGRI SA,10 Rue du Clos Michel - ZA Gripail - BP 16,35590,SAINT GILLES - France,"Amazone, Berthoud, Case IH, Caterpillar, Kuhn, McHale, Monosem, MX",
EUROSAMA,Rte Dept 931,32110,LANNE-SOUBIRAN - France,"Case IH, Caterpillar",
AURIAU LA GRIMAUDIERE,20 Rue du Général De Gaulle,86330,LA GRIMAUDIERE - France,"Fendt, JCB",
FREJABISE SN,Cigalou,82200,MONTESQUIEU - France,CLAAS,
DESMIER SARL,ZA,30430,BARJAC - France,,
ARE,14 Rue Albert Caquot,8400,VOUZIERS - France,"Deutz-Fahr, Same",www.are08.com
LANDIMAT SA,RD 924,40250,LAMOTHE - France,New Holland Agriculture,www.landimat-sa.com
SARL MARTIN JOUY AUX ARCHES,56 bis Route de Metz,57130,JOUY AUX ARCHES - France,,
MAT ANJOU,La Rue du Bois,49250,BEAUFORT EN VALLEE - France,,
GROUPE ALEXANDRE ALEXANDRE CONCESSION,RN 12 - Kernilien - BP 10227,22200,Plouisy - France,"Laverda, Merlo, Valtra",
PERRE ET BEYGNIER SARL,19 Route du Puy,43700,ARSAC EN VELAY - France,"Deutz-Fahr, Lamborghini, Same",
CANCE MPM SA,RN 20,31790,ST JORY - France,Krone,
TECHNIQUES AGRICOLES SAS,11 Rue des Prés,68500,Berrwiller - France,"Case IH, Deutz-Fahr, Fliegl, Krone, Kubota, Kuhn, Lamborghini, Rabe, Same, Thievin",
MBA ETS,Au Bourg,64520,GUICHE - France,McCormick,
COLLET LOUIS DAVIGNON,Rue du Bataillon XII 20,55430,BELLEVILLE SUR MEUSE - France,"Bogballe, Grégoire Besson, Horsch, JCB, Lemken, Lucas, Maschio Gaspardo, Mauguin, Rolland, CLAAS",
CHAPUIS SAS,ZA de Couteuges,43230,PAULHAGUET - France,"JCB, John Deere, Krpan, Westfalia",www.agriaffaires.biz/charleschapuis
MARVALIN SAS,19 Impasse des Fours à Chaux,63350,JOZE - France,"Landini, Zetor, Valtra",
ETS SOETAERT,"Z.A Campauge
                                                                    513 Route de Bernay",14290,La Vespière - France,Valtra,
EMPIAN EURL,En Barbut,32130,SEYSSES SAVES - France,,
MARCHADIER SAS,Avenue Etienne Clémentel,63720,SURAT - France,New Holland Agriculture,
AVEO,Champoyet,1400,Neuville-les-Dames - France,Valtra,www.aveo-occasion.fr
FORAGRI SERVICES,Parc d’Activité des Nations - rue de Suède,67230,BENFELD - France,"Fliegl, Lemken, CLAAS",
COLINET AGRI MONTS DU LYONNAIS,5 place de la liberté,69850,SAINT MARTIN EN HAUT - France,"Deutz-Fahr, Khun, Lamborghini",
LACAN REQUISTA SAS,Place du Marché Couvert,12170,REQUISTA - France,"Case IH, JCB",www.lacan.fr
GROUPE TRANCHARD - AGRISUD,"ZA les Plaines
                                                                    2 Allée des Artisans",48230,CHANAC - France,John Deere,
RAULT LOUIS SARL,2 Allée du Héron,50220,POILLEY - France,Fendt,
LOIRE EQUIPEMENT,"RN 82
                                                                    1535, rue Charles de Gaulle",42210,MARCLOPT - France,"Kuhn, New Holland Agriculture",
ARMORICAINE -SERA 3000,ZI de Lumunoc'h,29510,BRIEC DE L'ODET - France,Massey Ferguson,www.groupelenormand.fr/
DFAE,1290 chemin du contour,38260,LE MOTTIER - France,,
CIAM,3280 Route de Prades,66000,Perpignan - France,"Deutz-Fahr, Kubota, Same",
BERNARD SAS,Impasse Monge - ZI Très le Bois,22600,LOUDEAC - France,Case IH,www.groupe-bernard.com
Ets Hervé,Zone Artisanale Le Dily,22350,PLUMAUDAN - France,"Agrisem, Massey Ferguson",www.etsherve.com
T3M BLANC ROCHEBOIS,"855 RD N7
                                                                    Route d'Aix",83170,Brignoles - France,,
SERVIPRO,Z.A de Pen Prat,29600,Sainte Sève - France,,
JAMS SARL,"281 rue des Graissières
                                                                    ZA Les Graissières",62136,LESTREM - France,,
ALBI MOTOCULTURE,"10 Rue Pasteur
                                                                    ZA de Garban",81990,PUYGOUZON - France,New Holland Agriculture,
AGRO DYNAMIC,12 route de Montmarault,3210,SOUVIGNY - France,,
DIMOND SAS,Route de Damville - BP 42,27190,CONCHES - France,Case IH,www.ets-dimond.fr
GARAGE DE CROTZ,Route d'Ecueillé,36240,GEHEE - France,"Horsch, Iseki, John Deere, Kuhn, Lemken, Polaris",
Lebrun Tracteurs et pièces occasions,28 Route de Mézidon,14370,AIRAN - France,,
SUREAU AGRICULTURE SAS,ZI Sud La Croix Verte - Route de Sauvigny Le Bois,89200,AVALLON - France,"Agrisem, Kuhn, New Holland Agriculture, Vaderstad",
MAISA,274 AV DES FUSILLES,49400,Saumur - France,,
VMA 15 SAS,ZAC du Crozatier,15100,SAINT GEORGES - France,"JCB, CLAAS",
L'ARTESIENNE,2 Route Nationale,62127,TINCQUES - France,,www.bennes-artesienne.com
MONTAUT SARL,ZA La pouche,32220,LOMBEZ - France,Terex,
MCC SARL,Parc d'occasions MCCGrande rue,51800,DOMMARTIN DAMPIERRE - France,,
MADE AGRI,"13, rue de l'industrie",89100,MALAY LE GRAND - France,"John Deere, Koeckerling",
LOXAGRI Machinisme,ZA du haut mont,62650,Maninghem - France,,
SAS MJE agri,4 rue du moulin à vent,2250,La Neuville bosmont - France,,
GASNIER AGRI,88 rue St Hélier,35000,RENNES - France,,
DI CRISTIANU,9 rue des tilleuls,51260,Granges sur aube - France,,
DUBOURG AGRI SERVICE,ZI La Seiglerie - Rue Antoine Lavoisier,44270,MACHECOUL - France,"Agrisem, JCB, CLAAS",
PORCHER SAS,ZA Bourdelas - Route de Limoges,87500,ST YRIEIX LA PERCHE - France,"Case IH, New Holland Agriculture",
DUVIGNAU AIRE,3462 Route de Bordeaux,40800,AIRE SUR L'ADOUR - France,Massey Ferguson,
EUROMAGRI,402 Chemin des Mousquetaires,40990,Saint-Paul-lès-Dax - France,"Caterpillar, Fendt, Valtra",www.euromagri.fr
AGRITYRE FRANCE,20 avenue de laon,2200,SOISSONS - France,,
PEILLET SAS,ZA Les Chasses,26100,ROMANS SUR ISERE - France,"Fendt, John Deere, Merlo, Valtra",
ROCHA SA,107 RUE BOURNIZET,8400,VOUZIERS - France,"Evrard, Hytrack, Kawasaki, Kubota, Kuhn, Massey Ferguson, Welger",
MOTOCULTURE BASCO BEARNAISE,1354 RD 933 - Route de Sauveterre,64120,AÏCIRITS CAMOU SUHAST - France,CLAAS,www.mbb-adour.com
LIMAGRI MOREAU,ZA Les Petites GrangesAncienne RN 141,87420,SAINT VICTURNIEN - France,,
TMC BEJENNE,951 rue de la Glandée,86530,Naintré - France,,
SCOP ARL BOUSQUIE,Le Poustel,12450,Luc-la-Primaube - France,,www.ets-bousquie.com
SAS SICOIT,Le Village,26450,ROYNAC - France,New Holland Agriculture,www.sicoit.fr
AGRI 51,RN 44,51360,VAL DE VESLE - France,,
SEBY JEAN & FILS SA,145 Avenue Philippon,64000,PAU - France,Case IH,
DUCHARNE AGRIDIFFUSION,Z.I. - 60 Route de Mâcon - CS 50066,71120,CHAROLLES - France,"JCB, John Deere, Kuhn, Promodis",www.ducharne.fr
GEORGES EQUIPEMENTS,438 Route de Xertigny,88370,BELLEFONTAINE - France,Case IH,
GILIBERT & FILS,Route Départementale 3,31230,RIOLAS - France,Case IH,
VITAGRI,La Pièce Barade,24150,ST CAPRAISE DE LALINDE - France,"JCB, Landini, Massey Ferguson",
OUEST MOTOCULTURE,ZA Zoopole,22440,PLOUFRAGAN - France,"Actisol, Cargo, Einböck, Fendt, Horsch, Kuhn, McHale, Monosem, MX, Schäffer, Sodimac",
EUROPAGRI,3 ter Rue de la République,89100,SAINT CLEMENT - France,New Holland Agriculture,
RUDOLPH SARL,Zone Artisanale,67430,DIEMERINGEN - France,"Deutz-Fahr, Kubota",
AGROTECH (LESUEUR ETS),Rue Joseph Gaulle,76850,BOSC LE HARD - France,John Deere,www.agro-tech.fr/
MARECHAL ETS,Rue de la Belle Etoile,58220,DONZY - France,Agrisem,
FONTVIELLE SAS,Route de Chambon,23110,EVAUX LES BAINS - France,"Agrisem, New Holland Agriculture",
ETS PEAN,Cormenon,41170,MONDOUBLEAU - France,"Kuhn, New Holland Agriculture",
PAGES MA SAS,Avenue Georges Pompidou,15000,AURILLAC - France,Massey Ferguson,
JF-AGRI MACHINES AGRICOLES & E.VERTS,2 Allée de la Hardt - ZA Technoparc,68440,SCHLIERBACH - France,CLAAS,
POCE MECANIQUE AGRICOLE,"La massonais, route de châteaubourg",35500,Vitré - France,Valtra,
ACS ANDELFINGER SA,8 Rue de la Gare,68640,WALDIGHOFFEN - France,"JCB, New Holland Agriculture",
GROUPE LAVAIL - TRACTO MARCHE DU MIDI,Rue Denis Papin - ZI la Bouriette,11000,CARCASSONNE - France,"Agrisem, Laverda, New Holland Agriculture",
A&MS AGRI MOTOCULTURE SERVICES,25 Avenue de la Libération,79320,CHANTELOUP - France,Kubota,
GLAIRON MONDET SAS,1025 RUE DU BOIS DE L'ILE,73460,Tournon - France,,
EQUIP JARDIN REGION 2,"25 Rue Thomas Edison
                                                                    equip jardin",72000,Le Mans - France,,
JAN-ROL,ul. Pałucka 6,88-170,Pakość - Poland,,
SERMA SAS,"Rue de Bel Air
                                                                    ZAC du Londeau",61000,Cerisé - France,"Fendt, Kuhn, McCormick, Merlo",
GROUPE FUTUR AGRI SAS,ZI Jean Malèze,47240,CASTELCULIER - France,"Case IH, Laverda, New Holland Agriculture",
FAUPIN SAS,150 Route de Dijon,21200,BEAUNE - France,,
SOCOTAM AGRICORAMA,RN20 - Fonneuve - BP 402,82000,MONTAUBAN - France,"Agrisem, Amazone, Case IH, Krone",www.socotam.com
LOCAMOISSON,Berdoues,32300,BERDOUES - France,"Capello, Case IH, John Deere, New Holland, CLAAS",
BAS RHIN MOTOCULTURE,29A - Route de Haguenau,67670,MOMMENHEIM - France,"Agrisem, Laverda, Valtra",
LOUIS GAY SAS,Route de Foix  (Par la Vallée de la Lèze),31310,MASSABRAC - France,"Carre, Desvoys, JCB, Kioti, Kuhn, Kverneland, Lemken, Maschio, Rousseau, CLAAS",
CHOUFFOT SAS,"2, avenue Saint Rémi",91540,FONTENAY LE VICOMTE - France,Massey Ferguson,
CHEVALERIAS SARL,Route d'Angouleme,16220,MONTBRON - France,"Caterpillar, John Deere",
MANIERE,ROUTE DE CUSSY,21340,VAL-MONT - France,"Agrisem, Deutz-Fahr, Kuhn, Same",
VIAU SA,17 Avenue Fontcouverte - BP 617,84000,AVIGNON - France,"Agrisem, New Holland Agriculture",
AGRO SERVICE 2000 SERVICE MATERIEL,Biopôle 2 rue Emile DUCLAUX 63360 SAINT-BEAUZIRE,63360,Saint-Beauzire - France,,www.agroservice2000.com
EUROMASTER LANDERNEAU VI,"27,  RUE HERVE DE GUEBRIANT",29800,LANDERNEAU - France,,pneu-agricole.euromaster-professionnels.fr/
SAS THOUARD,2 rue du grand chêne,17770,LE SEURE - France,Lamborghini,
EUROMASTER,"rue des charmilles
                                                                    z.i sud est -chantepie",35510,Cesson-Sévigné - France,,
CRAVERO MOTOCULTURE,672 Route de Montauban,31660,BESSIERES - France,Landini,
Grimme France,ZAC Artois - Pole 1 Allee du Danemark,62223,FEUCHY - France,,
BALLAND SAS,65 Avenue Marechal Foch,38260,La Côte-Saint-André - France,"Gilibert, Hardi, Krukowiak, Maschio Gaspardo, Massey Ferguson, Pöttinger",
MGAV,"102 Route de Nueil, Rond-Point de la Girafe",49700,DOUE LA FONTAINE - France,,
AGUILLE SERGE ETS,ZA Les Trotteries,61340,BERD'HUIS - France,Valtra,
Toul pneus,380 Rue Marie Marvingt,54200,TOUL - France,"Alliance, BKT, Bridgestone, Firestone, Kleber, Michelin, Mitas, Nokian, Taurus, Trelleborg, Vredestein",www.toul-pneus.com/
Vantage Atlantique-Méditerranée,Fontenay,36130,Déols - France,,
MARTIN SAS,"Route des Artisans
                                                                    Zone du Claux - 64 Impasse du Claux",12410,CURAN - France,CLAAS,
LEROCH Distribution sas,Zi du bourgeais,56380,Guer - France,,www.leroch-distribution.fr/
AGRi iMMO,19 avenue de la Grande Ourse,44300,Nantes - France,,
FMV-Defrance,37 grande rue,10250,NEUVILLE SUR SEINE - France,,
SODISMAG,3 route de Port Maubert,17520,ST CIERS CHAMPAGNE - France,Landini,
MAILLET SARL,Zone Artisanale,63600,ST FERREOL DES COTES - France,CLAAS,
FLIEGL FRANCE,"ZA de la Fidéle
                                                                    31 rue chotard",44430,Le Loroux-Bottereau - France,,
TAQUIPNEU,chemin cazeaux,47200,Marmande - France,,
PELLEGRIN ADRIEN ETS,Manse,5260,FOREST SAINT JULIEN - France,"Deutz-Fahr, Kuhn, Lamborghini, Same",
CRESSONNIERE SARL,La Cressonnière,53240,ST JEAN SUR MAYENNE - France,,
AGRI MECA EURL,ZI des Plantes - 7 rue de Vaugereux,70150,MARNAY - France,,
BOURDA VERGEZ SARL,6 RD 817,65320,LUQUET - France,,
ETABLISSEMENT BRUNIERE,4 CHEMIN DES VERGERS,26600,Pont-de-l'Isère - France,"Berthoud, Clemens, Landini, McCormick, Pellenc",
MONREYSSE SAS,La Bitarelle - RN 122,15290,OMPS - France,Fendt,
S.A.S. Up'Agri,"La Madeleine
                                                                    Route de Saligny",3290,DOMPIERRE SUR BESBRE - France,"Fendt, Gyrax, Kuhn, Maitre, MX, Ponge",
SOCOMAV,103 Avenue de Barbezieux,16100,CHATEAUBERNARD - France,Grégoire,
MORIN SARL,21 route d'Avallon,21350,VITTEAUX - France,"Agromehanika, Berthoud, Breviglieri, Carre, Grégoire Besson, Jeantil, Kioti, Kongskilde, Mascar, Quivogne, Rabaud, Samasz, Sulky, Tatoma",
BUCHEZ GROUPE,Route de Marcilly,58800,CORBIGNY - France,Valtra,
AVENIR MOTOCULTURE SA,ZA - 7 rue des Pommetets,21560,ARC SUR TILLE - France,Massey Ferguson,
JARDIVAL,20 Place du Maréchal Juin,39000,LONS LE SAUNIER - France,,
GUÉRARD SAS,11 Boulevard Industriel - ZA du Val de Béthune,76270,NEUFCHATEL EN BRAY - France,Valtra,
GAUTIER SARL,10 Rue Eugene Egasse,28410,BROUE - France,"Apc, Cochet, Demblon, Desvoys, FAO, Ferri, Gilibert, Gourdon, Horsch, Jean de Bru, Kongskilde, Kuhn Blanchard, Matrot, Quivogne, Rabaud, Rabe, Suire, Sulky, Tecnoagri, Vigolo, Zetor, Valtra",www.ets-gautier.fr
Ets HENRELLE,44 route de guise,59550,Landrecies - France,CLAAS,
SAVAGRI,La Cosne,41360,SAVIGNY SUR BRAYE - France,"Deutz-Fahr, Same",www.savagri.fr
EUROTRAC,2 rue Achille Berquet,8300,Rethel - France,Eurotrac,
ALSATERR SARL,ZA - 1 rue Gilardoni,68210,RETZWILLER - France,"Kubota, McCormick, Zetor",
SCOP BOUCHARD,"ZA DU CINGAL
                                                                    9 RUE DES PALLIERES",14680,BRETTEVILLE SUR LAIZE - France,Fendt,
RICHY ET FILS - LUGNY,385 route des Eaux Bleues,71260,LUGNY - France,"BCS, Boisselet, Braun, Bugnot, Caeb, CGC-Agri, Dhughes, Dickey-john, Gimbre, Ideal, Infaco, Mori, New Holland Agriculture, Provitis, Rabaud, Tecnoma, Zallys",
Alabeurthe SAS,15 Rue Jacques Germain,21200,BEAUNE - France,,
GUYOT PINAULT SARL,La Ville Collet,35290,ST ONEN LA CHAPELLE - France,Landini,
ALEXIS RAY SAS,Le Bournet,63440,ST HILAIRE LA CROIX - France,New Holland Agriculture,
BRUN R. & FILS,620 Rue Blaise Pascal,39000,LONS LE SAUNIER - France,Massey Ferguson,
CAULLERY ARDENNES SERVICES,12 Route Nationale - Mon Idée,8260,AUVILLERS LES FORGES - France,Massey Ferguson,
FIMAGRI SAS,ZI de Saint Eloi,29260,PLOUDANIEL - France,New Holland Agriculture,www.fimagri.fr
CONFORTECH,"""Porte Verte"" 240 rue Paul Berthoud",69220,Belleville en Beaujolais - France,,
EURL AGRI 25,29 ZA Les Banardes,25800,Valdahon - France,,
DURET SA,25 Rue Paul Deschanel,28150,VOVES - France,Case IH,
Ets CHESNEAU,ZI de Buray,41500,MER - France,"Caterpillar, John Deere",www.chesneau.eu
BORDA GARAGE,Route de Digne,4410,PUIMOISSON - France,Kubota,
CHANCEAULME SAS,2 Route des Anes,24230,VELINES - France,"Grégoire, Massey Ferguson, Same",
BOUDET SARL,25 Rue de la Fontaine,23110,SANNAT - France,CLAAS,
BAYARD SAS,Route Nationale,62910,MOULLE - France,"Deutz-Fahr, Lamborghini, Same",
BASSET,ZI de Bellevue,10110,POLISOT - France,"Bobard, Massey Ferguson, Toro",
SAS DELOR,"ZA DU GEVAUDAN
                                                                    RIEUTORT DE RANDON",48700,MONT DE RANDON - France,Valtra,
IDASS SA,Rue de Montbary - ZI,45140,ORMES - France,,
ESCURAT SARL,St Dezery - Les Prades,19200,USSEL - France,New Holland,
GEORGES MOTOCULTURE EURL,ZA du Pré de la Barre,38440,ST JEAN DE BOURNAY - France,"Deutz-Fahr, Same",
GIRARD SA,ZAC La Tuilerie - BP7,1330,VILLARS LES DOMBES - France,"Agrisem, Kverneland, New Holland Agriculture",
SNMA OUEST REMORQUE,ZA Le Carrefour,50540,ISIGNY LE BUAT - France,,www.ouest-remorque.com
AGRO SERVICES,le moulin de bouineau,17430,Saint-Coutant-le-Grand - France,Horsch,
CORNET SAS,Route d'Etampes,45300,PITHIVIERS Cedex - France,"JCB, John Deere",
ALPHATRAITE SARL,1 chemin des granges,42210,Saint-Cyr-les-Vignes - France,,
LALAY SARL,Le Bourg,16310,VERNEUIL - France,"Amazone, Deutz-Fahr, Devoys, Kverneland, Lamborghini, MX, Same, Vicon",
OCHANDO EURL,Espace Entreprise MéditerranéeRue Brillat Savarin,66600,RIVESALTES - France,,
MAT OCCAZ,545 route du village,82270,MONTFERMIER - France,,www.agriaffaires.biz/matoccaz
VALAGRI SARL,ZI - Brazey en Plaine,21470,BRAZEY EN PLAINE - France,"Caterpillar, Fendt",
ETS COSTEDOAT,980 Chemin Betloc,40700,HAGETMAU - France,Valtra,
DELOURMEL AGRICULTURE,11 Rue du Hill,35230,NOYAL CHATILLON SUR SEICHE - France,"Agrisem, Berthoud, Challenger, Fendt, Horsch, Kuhn, McHale, MX, Strautmann",
BOISUMAULT SAS,61C Allée des Pamprots - ZI de Souillac,16200,JARNAC - France,McCormick,
SARL MATERIEL TECHNIQUE,nargoedo,56480,Silfiac - France,,
DR AGRI,333 D 159,10600,Savières - France,"JCB, Valtra",
RMA,14 Avenue du Chêne Vert - ZAC,35650,LE RHEU - France,"Deutz-Fahr, Lamborghini, Same",
CAUQUIL & FILS SARL,Le Moulin Neuf,12400,MONTLAUR - France,"Deutz-Fahr, Landini, Same",
ALTEOR TRANSACTION,PA du Gohélève,56920,NOYAL PONTIVY - France,,
SOCIETE LARRIEU,2 chemin de la christere,40800,Sarron - France,CLAAS,
MRA,14 Rue Wissembourg,67690,HATTEN - France,,
TOUBOULIC SAS,ZA de Kerlossouarn,22160,CALLAC - France,New Holland Agriculture,www.touboulic.fr
LE BOURBASQUET SAS,"4 , RUE JEAN GUYOMARC'H
                                                                    ZA DE KERBOULARD",56250,ST NOLFF - France,"Deutz-Fahr, Kuhn, Same",www.lebourbasquet.fr
SAMA04,Zone artisanale,4700,ORAISON - France,"Kuhn, Massey Ferguson",
AGRIVERT SERVICE,ZA DU FIEU,43190,Tence - France,,www.agrivert-service.com/
FREDIERE SAS,15 montée du bois d'art,69210,SAVIGNY - France,"Merlo, Same, Valtra",
AGRIFOY,avenue de bordeaux,33220,Port-Sainte-Foy-et-Ponchapt - France,,
SASU GERALT,20 RUE ROGERON,8150,TREMBLOIS LES ROCROI - France,Metal-Fach,
MARY AGRI,"110 chemin de la zone artisanale
                                                                    Les Avorgères",38150,Sonnay - France,,
MASZYNY ROLNICZE,TRZEMESZNO 3,63-708,ROZDRAZEW - Poland,,
CASTEL AGRI,Rue lafayette  BP 117,44110,CHATEAUBRIANT - France,,
SARL SOMIA,Joli Coeur,56920,NOYAL PONTIVY - France,McCormick,
SARL HOCHET 14,"ZA ARIANA
                                                                    8 PLACE DU CHEVALEMENT MINIER",14420,SOUMONT SAINT QUENTIN - France,,
VAUDAUX SAS,138 Route de Tanninges,74100,Vétraz-Monthoux - France,,
CLAUDAGRI SAS,180 rue BA 902 Zone d'activités,88140,Auzainvilliers - France,Valtra,
SAS Groupe Rouquette,Rue Charles portal (CASE IH ),11000,Carcassonne - France,,
CREUSOT PNEUS,55 BOULEVARD DE ABATTOIRS,71200,Le Creusot - France,,
scop falhun,58 route de kerlaudy,29420,Plouénan - France,,
SCD Equipements,ZA du Bouquet,70300,Saint-Sauveur - France,,
Sarl SNH,2 rue Notre Dame,57720,Erching - France,,
BITARD & LEO REUNIS SARL,3 Rue des Frères Lumière,33320,EYSINES - France,,www.bitardetleo.fr
LOURIOU SA,12 Rue du Hameau de Bretagne,91150,MORIGNY CHAMPIGNY - France,Case IH,
MOTOBRIE PROVINS,ZI Champ Benoist - 14 Avenue de la Voulzie,77160,POIGNY - France,"Kuhn, New Holland Agriculture",
REBEYROLLES FRERES SARL,La chataigneraie,87220,EYJEAUX - France,,
LANDRI SAS,"58 Rue St Berthevin
                                                                    PARIGNY",50600,GRANDPARIGNY - France,,
TSA AGRI,5 passage Gutenberg,10120,Saint-André-les-Vergers - France,,
SAS SBL,ROUTE DE MAYENNE,53440,LA CHAPELLE AU RIBOUL - France,,
ETS MARCHAND,23 AVENUE DES PYRENEES,9100,Saint-Jean-du-Falga - France,"Kuhn, New Holland Agriculture",www.eurofarm.fr/
ESPACE AGRI SAS,"lieu dit Kerantré
                                                                    ZA du Barderff",56500,Moréac - France,Fendt,www.espaceagri-sas.com
CAROFF SARL,42 BIS RUE RAVAZ,16130,SEGONZAC - France,,
EURODEALER CENTRE,ZA de la Haute Borne,28310,Toury - France,,
EQUIP JARDIN ATLANTIC,L'ORCERIE,44840,Les Sorinières - France,,
PAGES MOTOCULTURE,386 Boulevard Jean Guigues,84120,PERTUIS - France,Massey Ferguson,
ERC 27,9 RD 438,27300,Plasnes - France,,
SEMAC SAS,57 Rue de Segonzac,16100,COGNAC - France,Massey Ferguson,
HM MAT SARL,12 rue Saint Pierre,51330,GIVRY EN ARGONNE - France,,
MOLLE SARL,12 Route de Luxeuil,70200,LANTENOT - France,New Holland Agriculture,etablissement-molle.e-monsite.com
CANY ETS,route de l'étang de pabot,24470,SAINT SAUD - France,,
SAS LMTP,ZA la JALLETIERE,49380,Notre Dame d'Allençon - France,,www.horsemann.fr
SERMA,8 Rue des Chênes,67670,MOMMENHEIM - France,Fendt,
RABEUX Père Et Fils SARL,Route de Saulieu,58140,BRASSY - France,"Deutz-Fahr, Lamborghini, Zetor",
GROUPE MELIX - ETS MELIX SAS,Avenue Monseigneur de Langle,11400,CASTELNAUDARY - France,"Fendt, Kubota, Kuhn",
TAVEAU JACQUES SARL,1 Rue de l'Argillière,60480,ST ANDRE FARIVILLERS - France,Deutz-Fahr,
BATHELIER SAS,128 Rte d'orange,84600,VALREAS - France,"Fendt, McCormick, Zetor",
MONS AGRI,47 ROUTE NATIONALE,80200,ESTREES MONS - France,"Deutz-Fahr, Kubota, Kuhn, Same",www.mons-agri.fr
DOUAY & FILS SARL,28 Rue de Lihons,80170,MEHARICOURT - France,,
CAMPION SARL,ZA de l'Hyvet - 13 Rue de la Fontaine Saint Nicolas,22230,MERDRIGNAC - France,,
LUCAS & FILS SARL,Route de Paisson,89740,CRUZY LE CHATEL - France,"Agrisem, Massey Ferguson",
NICOLAS LE FORESTIER,1 rue de la Gare,70230,FONTENOIS LES MONTBOZON - France,,www.nicolasleforestier.fr
SEE ROCHE JEAN,Cherveix Cubas,24390,CHERVEIX CUBAS - France,"Landini, Valtra",
MECAGRI,147 Route de Vienne,38150,ROUSSILLON - France,"Agrisem, Amazone, Berthoud, Carre, Case IH, Dieci, Ferrari, Gilibert, Kioti, Krone, MX, OCMIS, Pöttinger, Quivogne, Rolland, Rosatello, Tomix, Zuidberg",
ETS P. FAVIER,Les Baraques,43370,CUSSAC SUR LOIRE - France,"Caterpillar, Fendt, Massey Ferguson",
SAS MB LATHIERE,Route National 21,87230,CHALUS - France,New Holland Agriculture,
NIESS AGRICULTURE,20 Rue du Sable,67250,HOFFEN - France,New Holland Agriculture,
AUBER AMS,ZA La Plaine du Buc,76540,THIETREVILLE - France,Valtra,
Agri Trading,1 rue de la Vallée du chat,16460,Chenon - France,,
CERNEAU SA,33 Rue st germain,27400,Louviers - France,"Iseki, Kubota, Mitsubishi, Yanmar",
DUMONTAUX PERE & FILS SA,Le Bourg,23700,DONTREIX - France,"Deutz-Fahr, Kuhn, Kverneland, Same",
RIVIERE & FILS SARL,ZA,37140,BENAIS - France,Landini,www.riviere-sarl.com
DUBRANLE SAS,Les Genets,23160,AZERABLES - France,Valtra,
MAHIEU LEGER SARL,8 Route du Rozel,50340,ST GERMAIN LE GAILLARD - France,,
SARL STERVINOU,LOCH AR VATEN,29270,Cléden-Poher - France,,
ACKERMANN SA,ZI Rue Lavoisier,57340,MORHANGE - France,New Holland Agriculture,
ETS FUCHS SAS,19 Rue de Mulhouse,68510,RANTZWILLER - France,"Deutz-Fahr, Kuhn, Same",
SARL DELAGE CEREALES,Le grand maine,16380,Feuillade - France,,
DUPORT-AGRI SAS,"Zone d'activité de Longnes route de Versailles
                                                                    Rue des Vieilles Vignes",78980,LONGNES - France,"Demblon, Evrard, Fendt, Sulky",
AGRI 12,Siouls,12170,La Selve - France,,
Etablissements MAZE,"Route de Ploubalay
                                                                    ZA des Alleux",22100,TADEN DINAN - France,"Alpego, Demblon, Dominoni, Köckerling, Matermacc, McConnel, Pronar, Samasz, Serrat, Silofarmer",
Agriterres,42 rue Tourneloup,71000,Mâcon - France,,www.agri.terres.com
SCHAECHTELIN ERIC & CIE,40 Rue Principale - BP 10,68320,MUNTZENHEIM - France,"Agrisem, CLAAS",
TRAC MB,1 Rue de Valeran,60690,ROY BOISSY - France,"John Deere, La Campagne, Sulky, CLAAS",
PIERRE SALEIL SARL,Varès,12150,Recoules-Prévinquières - France,"Deutz-Fahr, Lamborghini, Same",
ETABLISSEMENTS BARBIER,117 Rue de Goupillières,78910,FLEXANVILLE - France,"Kuhn, New Holland Agriculture",
BROTTES MATERIEL AGRICOLE,35 route de mobos,26120,Chabeuil - France,Zetor,
CHASTEL & MEYZENC SARL,130 Route de Gap Pré Pourcier,5300,Lazer - France,"Fendt, Valtra",
SEMAC,6 ROUTE DE LUE EN BAUGEOIS,49140,CORZE - France,Valtra,www.semac.fr
SARL A2R,7 route de la Guesle,78125,Poigny-la-Forêt - France,,
ROLMAT 52,Rue Jean Moulin,52260,ROLAMPONT - France,,
OULMIERE SARL,157 Avenue de Lautrec -,81100,CASTRES - France,"Agrisem, Kuhn, Massey Ferguson",
AVL Import Export,Route de Beaufort,49350,Les Rosiers-sur-Loire - France,,
BOUVARD SERVICES NEGOCES / SEMALEV,"3 rue des Rosiers
                                                                    Bouchereau",77710,REMAUVILLE - France,,
AGRIMAT,35 Route de Strasbourg,67270,HOCHFELDEN - France,Case IH,
AGRIPOL SAS,ZA - 1 rue de la Basse Belloye,76270,CALLENGEVILLE - France,"Caterpillar, Fendt",
TURPAUD BERLAND,37 Avenue Georges Clémenceau,85120,LA CHATAIGNERAIE - France,"Lindner, Merlo",
SARL GASDON Agri-Occas,St Louis,44670,LA CHAPELLE GLAIN - France,,
SAVOIE MOTOCULTURE SAS,32 Rue Jean Moulin,74150,RUMILLY - France,CLAAS,
VALLET SAS,"17 ROUTE DE VILLENEUVE D AVAL
                                                                    ZI BP18",39600,ARBOIS - France,"Kuhn, Massey Ferguson",
SOCOMA Service,Avenue de Vabre,12000,RODEZ - France,"Hitachi, Manitou, Mustang",
JOSSE SAS,5 Rue de l'Orme,27240,BUIS SUR DAMVILLE - France,"Fendt, Horsch, Husqvarna, Iseki, McHale, Sulky",www.josse-agrisaintquentin.com
SAS LE SAOUT PIERRE,Créac'h Oalec - BP1,29233,CLEDER - France,,www.lesaoutsas.com
AMBS.COM - LA LITTORALE,Route de campagne,62870,Buire le sec - France,,www.ambslalittorale.fr
AGRIMAX SARL,2 ter Grande Rue,10240,COCLOIS - France,"Agrisem, Massey Ferguson",www.agrimax10.fr/
MONLEZUN,"Route du Village 26
                                                                    Standard",65220,LALANNE TRIE - France,"Alpego, Merlo, Pöttinger, Valtra",www.sas-monlezun.fr
CHABAS SAS,"Avenue de la Liberation
                                                                    ZA du Rompidou",13350,Charleval - France,,
COMPTOIR AGRICOLE DE BOLOGNE,ZAE - Route de Marault,52310,BOLOGNE - France,"Agrisem, Valtra",
LE VOURC H MATHIAS SARL,ZI de Kerduff,29260,LE FOLGOET - France,,
MATEVERT,27 Route de Lyons,27480,BEAUFICEL EN LYONS - France,,
CHEVALLIER SARL,Grande Rue,61550,GLOS LA FERRIERE - France,,
SN CBM,Rue d'Artouste,64121,SERRES CASTET - France,CLAAS,
AVMI,ZA La Tancrere - 13 Rue St Eloi,49270,LA VARENNE - France,,www.avmi.fr
sarl zworld,ZA LAPUZOQUE,47170,Sos - France,,
Rullier Sud Provence,"Rullier Sud Provence
                                                                    140 Allée des romarins",83170,Brignoles - France,,
SARL MJC,24 ROUTE DE SAINT MAIXENT,79120,Lezay - France,,
EUROMAT 24,Route de Cahors,24550,VILLEFRANCHE DU PERIGORD - France,,
JEANNET DEBIT SARL,Les Bruyeres,42590,NEULISE - France,,
MECANIC 2000,ZA La Guiternière,53170,MESLAY DU MAINE - France,"Case IH, Deutz-Fahr",
BAUMONT EURL,1 bourgLe Bois de la Touche,41160,BREVAINVILLE - France,"New Holland, Zetor",
AUDO JEAN PIERRE SARL,6 La Croix Blanche,56500,MOREAC - France,"Dal-Bo, Desvoys, Emily, Fella, Grégoire Besson, Jeantil, Kuhn, Loiseau, Magsi, Mailleux, Maschio Gaspardo, Pichon, Quivogne, Silofarmer, Sodimac, Sulky",
DLV PRO,Zac Julliat Est,63260,AIGUEPERSE - France,,
BRESSE JURA AGRI,Rue de l'Ecole,39160,NANTEY - France,Same,
SOC. NOUVELLE ETABL. DESRET,LE BOURG,23110,FONTANIERES - France,McCormick,
SARL HAMON AGRI,82 ROUTE DE  LANMEUR,29610,PLOUIGNEAU - France,"Landini, Lindner, McCormick",
ETS DE BRUIN,Route de Paris,89320,CERISIERS - France,"Bobcat, Fendt, Merlo",
RULLIER AGRI TECHNIC,"Parc d'activité le mas de la cour
                                                                    Rue François Mitterrand",16100,CHATEAUBERNARD - France,"Fendt, McCormick, Same",
JACOULOT SERVICE PLUS,55 Rue Principale,25210,LES FONTENELLES - France,,
ATELIER 3T,"8, rue Louis Lumière
                                                                    Z.I. Les Blussières Sud",85190,Aizenay - France,"Agrisphere-Hispec, BMW",
FERT DEMOLITION SAS,Quartier Les Plans,84600,VALREAS - France,,
LEMONNIER SARL,ZI des Peupliers,61600,LA FERTE MACE - France,"Desvoys, John Deere, Krone, Lely, Monosem, Sulky",
SAINT MARTIN SARL,2 Chemin Tillet,64350,ARROSES - France,,www.vitivini-saintmartin.fr
ROBIN PNEUS,9bis rue de Pornic,44580,FRESNAY EN RETZ - France,,
ROSSIGNOL SARL,Route de Roanne,42430,ST JUST EN CHEVALET - France,,
VAL'AGRI,ZA La Baisse de Saint-Anne,4210,VALENSOLE - France,"Deutz-Fahr, Same",
DIJEAUX SARL,Avenue de la Résistance,9200,SAINT GIRONS - France,"Kubota, McCormick",
BOULANGER SA,BP 43,55140,VAUCOULEURS - France,"Deutz-Fahr, Same",
GEOFFROY SARL,RN 19,10200,LIGNOL LE CHATEAU - France,John Deere,
AGRIFUTURA - FABRE & FILS SARL,10 Route de Toulouse,31590,VERFEIL - France,"Deutz-Fahr, Lamborghini, Same",
MAZE-BSA,"10, parc d’Activités de Kérizac",22200,Plouisy - France,Case IH,
AGRAUPOL,Au courde,32110,Cravencères - France,"Agrofactory, Agroland, Gardell, Landstal, Metal-technik, Sonarol",
MOTOCULTURE 42,2798 rue Jean Rostand,42350,La Talaudière - France,,
LE GOFF & GILLE,1 bis route de Serez,27220,MOUSSEAUX NEUVILLE - France,"Massey Ferguson, McCormick",
AXXO,4 RUE DES FRENES,33210,Mazères - France,Först,www.axxo-forst.com
CHENEAU ETS,40 RUE GRANDE,28220,AUTHEUIL - France,"Grégoire Besson, Same, Sulky, Tecnoma",
ETS DIVARET-SEIGNEUR,"26, Route d'Aunay, La Croix Verte
                                                                    VASSY",14410,VALDALLIERE - France,,
MAT-AGRI-EST SARL (MATERNE),Cochonville,55210,VIGNEULLES LES HATTONCHATEL - France,,
MATERIEL FORESTIER & AGRICOLE - MFA,75 CHEMIN DU BERTRAND,26600,PONT DE L'ISERE - France,,
SAS AGRIDIARVILLE,3 chemin prairie de vaux,54930,Diarville - France,,
BS AGRI LANDES,"2030 ROUTE D'HAGETMAU
                                                                    BATIMENT D",40700,Doazit - France,,
COMBES EQUIPEMENTS,"1 Route Du Parapluie
                                                                    ZA Les 4 Chemins",15250,NAUCELLES - France,"JCB, Kubota, McCormick, Valtra",
GIE CAMPAGNE & CO,303 rue de Buire,62870,CAMPAGNE LES HESDIN - France,,
RAVEL PAUL  SARL,"2 Route de la Beauté
                                                                    Rif Bonnet - D14",63160,MONTMORIN - France,Kioti,
PORTEX SARL,10 chemin de Rempeau,32800,BRETAGNE d’ARMAGNAC - France,"Landini, Massey Ferguson",www.sarlportex.fr/
SAFER NOUVELLE AQUITAINE,AUX COREIX,87430,Verneuil-sur-Vienne - France,,
SERMAT Equipements,ZA Croas Ar Nezic,29800,SAINT THONAN - France,"Farmet, Pichon",
NOREMAT,166 Rue Ampère,54714,LUDRES - France,Noremat,
MPAGRI,183 rue de laon,2840,COUCY LES EPPES - France,,
SAS BACHELEY Christian,Route de Gare,14620,MORTEAUX COULIBOEUF - France,,
SICAMAR,"1 Rue de l'Initiative  ZA
                                                                    Douchy",45220,DOUCHY-MONTCORBON - France,John Deere,
CHOMAT ARROSAGE SAS,182 Rte de Bonson,42170,ST JUST ST RAMBERT - France,,
MARETEC,1090 ROUTE DU GUIGONNET,13270,FOS SUR MER - France,,
EUROMAGRI SARL,402 chemin des Mousquetaires,40990,Saint-Paul-lès-Dax - France,,
Rullier EV,47 rue Jacques Prévert,33700,Mérignac - France,,
MECAGRI SARL,"10, le scion",50320,beauchamps - France,,
MANUTECH,678 Route du pays Dacquois,40180,BENESSE LES DAX - France,JCB,
GARAGE LOISEAU,12 Barillet,37460,BEAUMONT VILLAGE - France,,
ANGELARD CHRISTIAN SARL,8 Route de Montaigu le Blin,3150,ST GERAND LE PUY - France,,www.etsangelard.com
MICHEL EQUIPEMENT,Route de Montpellier - Rocade Sud,30100,ALES - France,New Holland Agriculture,
MARCIGNY MOTOCULTURE,ZI Saint Nizier,71110,MARCIGNY - France,Massey Ferguson,
TIFFAY SARL,270 Route de Verdun,55120,DOMBASLE EN ARGONNE - France,"Deutz-Fahr, Lamborghini, Same",
Auer Landtechnik,Mainzerstr. 12,55296,Lörzweiler - Germany,,www.auer-landtechnik.de
CEVENNES MOTOCULTURE,33 Rue de L'Abrivado,30000,NIMES - France,,www.cevennesmotoculture.com
MAZE - SOBREMA SAS,"Le Drevers
                                                                    BP 14",29190,PLEYBEN - France,Case IH,
SARL NORD AGRI,27 ROUTE DE CAMBRAI,59730,SAINT PYTHON - France,"Agram, Amazone, Berthoud, Delaplace, Deutz-Fahr, Faucheux, Fella, Frandent, Grégoire Besson, Lamborghini, Legrand, Mailleux, Monosem, Same, Samson, Sulky, Vicon, Vigolo",
LENOBLE AGRI77,9 Route de Gaubertin,77890,BEAUMONT DU GATINAIS - France,"Deutz-Fahr, Same",
MAPP,823 Zone De l'Epinette - BP 70107,59471,SECLIN - France,,
SARL CHUPIN,12 RUE JACQUELINE AURIOL,79300,BRESSUIRE - France,"Actimat, Bepco, Carre, Dimaco, Einböck, Fella, Granit, Hydrokit, Intermas, Jeantil, Kuhn, La Buvette, Makita, Monosem, Norep, Polyplast, Quivogne, Rocha, Silofarmer, Sulky, Thievin",
BARNEZET SA,41 Rue de l'Evolution -  ZAC Les Bousquets,83390,CUERS - France,"Kubota, Landini",
PERREUX MANUTENTION AGRICOLE (PMA),606 rue du Commerce,42120,PERREUX - France,"JCB, Kubota",
SAS LENORMAND,68 ROUTE DE ST LO,50190,PERIERS - France,,
N3 Service Agri,Avenue Ernest et Aimé TouyarouBP 7,32800,EAUZE - France,"Agrisem, CLAAS",
AGRI EST,177 Avenue du Général de Gaulle,68440,HABSHEIM - France,,
LE MOAL,Kermaria,22170,BOQUEHO - France,"Deutz-Fahr, Kubota, Kverneland, Pichon, Sulky",www.etslemoal.com
DELTA SUD,ZI - Avenue E. Branly,47400,TONNEINS - France,"Fella, Quivogne, Tecnoma, Vigolo",
CLASTRES EYCHENNE,3219 Route de Saint Girons,9420,Lescure - France,"Deutz-Fahr, Stoll, Vicon",
SARL LCMA,26 A Route de Brecey,50670,ST LAURENT DE CUVES - France,,
SASU Azur Vinicole,"167, rue Paul Bocuse",13530,Trets - France,,
ALSAGRI,14 Rue de Benfeld,67600,HILSENHEIM - France,,
GARAGE BEAUGER,ZA Route de Fortan,41360,EPUISAY - France,,
AVR bvba,Meensesteenweg 545,8800,Roeselare - Belgium,,
EQUIP AGRI,281 Impasse du Tilleul,38470,BEAULIEU - France,Case IH,
REYMOND MAT-AGRI SARL,RN 88,43260,SAINT-HOSTIEN - France,,
DOREZ SA,Rue de Breban,10240,DAMPIERRE - France,"Asa-Lift, Ferrari, Grimme, Lemken, Michalak",
SARL MPN AGRI NEGOC'-SERVICE,5 RTE DE DIEULOUARD,54380,Villers-en-Haye - France,,
NOEL SARL,23 Rue du Port,52130,WASSY - France,Laverda,
LAFFORGUE SEE,Au Village,32190,SAINT JEAN POUTGE - France,Valtra,
MORISOT SARL,Moulin de Chatellenot,21290,Terrefondrée - France,"Krone, Merlo, Valtra",
GUILBAULT SARL,10 AVENUE RAYMOND COUTIN,58240,ST PIERRE LE MOUTIER - France,,
VECTIS SAS,PLACE ALBERT EINSTEIN,56000,Vannes - France,,
AGRITRANSACTIONS,PERCY,50410,PERCY EN NORMANDIE - France,,
AUDIN ALAIN SARL,"Les Combes
                                                                    89 ROUTE DE PARIS",3460,VILLENEUVE SUR ALLIER - France,"Kubota, Lamborghini, Same",www.audin-agri.kubotaconcessionnaire.com
MUSQUAR ETS,Le Cheval Rouge,54770,BOUXIERES AUX CHENES - France,,
AGRI SUD BRETAGNE,1 rue simone veil,56390,GRAND CHAMP - France,,
DIRAGRI,"7 route de Gasville
                                                                    ZA de Mondétour",28630,Nogent Le Phaye - France,John Deere,www.diragri.net
AGRI LARGE,15 ROUTE DE TONNAY BOUTONNE,17380,ARCHINGEAY - France,,
ETS LOUBET ET FILS SAS,111 Impasse du Garage,38710,ST BAUDILLE ET PIPET - France,"Fendt, Kuhn, Kverneland, Massey Ferguson",
MICHEL VIARD SARL,Route de Toulon-Etang,71320,La Boulaye - France,Case IH,viardagri.fr/
CAVALLERO ROGER SARL,400 route de Corgenon,1960,SAINT ANDRE SUR VIEUX JONC - France,"Caterpillar, McCormick",
CHARRIAU SARL,10 Rue des Peupliers,44270,ST ETIENNE DE MER MORTE - France,,
ROPA FRANCE,280 Rue du Château,60640,GOLANCOURT - France,,
DMS 41,22 Rue des Alouettes,41400,PONTLEVOY - France,,
PRIMOTERA,23 Place Paul Saissac,81310,Lisle-sur-Tarn - France,,
SOUSLIKOFF & CIE,2 Route de Queyzans,33340,SAINT YZANS DU MEDOC - France,Massey Ferguson,
TAQUIPNEU - Agence HAGETMAU,ZI Montplaisir,40700,Hagetmau - France,"Alliance, BKT, Kleber, Michelin, Mitas, Taurus, Trelleborg, Vredestein",
GREEN POWER SARL,ZA les  Accrues,51800,Sainte-Menehould - France,,
AGRI-FROT,14 Route de Sully,45460,BONNEE - France,"Deutz-Fahr, Joskin, Kuhn, Kverneland, Landini, Same",www.agri-frot.fr/
E.S.A,154 route de BOUGY,74350,Cruseilles - France,,
JEAN RAVE & FILS SARL,Le Bourg,71120,CHAMPLECY - France,"Amazone, Fendt, Krone, Merlo, Trioliet, Valtra",
VIRON SARL,15 Rue de Belfort,68210,DANNEMARIE - France,Agrisem,
BESQUEUT SARL,La Vio de Coubladour,43320,LOUDES - France,Case IH,
SALIN AGRICULTURE 53,Le Bourg,53250,LE HAM - France,"Deutz-Fahr, Same",
aso machine agricole,jevah-haut rn 89,24110,st astier - France,,
BLANCHARD MOTOCULTURE,Les Minières,86700,PAYRE - France,,www.blanchard-motoculture.fr
LORGNIER MACHINES AGRICOLES,359 Rue de l'Abbé Pruvost,62850,LICQUES - France,Valtra,
SAS MORTIER CENSEREY,5 route de Chappe,21430,CENSEREY - France,Massey Ferguson,www.groupemortier.com
SARL Jansoulin,Impasse Bonneval route de Bras,83470,Saint-Maximin-la-Sainte-Baume - France,,
FOREST PIONEER SL,"POL. IND BIDAURRE UREDER
                                                                    VENTAS AUZOA B45 - BAJO 6A",20305,Irún - Spain,,
BERGER VITI VINI,1 B Rue Bailly Maître,21190,Meursault - France,,
BRAZEY MOTOCULTURE,Route Nuit Saint Georges,21470,BRAZEY EN PLAINE - France,"Deutz-Fahr, Same",
COURTADON SARL,5 RUE JEAN FERRAT,63720,Ennezat - France,,
BOUCHERON SAS,1 Rue Saussy Bailly,21150,Ménétreux-le-Pitois - France,,
AVS FRANCE - GPFA,1 Route des Noix,3190,St Caprais ( Allier ) - France,,
OUANNE AGRI SARL,22 rue des Vignes,89560,OUANNE - France,Fendt,
AGRI MOTOCULTURE DE LA SELUNE,Le Pont Poisson,50720,BARENTON - France,,
Pronar Sp. z o.o.,ul.Mickiewicza 101A,17-210,Narew - Poland,,
COUDERC SEE,18 Route de Villemur,31620,VILLAUDRIC - France,,
SAPC,9 Allée des champs,80860,Nouvion-en-Ponthieu - France,,sapc-agri.fr
PETIT SA,27 Route de Besançon,25390,ORCHAMPS-VENNES - France,New Holland Agriculture,
SARL ROLLAND Distribution,Les Fontenelles,35290,GAEL - France,,
Rullier Agro Equipement,1 ROUTE DE LOISEAU,33126,FRONSAC - France,,
FAURE & FILS SA,Route de Montélimar - Quartier les Blaches,26400,CREST - France,"Kuhn, Massey Ferguson",
SA LOCHOU,Route de Morlaix,29520,Châteauneuf-du-Faou - France,"Kubota, Landini",
M-PNEUS,2 ROUTE DE REIMS,2340,Montcornet - France,,
MANIERE SARL,Rue des Mûriers,21690,VERREY SOUS SALMAISE - France,New Holland Agriculture,
ETS SCHNELL,21 Route Nationale,67600,EBERSHEIM - France,,www.agriaffaires.biz/schnellraymond-sarl
AGRI PLEINE FOUGERE,6 Rue de la Roirie,35610,PLEINE FOUGERE - France,,
PONCET ROGER SA,760 Route Pont du Trésor,74330,SILLINGY - France,"Khun, Massey Ferguson",
TINET & FILS SARL,60 Route de Clermont Ferrand,63760,BOURG LASTIC - France,,
PERRAMANT SARL,375 Rue du Maréchal Leclerc,29800,LANDERNEAU - France,,
OLLIER PAUL SARL,Pirolles,43590,BEAUZAC - France,Case IH,
CALAD' MOTOCULTURE,361 Route d'Anse,69400,LIMAS - France,,
CARROSSERIE AURAN,RN 88 - Les Farguettes,81190,STE GEMME - France,,
BERNARD SAS,2040 Route de Bellevue,69700,ST ANDEOL LE CHATEAU - France,John Deere,www.agriaffaires.biz/bernard
TRACT AGRI,Rond Point des Sources de la Vendée,85120,LA TARDIERE - France,,
BARRAU MACHINES AGRICOLES,"Route de Rodez,",12240,RIEUPEYROUX - France,,
LION CRAMPE SARL,Chemin de Crampe,64230,MOMAS - France,,www.quad-lion-crampe.fr/index.php
SAS FOURNIER,ZA du Moulin à Vent,53230,MERAL - France,Valtra,
OGEZ & FILS SAS,Route Nationale 25,80260,VILLERS BOCAGE - France,New Holland,
SN DUMONT,ZA du Parquet d'Alouettes,60360,CREVECOEUR LE GRAND - France,CLAAS,
PONS FRERES SAS,112 Rue A.Lavoisier,12100,MILLAU - France,"Massey Ferguson, McCormick",
HANTSCH SA,Rue de l'Europe - ZI,67520,MARLENHEIM - France,,
MOTOCULTURE PIECES SERVICE,L'AUBLETTE,22100,Quévert - France,,
STOEHR AGRI-SERVICES,75 Rue des chevaliers,67690,Rittershoffen - France,,
AGRI PLEVY EURL,4 place du gaboudin,69610,Grézieu-le-Marché - France,,www.agriaffaires.biz/AGRI-PLEVY-EURL
LEROY - ALLEZY,Route de Patay,45410,ARTENAY - France,"Fendt, Massey Ferguson",
KEIME Sarl,"15 a route de NANCY
                                                                    Zone Cap Ouest - IMLING",57400,SARREBOURG - France,Massey Ferguson,www.agriaffaires.biz/keime/used/
SARL GARAGE SANGUINET,"ZONE INDUSTRIELLE  CAP PYRENNEES
                                                                    2 RUE DE LA GEUNE",65100,ADE - France,,
ELEVAGE SERVICE,ZAE LES PRES MAGNINS,39600,LES ARSURES - France,New Holland,
MORTIER ETS,4 Rue de Reims,8130,SAULCES CHAMPENOISES - France,Valtra,
Société JDD,"2 rue des Longs Sillons
                                                                    Romefort",16460,Saint-Front - France,,
AGRIOCCASION,12 Chemin des Meynieux,33480,BRACH - France,,
PONCET AVI,ZI CHASSERICOURT,10330,Chavanges - France,,
ETS DUPIN - HY ALLIANCE,8 Rue de la Forêt,44110,VILLEPOT - France,,
DOUSSAUD EQUIP JARDIN SARL,"2, RUE JEAN MERMOZ",87220,FEYTIAT - France,,
JLC     MATERIELS   AGRICOLES,BEIRE LE CHATEL,21310,Beire-le-Châtel - France,,
EI JUMELAIS ALAIN,Les Auvais,53960,BONCHAMP LES LAVAL - France,,
SARL PULVEJUSTE,"1 La Champagne
                                                                    05.45.82.40.48",16130,VERRIERES - France,,www.pulvejust.com
DEROUET HENRI SARL,3 ROUTE DE LA  HOGUETTE,14700,FALAISE - France,,
DUMONT FRANCE CAVE,17 Rue Pré Breda,51530,MARDEUIL - France,,www.dumont-francecave.com
Courage Ignition Lda,3 et 4 avenue de la Republique,1050-185,Lisbonne - Portugal,,
BOUCHERON MATERIEL AGRICOLE,ZA PENSE FOLIE,45220,CHATEAU RENARD - France,,
PETITJEAN SAS,ZI ROUTE DE REMIREMONT,88120,SAINT-AME - France,Bobcat,
AUDEBERT SARL,18 AVENUE DE LA GARE,63260,AIGUEPERSE - France,"Agrisem, Kuhn",
SMAAR,ZA le Piol,84380,MAZAN - France,"Deutz-Fahr, Lamborghini, Same",
BELLIER SARL,ZI de Marcerolles - Rue E.Ruterford,26500,BOURG LES VALENCE - France,"Deutz-Fahr, Lamborghini, Same",
ToutAgri,"LE BOURG
                                                                    NOTRE DAME DU TOUCHET",50140,Mortain - France,,
MBT SARL,"Petite Route de Maillane
                                                                    Quartier la Massane",13210,Saint-Rémy-de-Provence - France,,
COMAI SA,ZI du Barraouet,82100,CASTELSARRASIN - France,,
CENTRE EST MANUTENTION,528 AVENUE MARECHAL DE LATTRE DE TASSIGNY,39300,CHAMPAGNOLE - France,,
AGRI VS,ZA La Vallée,85700,ST MESMIN - France,,
BASELGA J. & FILS SARL,19 Chemin du Moulin - RN 20,31620,CASTELNAU D'ESTRETEFONDS - France,,
JULIEN VITICULTURE,Chemin de la Fialouse,34370,CAZOULS LES BEZIERS - France,,
RENNES MOTOCULTURE,"ZA Des Rignés
                                                                    22, Rue Maison Neuve",35830,BETTON - France,Kubota,
FAUCON ALAIN SARL,"ZA la borie2
                                                                    2 rue Hennebique",43120,MONISTROL SUR LOIRE - France,"Landini, Valtra",
SAS MARCHAND Xavier,80-82 Zone artisanale du Puits,53400,CHERANCE - France,,
GIRAL MOTOCULTURE,Rue de la Chicane,48200,ST CHELY D'APCHER - France,,
CAUJOLA & FILS SARL,Le Village,31430,MONTOUSSIN - France,,
COTONAT CHRISTIAN SARL,Boulanger,32230,LADEVEZE RIVIERE - France,,
DURAND MATERIELS AGRICOLES SARL,ZAC Les Meres,38850,CHIRENS - France,"Landini, McCormick",
SORGES MOTOCULTURE,RN 21 - Les Andrevias,24420,SORGES - France,Massey Ferguson,
QUIGNON AGRI SARL,Route de St Hilaire,49310,VIHIERS - France,,
HUGON SA,Avenue de la Méridienne,48130,AUMONT-AUBRAC - France,New Holland Agriculture,
BOUDON & FILS SARL,31 Avenue Jean Jaures - BP 54,43100,BRIOUDE - France,,
AGRIPLUS SERVICES,Avenue de la gare,40700,HAGETMAU - France,Laverda,www.agriaffaires.biz/agriplusservices
ETS CHAXEL SASU LA MADELEINE,40 Rue Aimé Bouchayé - ZA La Palanque,65600,SEMEAC - France,"Deutz-Fahr, Kverneland, Same",
CHEVALIER ROBERT SARL,Route de Pompadour,19350,JUILLAC - France,"Deutz-Fahr, Same",
Agrisystem Sarl,petit bost,24400,beaupouyet - France,,
FRANCHINI SARL,Quartier la Gare,26300,MARCHES - France,Deutz-Fahr,
MUZY SARL,ZA La Vernache,1400,CONDEISSIAT - France,Landini,
MOTIN Frères SAS,"Route de Montebourg
                                                                    Le mont rouge",50700,VALOGNES - France,Valtra,
TERRAUBE SARL,"25, Chemin du Centre",64160,ST ARMOU - France,,
CADIS SAS,"N°23, Z.A. du Vignaud",85210,ST JEAN DE BEUGNE - France,,
Komatsu Forest GmbH,"293 Rue des Entrepreneurs
                                                                    ZA Lecuru",60610,Lacroix St Ouen - France,,
BLANCARD Motoculture,47 rue Diogène Maillart,60480,Lachaussée-du-Bois-d'Ecu - France,,
Concept Machines Bernhardt,66 Chemin des Marquis,16190,Courgeac - France,,
Ets FAURIE Sas,Lafarge,24300,CONNEZAC - France,"Aguirre, Grégoire Besson, Massey Ferguson, MX, Vicon",
Usinage et Soudure Rémy,"98 Traverse du Truc, ZI de MEAUX",82300,Caussade - France,,
SARL TROMPETER,4 rue des Vosges,68320,ARTZENHEIM - France,,
ECS SARL,3 rue André Citroën,49450,ST MACAIRE EN MAUGES - France,,www.ecs-bpl.com
VENT DU SUD,chemin des sources,12290,Canet de salars - France,"Caffini, Orsi, Tonutti",www.agrimatexport.com
CASS TRACT 21,za du paquier des vernes,21490,BROGNON - France,,
KUB 89,ZA du Soleil Levant,89290,VENOY - France,Kubota,
XAMAT,27 avenue des frères montgolfier,64140,Lons - France,,
BOUCHERON SAS,Rue du Bois de Chaudron,89160,LEZINNES - France,Fendt,
Sarl MP MAT24,"757 Route de Cuzorn
                                                                    MARTILOQUE",47500,FUMEL - France,,
Rullier Languedoc Roussillon,"Rullier Languedoc Roussillon
                                                                    ZAC Prat de Cest",11100,Bages - France,,
CHRESTIA & FILS SARL,Route d'Orthez,64300,SAINT BOES - France,,
BLIN ETS,ZA,53970,NUILLE SUR VICOIN - France,,
AGRI MECANIQUE,1 Rue de la Gare,67260,WOLFSKIRCHEN - France,,
JOMARD SARL,116 Route de St Romain,69490,SARCEY - France,,
CASTREC SAS,Kerhuel,29290,MILIZAC - France,,
Latitude GPS,13 rue des drapiers,27110,Venon - France,,
PUBLIER VITI SAS,20 Rue du Stade Garnier,2310,CHARLY SUR MARNE - France,,
MAILLARD SARL,Le Bourg,14170,SASSY - France,,
HAMON SARL,ZA du Pont Neuf,44320,ST PERE EN RETZ - France,Valtra,www.hamon-sarl.com
BORIES EQUIPEMENT SARL,Mousquette RN 112,81120,DENAT - France,,
MAT AGRI 22,"4 rue du Pont Gauvin
                                                                    ZA Les Dineux",22250,TREMEUR - France,"Deutz-Fahr, Same",www.matagri-22.com
LANAUD SARL,ZI,16260,CHASSENEUIL SUR BONNIEURE - France,,
THIRIAT SARL,485 Route de Bains les Bains,88220,XERTIGNY - France,,
MAIA SAS,83 Rue de l'Ambène,63200,RIOM - France,JCB,
AGRIVITI TECH,Boulevard Bossais,17160,MATHA - France,,
NEXON SARL,Le Bourg,16320,MAGNAC LAVALETTE - France,,www.sarl-nexon-16.fr/
sarl distribution melusine,ZA Route de Niort,86600,LUSIGNAN - France,,
ETS DUPRE JEAN LOUIS,172 chemin du  Coin,42320,SAINT CHRISTO EN JAREZ - France,,
COMPTOIR AGRICOLE DES MAUGES,"4 RUE DES NOISETIERS - LANDEMONT
                                                                    ZA LES CHATAIGNERAIES",49270,Orée d'Anjou - France,"Dieci, Kverneland, Valtra",
ERNEST ROTH FRANCE SAS,ZAC des Chauffours,90100,Delle - France,,
PNEUS PROS POINT S,2320 route nationale,1120,La Boisse - France,,
EURL PATRICK COMTE,ZA Les Bruyères,71130,NEUVY GRAND CHAMP - France,,
AGRIDEAL,Chemin des Perrines,35500,VITRE - France,,
TSM (TECHNIQUES SERVICES MARNE),2 Allée Robert Delloye – B.P. 4,51500,SILLERY - France,,
SAS - WALTER,RD 31,21110,ROUVRES EN PLAINE - France,Valtra,
SARL RHEVEA,ZA DE LA GUETTE,58340,CERCY LA TOUR - France,,
OBERLE FOREST EQUIP Sàrl,"Zone Artisanale
                                                                    Rue de la Batteuse",67330,NEUWILLER LES SAVERNE - France,,
FORESTIER LEBLOND SARL,2 rue du Val Vernier,76730,BRACHY - France,"Massey Ferguson, Same",
E.M.S. Agri Normandie,13 route de Saint-Lô,50160,Torigni-sur-Vire - France,,
SARL LAFFONT,AU VILLAGE,32120,BAJONNETTE - France,,
SARL Ets URVOY,ZA des Rosais,35550,SIXT SUR AFF - France,,
COLLARD SAS,"11 rue Jeanne d'Arc
                                                                    CS 40001",51150,BOUZY CEDEX - France,"Bobard, Boisselet, Collard, Infaco, Niko",
DANET AGRI ST GILDAS,Zone de la Croix DanielBP 6,44630,ST GILDAS DES BOIS - France,,
DEPUSSAY MANUTENTION AGRI,Boulevard de la Chenardiére,72560,Changé - France,,
AJAP,Route de Montigny,52240,LENIZEUL - France,,
AGRI-TECH MOTOCULTURE,La Croix Rouge,18390,ST GERMAIN DU PUY - France,,
ETS DURET,ZA des Ormes,53600,STE GEMMES LE ROBERT - France,Valtra,
DT SEVIN  SARL,ROUTE DE MEUNG,45310,ST SIGISMOND - France,,
CHAMPAGNE ARDENNE NÉGOCE,"2, rue sainte lucie",51600,Jonchery-sur-Suippe - France,,
NIEVRE MG NEGOCE,LA PALLUD,58330,CRUX-LA-VILLE - France,,
SODIS AGRI,"ZI la couture
                                                                    Allée des entrepreneurs",32700,LECTOURE - France,"Agrisem, Bruneau, Gyrax, Hatzenbichler, Kongskilde, Kverneland, Rabe, Silofarmer",
michon export,LA GROLLE,63470,PRONDINES - France,,
matagri import export,"la glaziere
                                                                    ferme  de  la  glaziere",77820,Les Ecrennes - France,,
PICARD FRERES  SARL,"17 chemin de Peyrard
                                                                    ZI DU CLOS MARQUET",42400,ST CHAMOND - France,Massey Ferguson,
PAYEN SAS,ZI Payen,77540,ROZAY EN BRIE - France,"McConnel, Multihog, Schulte, Twose",
VAUTRIN CHERRIER SARL,62 route Nationale,54300,CHANTEHEUX - France,"Deutz-Fahr, Same",
OCCASION PRO,"3 rue du stade
                                                                    ZA les Echoignes",85150,Martinet - France,,
AGRI CONSULT,14 route de Troyes,21121,DAROIS - France,,
MECAVITI,"SARL Mécanisation Beaujolaise
                                                                    Le Combier",69840,EMERINGES - France,,
ESPACE VIGNE,ZA DES VIOLETTES,89800,CHABLIS - France,,
BRIERE CHANTEUX SAS,ZA Route de Craon,53350,BALLOTS - France,,
SNC du PRE GRANDIN,RUE DE SAINT SIMON,8190,Le Thour - France,,
ETS GODINEAU SARL,21 route de saint christophe,16420,Lesterps - France,McCormick,
CHAPUIS FRERES SARL,Le Bourg,21450,ST MARC SUR SEINE - France,,
MAS VAONNAISE SARL,4 route de montreuil bellay - Vaon,86120,LES TROIS MOUTIERS - France,Valtra,
WERSCHUREN SA,Rue Pierre Semard,35120,DOL DE BRETAGNE - France,,
CHALAN SARL,Lieu dit l'Oriol,84840,LAPALUD - France,"Kubota, Massey Ferguson",www.etschalan.com
ELEVANCE,SAULTCHEVREUIL,50800,VILLEDIEU - France,,
DUJARDIN ANDRE SARL,La Briqueterie,76510,NOTRE DAME D'ALIERMONT - France,,www.sarlandredujardin.com
BOUISSET SAS,KM 2.5 - Route de Nimes,30510,GENERAC - France,Case IH,
OSTERMANN MATERIEL VITICOLE,44 RUE PRINCIPALE,67310,TRAENHEIM - France,"Fendt, Renault",
ETS BARBIER SARL,400 rue jacquard. P.A. du Bert,38630,LES AVENIERES - France,"Deutz-Fahr, Same",
MARTIN ETS,31 Rue Principale,57660,DIFFEMBACH LES HELLIMER - France,"Case IH, Kuhn, McCormick",
BARRÈRE NÉGOCE,250 route de Las hies,64110,SAINT FAUST - France,,www.henri-barrere.com
GARAGE MAX SARL,Route de Garche,57100,MANOM - France,,
VROMMAN SA,Chemin de Boury,27140,GISORS - France,"Caterpillar, John Deere",
CHAPUT SARL,R.D.588,43100,SAINT BEAUZIRE - France,,
VSM VAL DE SAONE MOTOCULTURE,RD 933 - ZA en Biolière,1190,OZAN - France,"Kioti, Solis",
BOBIMAT,71 route de poisson,71600,PARAY LE MONIAL - France,,
LELIEUR SA,Route Mont Saint Léger,70120,THEULEY - France,"Agrisem, New Holland Agriculture",
SMA SARL,17 Rue des Ecoles,15240,SAIGNES - France,John Deere,
XAMBILI SARL,ZAE St Eugenie,66270,LE SOLER - France,"Grégoire, Massey Ferguson, Valtra",www.xambili.com
SAS OUTHI-TECH,"22 Rue Raoul Dautry
                                                                    ZI Nord",49300,Cholet - France,,
BOISSEAU MOTOCULTURE,30 Rue Joliot Curie,37550,SAINT AVERTIN - France,,
SARL JOUAN,2 RUE BELLEVUE,56300,Neulliac - France,"Emily, Euromark, Keenan, Kongskilde, Quivogne, Rolland",
MOTOCULTURE VERVINOISE,8 rue de la soierie,2140,ST GOBERT - France,,
SLO - LOCATION,3 TER CHEMIN DE LA CHAVEE,88170,Châtenois - France,,
PARTHENAY SARL,La Baubrie,79240,VERNOUX EN GATINE - France,,
NET AGRI,"La Gelussiere
                                                                    MORMAISON",85260,MONTREVERD - France,,
GAUTHIER SARL,ZA Route de Rodern,68590,ST HIPPOLYTE - France,,www.gauthiervini.com
ITHURSARRY SARL,Route de St Jean Pied de Port,64120,SAINT PALAIS - France,Kubota,
FCE MANUTENTION,ZA - 10 rue de l'Aubépine,51520,LA VEUVE - France,"Manitou, Toyota",
SAS ROUSSOT,7 Bis Route Nationale,39120,ANNOIRE - France,"Aguirre, Alpego, Amazone, Demblon, Hardi, La Campagne, Monosem, OCMIS, Sulky, Zagroda, Valtra",
MECAVIT',"144, AVENUE DE COGNAC",17770,Brizambourg - France,,
AGRI OCC,"6 RUE DE LA GRANDE TERRE
                                                                    ZONE EURO 2000",30132,CAISSARGUES - France,,
LE LOULAY A.M.B.,Rue des Peupliers,85600,ST HILAIRE DE LOULAY - France,,
AGRI NEGOLOC,"33 RUE DU BEIGNON
                                                                    za de beaulieu visite matériel",85640,Mouchamps - France,"Amazone, Fendt, Fiat, JCB, Krone, Kubota, Kverneland, Manitou, Merlo, Renault",
AGRI MACHINES 46 SARL,3926 rte de lauzerte - st Laurent,46800,LENDOU en QUERCY - France,,www.agrimachines46.com
ETS DANGREVILLE,33 RUE DU 49EME B C A,80290,CAULIERES - France,Dangreville,www.dangreville.fr
Rullier Médoc,"Rullier Médoc
                                                                    31 RTE MAQUIS DES VIGNES OUDIDES",33250,Pauillac - France,,
GUILBART CONSTRUCTEUR,800 rue du Haut-Bout,80150,VIRONCHAUX - France,,
POITTEVIN-DEWAELE,"37 bis rue d'en haut
                                                                    ETS POITTEVIN DEWAELE",60420,GODENVILLERS - France,"Berthoud, Bogballe, Gyrax, HE-VA, JCB, Krone, Lemken, Sodimac, Zagroda, Valtra",www.agriaffaires.biz/dewaele
ETA du GENEVOIS Négoce,huffin,74160,NEYDENS - France,,
GT SOLUTIONS,12 Rue Maurice Sibille,26200,Montélimar - France,,
SARL LOGIST' AGRI,RUE DU PRESIDENT RENE COTY,76330,Port-Jérôme-sur-Seine - France,,
AGRIVIVES SERVICES SAS,Au Village,32390,REJAUMONT - France,,
AMTP,ZA - Allee de la clairiere,59136,wavrin - France,,
SCHIELE sas,14 rue Turenne,68250,pfaffenheim - France,"Della Toffola, Francesca",
ENAUDIS,ZA de Cimette,35133,LA CHAPELLE JANSON - France,,www.bertin-distribution.com
ALCATOR,Rue des Cloutils,45460,BRAY EN VAL - France,,
SARL PESLIER SAMUEL,15 RUE DE BELLITOURNE,53200,Château-Gontier - France,,
JRP QUAD,28 Avenue du Périgord,33370,ARTIGUES PRES BORDEAUX - France,,
2 Gareni Industrie,8 Rue des Ecoles,47600,CALIGNAC - France,,
S.A.S. PARRON,107 route des Merlons,38710,Prébois - France,New Holland Agriculture,
EUROFER,1 Rue des Vergers,57340,VILLER - France,,
A HORIOT SARL,4 Rue du Vieux Roi,55800,BRABANT LE ROI - France,"Case, Case IH",
C L M,ZA de Fougerals,47380,SAINT ETIENNE DE FOUGERES - France,,
JEULIN SA,3 rue Mardeaux - ZI Nord Villebarou,41000,Villebarou - France,,www.jeulinsa.fr
SARL DEVINCENZI MANUTENTION,21 RUE LAVOISIER,79200,PARTHENAY - France,,
AGRI PIECES80,1 rue de Péronne,80360,CURLU - France,,
SAS Michel LABORY,1 Impasse clos des grives,64121,SERRES CASTET - France,,
ARTIMECA,"la Carriere
                                                                    la Baroche sous Luce",61330,Juvigny Val d'Andaine - France,,
TAQUIPNEU SA   EUROMASTER,590 Route de Paris,82000,MONTAUBAN - France,"Alliance, BKT, Firestone, Kleber, Michelin, Nokian, Taurus, Trelleborg",
Escaffre Matagri SASU,4 clos du jonquoy,59133,Camphin-en-Carembault - France,"Agrisep, Keulmac, Prinsen, Sfoggia, Visser",
Garant Kotte France,Parc d'activité des Nations,67230,Benfeld - France,,
SAS D INVEST,7 impasse des Coteaux,51140,MUIZON - France,,
SAFER BFC,11 rue François Mitterand,21850,saint apollinaire - France,,
GENEVRIER SARL,104 route de la margée,42380,ST NIZIER DE FORNAS - France,"AKO - Kerbl, Amazone, Bobcat, BVL, Deutz-Fahr, Giant, Hydrac, Krone, Kverneland, Lamy, Loiseau, Mailleux, Mauguin, Muthing, Ovlac, Pateer France, Rabaud, Riman, Robert, Sauter, Silofarmer, Sodimac, Stoll",
CORBERES ST GERMES,ROUTE DE LOURDES,65290,Juillan - France,,
DIFMATEL SAS,"Le Rocher
                                                                    LD La Rougeaudrie",44370,BELLIGNE - France,,
Leach Lewis Rubber Track,"58, Avenue de wagram",75017,Paris - France,,
AGRISEM International,"535 Rue Pierre Levasseur
CS 60263",44158,ANCENIS CEDEX - France,,
TISCHMACHER Jerome,"6, rue de l'église",68440,Landser - France,,
MAT AGRI 12,LA VAYSSIERE,12350,LANUEJOULS - France,Kverneland,
AGRI 22,ZA de Kroas Ar Braban,22220,Plouguiel - France,,
SARL FABRE FRERES,route de lune,11100,NARBONNE - France,Fendt,
EUROMASTER MILLAU,C.C CAP DU CRES,12100,Millau - France,,
LAUNAY SARL,2 Rue de la Colmont,53120,BRECE - France,"Berthoud, Deutz-Fahr, Kuhn, Lamborghini, Monosem, Polaris, Same, Vicon",
HEITZ ETS,54B Rue Principale,67150,SCHAEFFERSHEIM - France,John Deere,
VERNOUX MOTOCULTURE,La Pointe,7240,VERNOUX EN VIVARAIS - France,"Deutz-Fahr, Same",
CAMPA / SOCODICOR,"14 rue de la Maison Rouge
                                                                    Lognes",77185,Lognes - France,,
BRUNE & FILS SARL,Au Village,32140,CHELAN - France,,
SAS BRUNO BLINETTE,Les Andoiseaux,70100,RIGNY - France,,
DONGUY AGRI,6545 ROUTE DE LOUHANS,71470,ROMENAY - France,,
ets costamagne,rd 813,82700,finhan - France,"Capello, Case IH",
COSTRAL S.A.,Rue des Prés,68340,RIQUEWIHR - France,,
EUROMASTER CHALONS EN CHAMPAGNE VI,"1 BIS, AVENUE  DU 106EME RI",51000,CHALONS EN CHAMPAGNE - France,,pneu-agricole.euromaster-professionnels.fr/
PAUL PELTRAT & FILS SARL,7 route des prés,71800,OYE - France,,
LE ROYER SAS,"ZA du Chatelier
                                                                    2 Rue de la Pointe",61600,MAGNY LE DESERT - France,,
DUPUIS PHILIPPE SARL,VENIERS,86200,Loudun - France,,www.sarl-dupuis.com
CAQUARD  ETS,Rue de Verdun,54970,LANDRES - France,Valtra,
A7 FRIGO ASSISTANCE,Le Pré du Clos,7290,SATILLIEU - France,,www.a7frigo.fr
DUPLAA DIDIER SARL,Route d'Orthez,64190,NAVARRENX - France,,
JOEL TAFER EURL,ospitaletxea,64220,AHAXE - France,,
MORVAN SARL,Le Bourg,29830,PLOURIN-PLOUDALMEZEAU - France,Valtra,
COCHET SARL,Champagne en Valromey,1260,CHAMPAGNE EN VALROMEY - France,McCormick,
COTTIER SARL,La Guide,43600,ST SIGOLENE - France,"Deutz-Fahr, Same",
GUITTENY SARL,ZA Petite Croix,44680,ST HILAIRE DE CHALEONS - France,,
BOUCHERON SERVICE AGRI SARL (BSA),12 Rue Terre Plaine,89420,CUSSY LES FORGES - France,"Fendt, JCB, Valtra",
EUROMASTER AURILLAC VI,ROUTE DE CONTHE,15000,AURILLAC - France,,pneu-agricole.euromaster-professionnels.fr/
TOUSSAINT SAS,2 RUE DE LA GARE,54470,ESSEY ET MAIZERAIS - France,,www.agriaffaires.biz/toussaint
REDUREAU THIERRY SARL,"6 rue de l'Europe
                                                                    ZI LA CROIX ROUGE",44260,MALVILLE - France,"Kuhn, McCormick",
SprayConcept,Juchepie,36110,LEVROUX - France,,
CALVET SA,41 Allée du Roussillon,11200,LEZIGNAN CORBIERES - France,,
VORS SARL,21 rue de l'aubrac,15300,VALUEJOLS - France,,
MATERIEL AGRICOLE CHARENTAIS,route de champagne mouton,16450,Beaulieu-sur-Sonnette - France,,
BASTARD SAS,36 Route de la Châtre,36400,VICQ EXEMPLET - France,New Holland,
ETS CLARIA,AU VILLAGE,32220,MONTAMAT - France,,
AGRI PRO MAT,"1465 ROUTE D'AVIGNON
                                                                    RD 570",13200,ARLES - France,"Antonio Carraro, Celli, Kuhn, Kverneland, Lely, Orsi, Quivogne, Tonutti, Vicon, Zetor",
EVL Mat,4 avenue du Parc,77160,Poigny - France,,
EUROMASTER ST MARTIN AU LAERT,ZI FOND SQUIN - RUE DES CORMETTES,62500,ST MARTIN AU LAERT - France,,
AXYOM,"Zi de la sablonniere, 24 rue de la Sablonnière CS 40507",76350,Oissel - France,JCB,
VFA12,"LE JOANNENQ
                                                                    60 ROUTE DE ST CHELY",12500,CASTELNAU DE MANDAILLES - France,,
MTAGRI,LES PETITES GRANGES,87420,SAINT VICTURNIEN - France,,
SEGUIER & FOULQUIER,La Bourlarié,81110,VERDALLE - France,,
BERGERON ET FILS SARL,Rue du Docteur Guinard,42680,ST MARCELLIN EN FOREZ - France,,
GEVAERT SARL,les pradelles,24330,ladouze - France,,
TERRIMAT,40 bis Rue du Château d'Eau,45150,DARVOY - France,,
Fert Materiels,104 Route d'Orange,84290,Sainte-Cécile-les-Vignes - France,"Deutz-Fahr, Lamborghini, Same",
GUILLERMIN SARL,Rix,1680,LHUIS - France,Landini,
SARL GARAGE LEFEUVRE,Le Bourg,53190,Landivy - France,"Desvoys, Gourdon, Lely",
REOL ETS,Contournat,63160,SAINT JULIEN DE COPPEL - France,,
SPEVEMAT,"ZA Lacombe
                                                                    548 Route de Tence",43430,Fay-sur-Lignon - France,,
SAS Somm'Agri,3 menesvillers,80290,Moyencourt-lès-Poix - France,,
BUISSON SARL,ZI Les Blaches,38270,JARCIEU - France,,
ROSSIGNOL MOTOCULTURE,Le Chemin Nantais,44470,THOUARE SUR LOIRE - France,,www.rossignol-motoculture.fr
BCM,La Normandie,37110,VILLEDOMER - France,,
DUBRULLE / DOWNS,RD 916,59670,STE MARIE CAPPEL - France,,
A- MEYNIEL,17 Rue Louis Bleriot,63500,Le Broc Issoire - France,,
Atelier Le Berre SARL,Moulin du Lay,29510,LANDREVARZEC - France,,
BRICO FOREST,288 rue du stade,70110,Villersexel - France,,
MICARD ROBERT SAS,Route du Stade,23170,CHAMBON SUR VOUEIZE - France,"Fendt, Massey Ferguson",
MAX GUILHAUMOU ETS,26 Rue Saint Salvy,34210,CESSERAS - France,,
INNOVATIONS ET PAYSAGE,Rue de tigny,42190,CHARLIEU - France,,
CIDAUMAT SARL,Route de Limoise,3160,FRANCHESSE - France,,www.facebook.com/profile.php?id=61560751917281
MAT'AGRI SERVICES,175 Route du soleil,24270,DUSSAC - France,,
SEMAS,Route départementale 20,51490,SELLES - France,"Deutz-Fahr, Same",
ADIMA 61,ZA du Pays Mêlois,61170,ST JULIEN SUR SARTHE - France,Zetor,
BAUTE JEAN BERNARD ETS,Lapeyre,65220,LAPEYRE - France,,
BRIANT SARL,12 Les Carrières de Chauvin,37120,CHAVEIGNES - France,Valtra,
GUILLIN FRERES SARL,Garage de la Montagne - Loubinet,15500,VIEILLESPESSE - France,Valtra,
EUROMASTER ANGOULEME  VI,"37, BOULEVARD BESSON BEY - PORT L'HOUMEAU",16000,ANGOULEME - France,,
DANIEL MULLER ETS,3 Route du Vin,68630,MITTELWIHR - France,McCormick,
RENNES MOTOCULTURE,ZA des Grands Champs,22120,HILLION - France,Kubota,
GIRAUDET SARL,La Campagne,15250,MARMANHAC - France,Zetor,www.ets-giraudet.com
DURY MOTOCULTURE,Le Bourg,3130,AVRILLY - France,"Deutz-Fahr, Same",www.agriaffaires.biz/DURY-MOTOCULTURE
Cussinet Ferme and Farm - C2F Agri,6 Rue des Forges,3330,Bellenaves - France,,www.cussinetfermeandfarm.com
SABATHE & FILS SARL,Route de Lombez,32600,L'ISLE JOURDAIN - France,"Deutz-Fahr, Lamborghini, Same",
PIALLEPORT S.A.,739 ROUTE DE LA COTE ST ANDRE,38870,ST SIMEON DE BRESSIEUX - France,,
MANEKO,Rue Raymond Frénot,54200,Toul - France,,
ATELIER FERRAND,30 rue du 8 mai 1945,18140,LUGNY CHAMPAGNE - France,,
MANUTONE,5 RUE DE LA VOLOGNE,54520,Laxou - France,,
PERA-PELLENC,Route d'agde,34510,Florensac - France,,
HOLMER FRANCE,"Rue Pasteur
                                                                    BP 29",59159,NOYELLE SUR ESCAUT - France,,
DURAND SARL,Le Village,26350,ST CHRISTOPHE ET LE LARIS - France,,
DAFFINI SARL,"PARC D'ACTIVITES DE MONTVERT
                                                                    1025 ALLEE DES ESPAGNOLS",12450,Calmont - France,,www.innov-elevage.fr
Devalle Eau et Force,"route de bordeaux
                                                                    zi labarre",47600,Nérac - France,,
BRUN & FILS SARL,ZA de la Prade,15500,MASSIAC - France,,
MATHA SAS,RN 113/9,34440,NISSAN LEZ ENSERUNE - France,"Agrisem, Fendt",
VERDIER IRRIGATION,"38, route de la Gare",65700,Lascazères - France,,
SOUMEILLAN SARL,Route de Samatan,32200,GIMONT - France,,ets-soumeillan.com
EUROHYDRAU,38 RUE JULES GUESDE,59390,Lys-lez-Lannoy - France,,
SEDEC ETS COMTE,694 chemin des moulins,7400,Alba-la-Romaine - France,Fendt,
LEFEVRE FILS SARL,La Tuilerie,61220,LA COULONCHE - France,,
CLAAS FRANCE SAS,ZI CD 5 Chemin de Sézanne,51230,CONNANTRE - France,,
SCOLAN SARL,"12 ZA Du Groesquer
                                                                    Route Guingamp - Callac",22200,MOUSTERU - France,"Landini, Lindner, Zetor",
EUROMASTER Dijon st Apollinaire 24A,"rue de la goulette, ZAC du bois guillaume",21850,St Apollinaire - France,,
BLS AGRI,La Sarasiniére,26390,HAUTERIVES - France,,
SARL PYRENEES AGRI,Avenue de la gare,64800,Nay - France,,
MSD ELEVAGE SERVICE,RD 134,64330,BOUEILH - France,,
ETS R GUYARD,90 Avenue de la Libération,33460,MACAU - France,,
EUROMASTER MONTELIMAR,11 Avenue du MEYROL,26200,Montélimar - France,,
Agri new,2 Rue André Carpentier,27150,Morgny - France,,
JEAN FOUR-EUROBRESS,L'Allée,1540,PERREX - France,,
ANDREUX SA,"1541, Avenue du Général de Gaulle",30130,PONT SAINT ESPRIT - France,Landini,
AGRI-NORD 44,2 Le Moulin à Vent,44390,PUCEUL - France,,
THIERRY GALLIOT ETS,Route de Concressault,18260,VAILLY SUR SAULDRE - France,,
RMA MATERIEL,Villard Bozon,38570,GONCELIN - France,,
Mec'agri61,Les Joncherets,61220,Briouze - France,"John Deere, Krone, Mailleux, Sulky",
SARL BERNIER,7 Rue de la Forge - La Blinière,49120,LA JUMELLIERE - France,Zetor,
NININ FRERES,1 route de Yoncq,8210,Mouzon - France,,
ETABLISSEMENTS COLLIOT,20 ROUTE DE BOURGES,18340,SAINT JUST - France,,
PX AGRI SARL,12 Avenue des Garrigues,30600,Vestric-et-Candiac - France,,
GENERTECH POWER SOLUTIONS,12 Rue Fernand Gary,66600,Salses-le-Château - France,,
ETS J. MARIE SAS,20 Route Chatelet,18270,CULAN - France,"Deutz-Fahr, Kuhn",
DASTUGUE SARL,Pré de L'Hopital,32260,TACHOIRES - France,Landini,
VLG SARL,ZA,72800,LUCHE PRINGE - France,Landini,
PINGAULT SARL,Le Bourdonnais,53640,LE RIBAY - France,,
BALLAND & FILS SARL,6 bis Route de la Gare - Le Neuf Moulin,88600,DOMFAING - France,"Deutz-Fahr, Same",
BOURGOIN MOTOCULTURE SARL,ZI Route de Joigny,45320,COURTENAY - France,"Deutz-Fahr, Same",
REDDE MARCEL ETS,2 Rue de la Craie,21330,POINCON LES LARREY - France,,
ROCHA-LOCAVERT,1 Chemin du terme de L'ilet,51000,CHALON EN CHAMPAGNE - France,,
GROUPE EURO DIRECT,ZA Les Hauts de Margny190 rue René Caudron,60280,MARGNY LES COMPIEGNE - France,,
BERNIGAUD SARL,Route de Gueugnon,71320,TOULON SUR ARROUX - France,,
EUROMASTER CLERMONT FERRAND,14 RUE DES FRÈRES LUMIÈRE,63100,Clermont-Ferrand - France,,
DORAT VERTS LOISIRS,Chemin de Beaulieu - ZI,63800,COURNON D'AUVERGNE - France,"AS Motor, Bugnot, Echo, Husqvarna, Kubota, Pellenc, Toro, Wiedenmann",
VITIDIS,"10 rue des Champs Seguin
                                                                    ZAC DE SOUILLAC",16200,Jarnac - France,"Alpego, Electrocoup, Grégoire Besson, Infaco, Kärcher, Same, Spedo, Sthik, TMC Cancela",
SARL ETS GUERIN,10 route de Rethel,8310,PAUVRES - France,,
MULTIMECA SARL,16 RUE DE LA FABRIQUE,59360,SAINT SOUPLET - France,,
ZARDO DOMINONI ETS,"818 AVENUE DU MÔLE
                                                                    ZI DES VALIGNONS",74460,MARNAZ - France,,www.zardo.fr
Le Bon Equipement,21 Les PINONS,36800,CHASSENEUIL - France,,
ALSATRA AGRI SAS,NEUWILLERWEG,67490,GOTTESHEIM - France,,
SN DELMAS,1535 AVENUE DE TOULOUSE,31620,Fronton - France,,
ETS PETIT,Le buisson,61550,BOCQUENCÉ - France,,
BRARD ET SARRAN,ZAE du Cèdre Briard,77320,Beton-Bazoches - France,,
CELESTIN SARL,5 Route de St Mont,32400,RISCLE - France,"Deutz-Fahr, Kuhn, Same",
GARAGE HUMBERT SAS,3 Rue du Canal,70200,LES AYNANS - France,Same,
LESEUR AGRI,5 rue de givaucourt,52110,DOMMARTIN LE SAINT PERE - France,,
JOUHANNEAU SARL,La Croix Verte,18600,SAGONNE - France,,
SAS LASSARA FAVRE,249 rue du Faubourg,1400,DOMPIERRE SUR CHALARONNE - France,,
EUROMASTER EVREUX,Evreux 3147 2 rue de l'Angleterre de cary ai n2  La madeleine,27000,Evreux - France,,pneu-agricole.euromaster-professionnels.fr/
DROM'PNEUS,ALLEE DU LANGUEDOC ZI NORD,26300,BOURG DE PEAGE - France,,
GRISARD SARL,ZA du Pasquier,71800,VARENNES SOUS DUN - France,,
AGRIMANU,71 Grande Rue,25620,L'HOPITAL DU GROSBOIS - France,,www.agrimanu.fr
PUISSANT SARL,66 rue tricoche maillard,10160,AIX EN OTHE - France,,
LEGRAND SA/ Bennes HURET,ZAL PETITE DIMERIE,62310,FRUGES - France,,
EUROMASTER CASTENAUDARY,AVENUE MONSEIGNEUR DE LANGLE ROUTE DE CARCASSONNE,11400,CASTELNAUDARY - France,,
RAZOL SUIRE,38 Route de Bernadin,47400,Fauillet - France,,
AGRO SERVICE,23 Faubourg de Cassel,59380,BERGUES - France,,www.agriaffaires.biz/agroservice
LOOS SARL,ZI SEYSSUEL,38200,VIENNE - France,,
GAILLARD MATERIEL AGRICOLE,Za de la Grande Plaine,79800,LA MOTHE SAINT HERAY - France,,
SARL MECA PL AGRI,25Q Rue du Coudray,27240,Sylvains-les-Moulins - France,,
EUROMASTER ARLES,RD 570 - Chemin de Séverin,13200,ARLES - France,,
SAUQUET SARL,6 route de Niort,79110,CHEF BOUTONNE - France,,
VINEA,Rue des Près,68340,RIQUEWIHR - France,,
BOUYER SARL,6 ZA de la Hurline,44320,ST PERE EN RETZ - France,,
GEANT GAUDRY & CIE SA,101 Porte de l'Ile,85420,ST PIERRE LE VIEUX - France,Zetor,
MARCHAL SAS - VITIWALD (anc. SIEGWALD Matériels),"5, rue des Champs
                                                                    ZA EUROPE",68124,LOGELBACH - France,,www.vitiwald.fr
SA LIATECH,"10 rue des Meuniers
                                                                    PA d'Egly",91520,Egly - France,,
SOUCHAUD SAS,ZDE de Millac - Route d'Adriers - BP 11,86150,L'ISLE-JOURDAIN - France,,
SOREAU AGRI,14 Grande Rue,72500,CHENU - France,,www.arbo-viti.com
AGRI SERVICE LOZERE,ZA Eco du Causse d'Auge,48000,MENDE - France,"Case IH, McCormick",
AUNEAU SARL,3 Route Océane - La Bourrelière,86110,CUHON - France,"Landini, Lindner, McCormick",sarlauneau.free.fr
PREST'AGRI,La Croix Rousse,38510,ST VICTOR DE MORESTEL - France,,
CONSTRUCTION EQUIPMENT TRADING,9 impasse de l'Aunis,44150,ANCENIS - France,,www.cet-netc.fr
SARL CABROL,5 avenue de la fabrique,34120,CASTELNAU DE GUERS - France,"Deutz-Fahr, Lamborghini, Same",
SARL AUJARD,ZA VilleDieu,42140,CHEVRIERES - France,,
Ardenne Meca Service,30 rue general du merbion,8220,MONTMEILLANT - France,"Landini, Zetor",
EURL LBS,5 rue du  champ lauron,58110,Châtillon-en-Bazois - France,,
EKIP'ELEVAGE,La Mandrionne,53440,Aron - France,,
LR MAT AGRI,4 rue des vignes,25580,Guyans-Durnes - France,,
GILLOT SAS,4 voie d'Ageville,52800,MANDRES LA COTE - France,"Landini, McCormick",
SARL H2M,13 RUE DE LA CRAY,25420,Voujeaucourt - France,,
GARAGE DUJON,LA RUE HAUTE,3130,LE BOUCHAUD - France,"Manitou, New Holland",
MARTINEAU-IRRIGATION,42 ZA du Chene,17100,LES GONDS - France,,
DERIEMAECKER GERARD ETS,20 Rue des Cerisiers,76390,LE RONCHOIS - France,Lamborghini,
AMATHE SARL,ZA Les Bonnes,43410,LEMPDES S/ ALLAGNON - France,,
VIADENE MOTOCULTURE,Les Molèdes,12460,ST AMANS DES COTS - France,"Deutz-Fahr, Lamborghini, Same",
GROUPE EQUIP'JARDIN,700 Rue de la Bergeresse - ZAC Aulnaies,45160,OLIVET - France,John Deere,www.agriaffaires.biz/equipjardin
SOMAREF SARL,Le Bas Faget,24240,POMPORT - France,,
SYNA12-IMPORT,Bout de la Côte,12600,TAUSSAC - France,,
GRISO PATRICE ETS,"21 route du tumulus
                                                                    bel air",32700,SEMPESSERRE - France,,
GUYON MICHEL,Bel Air,72000,LE MANS - France,,
SAUNIER SA,76 avenue de la sabliere,21200,BEAUNE - France,,
PIERRES & CAILLOUX SAS,route de roches,52700,ROCHEFORT SUR LA COTE - France,,
DROUIN ET FILS,6 AVENUE DE LA TECHNOLOGIE,45270,BELLEGARDE - France,,
MAUNAS SARL,5 Route du Pont Taulat,64170,VIELLENAVE D'ARTHEZ - France,,
DAWN Equipment,Fage basse,47210,Villeréal - France,,
HUGON ESPACE AGRI,ZA La Plaine,48230,CHANAC - France,,
AGRI 2 R,Trabesses,82100,SAINT AIGNAN - France,,
BACK FARMER,10 ZA ANTOIGNE,72380,SAINTE JAMME SUR SARTHE - France,,
GUILLET SARL,25 Rue de la Causcaniere,50890,CONDE SUR VIRE - France,,
G CATTANEO SARL,En Vindée,32130,LABASTIDE SAVES - France,,
SAS Le Roux,Kervillard,29260,Ploudaniel - France,,
SRV FOMBONNE SARL,La Brula,26140,ANNEYRON - France,,
VDM SARL,"22, rue de la paix",10320,BOUILLY - France,"Deutz-Fahr, Same",
BEAULIEU AGRICOLE SARL,28 Route de Chatillon,45630,BEAULIEU SUR LOIRE - France,"Agrisem, Landini",
TEISSIER & FILS SAS,ZI Le Chazelas,4400,BARCELONNETTE - France,"New Holland, Vicon",
Maintenance Mécanique PELTRE,Rue principlale,57810,Languimberg - France,,
SARL BONNET,Daubech,19200,ST PARDOUX LE VIEUX - France,Valtra,
BEAUVAIS ETS,Laleuf,36400,NOHANT-VIC.  LA CHÂTRE - France,Valtra,
SCOMA 22,La Croix Blanche,22210,ST ETIENNE DU GUE DE L'ISLE - France,,www.scoma22.fr/
POLE AGRI SARL,985 ROUTE DE L'OCEAN,40330,Castel-Sarrazin - France,,
PELOUZET MOTOCULTURE,"ZAC DE LA GARE
                                                                    1 Allée de Jonquerolles",13210,SAINT REMY DE PROVENCE - France,"Cub Cadet, Iseki, MTD, Stihl, Viking",
SARL AGRICUBE,ZA route de SOUILLAC,46600,Martel - France,,
SAS MEKA LOISIRS,250B ROUTE D'ALES,30900,Nîmes - France,,
SARL Valagri,26 rue de la croix,1260,Hotonnes - France,,
SARL CHYSCLAIN,9 RUE DES CHAMPS,63220,CHAUMONT LE BOURG - France,,
SARL DURANDET,551 Rue Du Moulin des Landes,85440,Talmont Saint Hilaire - France,,
CSA (Conseils Services Agricoles,2 rue de cari,21140,Semur-en-Auxois - France,,
SARL SP depannage,les vitarelles,47200,Longueville - France,,
Champagri,Zone industrielle,51530,OIRY - France,,
SMAT SERVICES,5 RUE DE L'ESPACE OCÉANE,85190,Aizenay - France,,www.smat-services.com/
MONNERAT SAS,18 rue des margats,77120,Coulommiers - France,Valtra,
AQUADOC SUD-EST,"540 RUE DE L'AVENIR
                                                                    A",26250,LIVRON SUR DROME - France,,www.aquadoc-sud.fr
Agri'Services,ZI - rue des sorbiers,61120,Vimoutiers - France,,
AVRILLAUD AGRI,"31 route de Thourie
                                                                    Le Bois Guy",35640,MARTIGNE-FERCHAUD - France,CLAAS,
NAGEP,26 PLACE SAINT JAMES,3450,EBREUIL - France,,
SCAR,5 rue Pierre et Marie Curie,17100,Saintes - France,,
ACDF AGRI,295 Chemin de l'Union,14140,Saint-Julien-le-Faucon - France,,
Tunnel 2c,1622 route de Luzy,71320,Cuzy - France,,
Farmet France SASU,9 Chemin Saint-germain,11290,Lavalette - France,,
DG ALSACE,14 rue de la prairie,67240,Bischwiller - France,,
INSTALLATIONS PERREAULT,"9, rue des chevalliers",37140,Restigné - France,,
jcs international,28 rue des calamars,11100,NARBONNE PLAGE - France,,
SARL MAZEL,rue du belvédère,12430,Villefranche-de-Panat - France,Samasz,
Legras Industries,37 rue Marcel Paul,51200,Epernay - France,,
SAGOT BARNAGAUD & CIE,Faye,24600,RIBERAC - France,Massey Ferguson,
JOUSSEAUME CLAUDE SARL,ZI Saint Clément - 2 Rue de l'Industrie,44450,LA CHAPELLE BASSE MER - France,,
SOLU'TERRE,20 Rue du Pont des Barres,86400,Civray - France,,
Toscano France,ZA EN BEAUVOIR 255 IMP DES PERDRIX,1500,Château-Gaillard - France,,
MECASAIRE 2000,5 bis Route d'Arville,50760,Sainte-Geneviève - France,,
STRAUTMANN FRANCE,"53, rue du Général Offenstein",67100,Strasbourg - France,,
VITIZONE,"7 RUE PAUL GUERY - ZA LES RODETTES
                                                                    BP80",34120,PEZENAS - France,,
taquipneu,"zi de tartifume
                                                                    rue charles tellier",33130,Bègles - France,,
GARAGE VIART SARL,28 Rue de Wanquetin,62123,Simencourt - France,,
BARNEAUD PNEUS - EUROMASTER,15 ROUTE DE SAINT-JEAN,5000,Gap - France,,
SARL BAUDET Ph,ZA du Chevray,53300,LA HAIE TRAVERSAINE - France,,
DMD AGRI SERVICES,47 rue PELLETIER D'OISY,18200,Saint AMAND Montrond - France,,
Etablissement Mathieu Machemie,le coudert,19410,Saint-Bonnet-l'Enfantier - France,,
POLYMAT SARL,La Résinette,12400,REBOURGUIL - France,,
LATY MACHINES AGRICOLES,Route Nationale 7,13750,PLAN D'ORGON - France,"Landini, Valtra",
ÉTABLISSEMENTS LACHAUD,106 route d'Issoudun,36260,DIOU - France,,
TECHNI SUD ELEVAGE,ZA Bel Orient,56140,BOHAL - France,,
MAG LAPLAGNE,ZA les Arailles,65400,Agos-Vidalos - France,,
SARL EPPSA,40 CHEMIN DE LA CARRERE,64000,PAU - France,"Ingersoll Rand, John Deere, Krone",
PÖTTINGER,129 B La Chapelle,68650,LE BONHOMME - France,,
AZUR LOCATION VENTE,315 bd du Mercantour,6200,Nice - France,,
SAS MID,48 LE BOIS PRIEUR,49530,LIRE - France,,
QUAD NATURE 59,27 Rue Pasteur,59218,POIX DU NORD - France,,
NORMANDIE FOIN SAS,124 rue du val bois,27290,illeville sur montfort - France,,www.normandiefoin.fr
MATFOR,1 bis route national de paris,80160,ESSERTAUX - France,,www.matfor-france.com/
EDO CIE,"92, avenue de Romans",26000,VALENCE - France,,
S.B.,807 avenue saint baldou,84300,Cavaillon - France,,
NAJAC ETS,"Rozières
                                                                    401 route du Rey",46270,CUZAC - France,,
ETS FEROTIN,593 Chemin du  pélican,26780,CHATEAUNEUF DU RHONE - France,,
TRELY SARL,Le Bost,24310,VALEUIL - France,,
CHANSON SAS,"ZA Volzac
                                                                    1 RUE DU PUECH",15100,SAINT-FLOUR - France,Massey Ferguson,
TECHNOPOLE SERVICES AGRI,65 ROUTE DE SULLY,45620,CERDON - France,,
EQUIPAGRO,17 Les Fontaines,45270,Moulon - France,,
BOYER MOTOCULTURE,41 AVENUE DE LA LIBERATION,63000,Clermont-Ferrand - France,,
ALPES AGRI MECA,LA ROURIE,5300,SALEON - France,,alpes-agri-meca.fr
EURL LAPORTE CEDRIC,AU VILLAGE,32240,MAULEON D ARMAGNAC - France,,
ETS HERVE,Route de Nantes B.P. 5,85111,CHANTONNAY Cedex - France,,
THOMAS,ZA ST ELOI,56300,NEULLIAC - France,,
ATELIER VENTE MECANIQUE AGRICOLE,331 route de la vallée hameau de thiedeville,76890,VAL DE SAANE - France,,
MOTOVITICULTURE DES BORDERIES,3 AVENUE DE LA REPUBLIQUE,17770,Burie - France,,
PASQUIER SARL,145 chemin de l'Eglise,74560,Esserts-Salève - France,,
Safer de Normandie,2 rue des Roquemonts,14000,Caen - France,,
NEVEU SARL,"RD28
                                                                    ROUTE DE ST FLORENT",18340,LEVET - France,,
SARL DELAGRI DISTRIBUTION / EQUIP MARAICHAGE,679 route de Courbenac,12160,Baraqueville - France,Bomet,
Midi Prefa Industries (MPI),La Ventenayé BP124,81300,GRAULHET - France,,
KIROGN,le bourg,17500,Villexavier - France,,
DEBOFFLES,20 Rue Louis Blanc,2300,CHAUNY - France,,
GUERIN SAS,"21, rue Pierre Doutreleau",76280,Gonneville la Mallet - France,,
VIDAL SARL,25 Route de Poucharramet,31370,RIEUMES - France,Deutz-Fahr,
OGR,"""la bascule""",32350,Ordan-Larroque - France,,
WEBER Pulvérisation,"84 Route de Saint Emilion
                                                                    BP: 90235",33506,LIBOURNE Cedex - France,,
ETS PREVOST,RN 7 - Montloubet,3150,VARENNES SUR ALLIER - France,"Case IH, Caterpillar",
SAS LMFA,11A Route De Munchhausen,67470,Seltz - France,,
SAFER Auvergne Rhône-Alpes,"23, rue jean Baldassini
                                                                    23, rue jean Baldassini",69007,Lyon - France,,
ALM,BP 46145,53000,Laval - France,Bandit,
UNIVIN,"rue du tacot
                                                                    ZI beaune Savigny",21420,SAVIGNY LES BEAUNE - France,,
SAUVAMECA SARL,Route de Cholet,85620,ROCHESERVIERE - France,,
MAB SARL,Route du Bourgneuf,53410,BOURGON - France,,
DURRIEU SARL,Route de Grézian,65240,ARREAU - France,,
CURTET CHARTREUSE SERVICES,5 Avenue Commandant l'Herminier,38380,ST LAURENT DU PONT - France,,
GATELLIER SARL,Route de Donzy,58150,SUILLY LA TOUR - France,Massey Ferguson,
MUIZON MOTOCULTURE,CD 226 - Rue de la Gare,51140,MUIZON - France,Massey Ferguson,
SNEC Coutand,1038 rue A E Beau de Rochas,16430,Champniers - France,Massey Ferguson,
JP CONSTRUCTION,ZI CHARTREUSE GUIERS,38380,ENTRE DEUX GUIERS - France,,
SARL BLIN BERNARD,Les Quatre Vents,53380,JUVIGNE - France,,
ETUDE LANGLOIS Notaire,5 rue de l'église,36600,VICQ SUR NAHON - France,,
DENQUIN SAS,7 Rue de l'Aa,62650,BOURTHES - France,Massey Ferguson,
fraysse jean,mas de coutal,46260,Limogne-en-Quercy - France,,
MANUTENTION BEAUJOLAISE,"1191A ROUTE DU BEAUJOLAIS
                                                                    Blaceret",69460,Blacé - France,,www.manutentionbeaujolaise.fr/
OCCAVISION,355 rte de montfort,40180,Yzosse - France,,
SAS MOBEP,1 bis Bel Air,28120,Vieuvicq - France,,
EUROMASTER COULOMMIERS - MONTMIRAIL -PROVINS,"8, RUE DE L'ORGEVAL - ZONE INDUSTRIELLE",77120,COULOMMIERS - France,,pneu-agricole.euromaster-professionnels.fr/
AGRI FARMER,Route de RAYMOND,18130,Osmery - France,,
ROLLING SERVICES SAS,"7, rue des sapins",67530,Ottrott - France,,
AGRIFARM S.A.R.L.,"1 rue des sablons
                                                                    Zone Industrielle",28240,BELHOMERT  GUEHOUVILLE - France,,
BURCKBUCHLER SARL,24 Rue de la Libération,67160,OBERLAUTERBACH - France,"Deutz-Fahr, Same",
IDIART MOTOCULTURE SARL,600 ROUTE DE CHANCALOR,64130,GOTEIN - France,,
MAISON CROVISIER SARL,3 RUE DES ANTIQUAIRES,67230,BENFELD - France,"Kuhn, Valtra",
LD ENGINEERING,7 rue Arthur Barolet,21200,Vignoles - France,,
DEVES SAS,Brune,7210,CHOMERAC - France,,
SAS Agrimec'Alp,chef lieu,74270,droisy - France,,
CGFB SAS,48 rue de Babylone,75007,PARIS - France,,
matebri sas,za du carrefour des biards,50540,ISIGNY LE BUAT - France,,
SAELEN,3 RUE JULES VERNE,59790,RONCHIN - France,,
EUROMASTER TOURY,Z.I. - DE LA HAUTE BORNE - RUE DE LA MALADRERIE,28310,TOURY - France,,pneu-agricole.euromaster-professionnels.fr/
AGRIMECA,"2845 ROUTE DE BANON
                                                                    LES VIGNERES",84300,CAVAILLON - France,Goldoni,
K-LIDIS,"LA BELLANTIERE
                                                                    Départemental 908",61500,Mortrée - France,,
Stohler AG France,4a rue des champs,68220,Hesingue - France,,
BMServices,25 rue de la gaudrée,91410,Dourdan - France,,
SAS KMS,KERCHOPINE,56620,Cléguer - France,,
FTS FRANCE,ZA DU RIBLAY,53260,ENTRAMMES - France,,
POURRET SARL,Boulevard Paul Langevin,66000,PERPIGNAN - France,,
SARL DTMA,Le Pont de la Seiche,35131,CHARTRES DE BRETAGNE - France,,
GAUTHIER AGRICULTURE SARL,Route de Gap,26310,RECOUBEAU - France,Landini,
ALLIANCE VINICOLE,126 rue de la Pièce Léger,21160,MARSANNAY LA COTE - France,,
Ets GENIN Motoculture,4 rue des sports,38610,GIERES - France,,
HORIZONS,26 Rue Hoche,37500,CHINON - France,,
STE SC BRO AGROIMPORT SRL,10 Av. de l'Europe,86170,Neuville-de-Poitou - France,,
VINI SOLUTIONS,5 rue du plateau,16370,ST SULPICE DE COGNAC - France,,
BORTOLUSSI & FILS SAS,La Moléonne,33330,SAINT EMILION - France,,
Rullier Foyenne,66 Avenue de Bordeaux,33220,Port-Sainte-Foy-et-Ponchapt - France,,
Alkern France,18 rue Daire,80290,Gauville - France,,
AGRI EQUIPEMENT,96 route de Toulouse,31380,Montjoire - France,,
JEAN COINTE SAS,38 Route des Eyssagnières,5000,GAP - France,Kubota,
BERNARD & BREMOND,Quartier de Lauzon,84110,PUYMERAS - France,"Deutz-Fahr, Lamborghini, Same",
GABILLER SARL,RUE DE LA SCIERIE,49160,LONGUE - France,,
AC MACHINERY,61 RUE CHEVALIER,51000,Châlons-en-Champagne - France,,
ARTERRIS,53 route de Gaillac,81500,LAVAUR - France,,
DUCOS ROBERT ETS,ZA de Cugnerayres,47230,LAVARDAC - France,,
ETABLISSEMENTS ROBLIN,ZA du Fief Magnou,17290,FORGES - France,,
COUP'ECO SAS,ZI du Chail,17800,Pons - France,,
ALSAMECA,159 Rue des Acacias,68480,MOERNACH - France,,
AB44 SERVICES,1 carrefour les jarries,44310,la limouziniere - France,,
ETS PIERRE PENOT,6 rue de l'Eglise,36120,MARON - France,,
TERRISSON PERE & FILS SARL,SAINT-AMANS,48700,MONTS-DE-RANDON - France,Kubota,
SYLVINOV S.N.,102 route de Beroute - ZI Galleben,40210,LABOUHEYRE - France,"FAE, Gourdon, Menard Darriet Cullerier, Pilkemaster",
Ocaze,"14, Chemin Carrère",64800,Coarraze - France,,
FCH10,12 RUE DU MOULIN,10350,PRUNAY-BELLEVILLE - France,,
GARAGE GENTIL,Le Grouanec,29880,PLOUGUERNEAU - France,,
MICHELET FRERES SARL,Le Bourg,86400,LINAZAY - France,"Laverda, McCormick",
LAIR CONSTRUCTEUR,"D976
                                                                    Axe St-Hilaire / Domfront",50600,MOULINES - France,,
MCES Duval Services,"ZAC MAINE ECO PARK
                                                                    RUE DES CHENES",72170,Maresché - France,,
GARAGE DELORME,Route de St Laurent,69690,BRULLIOLES - France,New Holland,
BARREAU JEREMIE & FILS,SQUARE JOSEPH CUGNOT,85300,Challans - France,,
JL 27 SARL,ZI route de Delincourt,27140,GISORS - France,,
ETABLISSEMENT FIOROT,CASSAN DE SAINT PIERRE,47400,Gontaud-de-Nogaret - France,,
BENDER MOTOCULTURE EURL,2 Place St Nicolas,67700,SAVERNE - France,,
LASCAUD SARL,Route de Chamberet,87120,DOMPS - France,CLAAS,
LC NANCY - LELY CENTER,Allée Pelletier Doisy - Allée René Fonck,54600,VILLERS LES NANCY - France,,
BERRY CENTRE IMMOBILIER (TRANSAXIA),121 rue d'auron,18000,BOURGES - France,,
Philippe VIGIÉ,"4, Chemin du Bois des Rogers",17810,Nieul-les-Saintes - France,,
EMN,4 rue de la Cholerie,45000,Orléans - France,,
TAQUIPNEU,VOIE DE LA VALLEE,24220,Saint-Cyprien - France,,
ROY & FILS SARL,185 Avenue Lucien Gires,43170,SAUGUES - France,Lindner,
SAS NOE RITTER FRANCE,16 rue du Sandholz,67110,NIEDERBRONN - France,"Clark, Francital, Hultdins, KIRMAG, Noe, Panolin, Ritter, Rud Savoie Chaines, Westtech, York",
EURL DEUTERAND MECANIQUE,ZA DES ECHELARDS,73800,MYANS - France,,
TERRES et BOIS,Les trottiers,58310,Saint Verain - France,,
CAZOTTES MACHINES AGRICOLES,Zone Artisanale - Rue des hautes Cimes,12430,VILLEFRANCHE DE PANAT - France,,
METROT PERE & FILS SARL,Les Audevants,3190,VERNEIX - France,Massey Ferguson,www.agriaffaires.biz/metrot-pere-fils-sarl
GERVAISE YANNICK SARL,La Rampiniere - 8 Route du 30 Juillet 1944,50450,GRIMESNIL - France,Landini,
MISPOUILLE HYDRAULIQUE,480 Avenue de Bordeaux,82000,MONTAUBAN - France,,
GORAGUER SARL,Pont Avalou,29770,CLEDEN CAP SIZUN - France,,
EUROPE SERVICE,Avenue du Garric,15000,AURILLAC - France,"Schmidt, Unimog",
GROUPE LACTA TRAITE,ZA LE CARREFOUR DES BIARDS,50540,ISIGNY LE BUAT - France,"Bauer, Bergue, Bioret, Boumatic, BouMatic Robotics, Calfotel, Cerati, Crosscall, Fiav, Renson, Rovibec",www.lactatraite.fr/
Didier MARCET,en chavaille,1390,civrieux - France,,
LORRE Laurent,11 rue de la bretonnerie,28310,JANVILLE - France,,
STATDTLER MECANIQUE,8 rue schmittlach,67390,BOESENBIESEN - France,,
CASTEX SARL,Route Commensacq,40210,Labouheyre - France,,
AMDS,"215 LEVEE DE LA DIVATTE
                                                                    LA CHAPELLE BASSE MER",44450,DIVATTE SUR LOIRE - France,,
APMV,"145 Rue Louis Bleriot
                                                                    za Le Portaret",83340,LE CANNET DES MAURES - France,"Cazaux, Pellenc, Sthik",
EUROMASTER,ZA DES GRIS,3400,TOULON SUR ALLIER - France,,
F.M.T.P. Nouvelle,321 route de CUTS,60170,Carlepont - France,,
PELLENC OCCASION,Quartier Notre Dame,84120,Pertuis - France,,
PERARD SAS,Avenue de l’Europe - ZI de Baleycourt,55100,Verdun - France,,
LAMOUR SARL,Le Bourgneuf,56500,MOREAC - France,,
CLAUSTRE DONNARD SARL,Route de Brasparts,29590,QUIMERC'H - France,"Kubota, McCormick",
Listech,ZA des Fours,18120,Massay - France,,
KERBOAS SAS,ZA DE KERMAT,29410,Guiclan - France,Deutz-Fahr,www.kerboas.cdeai.fr
ESPACE EMERAUDE,Route de Cholet,49280,ST LEGER SOUS CHOLET - France,"Husqvarna, Kioti, Solis, Stihl, Toro",
ATS NEGOCE,chantegeai pouzioux,86300,Chauvigny - France,,
SÉRIGNAC,141 chemin de Fenouillet,31075,Toulouse - France,,
Entre terre et ciel,425 avenue des Lavandières,84400,Gargas - France,,
MAID.COUZON SAS,"49 Rue Des Martins
                                                                    145 Rue DE L'Isérable",71260,PERONNE - France,,
GARDEN EQUIPEMENT,1 Rue Paul Langevin,28300,MAINVILLIERS - France,,
SOVIDIS SAS,7 Rue du  Fougeray,35500,VITRE - France,,
BAT COURTAGE,le bout de sasseville,76450,SASSEVILLE - France,,
MICHAEL FORTIN SARL,248 route de Louhans,71310,LA CHAPELLE SAINT SAUVEUR - France,,
RURAL IMMO,Civole,86430,Asnières-sur-Blour - France,,
GREMILLET & FILS SARL,1 Ter Rue de la Ferronnerie,88600,LEPANGES SUR VOLOGNE - France,Valtra,
SAS AGENCE DURIS IMMO,6 Ballot,87310,Saint-Auvent - France,,agencedurisimmo.com
AGRI MECA VENDEE,2 Chemin de la Trompe,85300,CHALLANS - France,,
JOST JEAN-PAUL SA,38 Route Ecospace,67120,MOLSHEIM - France,,
RACINE SA,ZI 2 rue des Perrieres,39700,DAMPIERRE - France,Valtra,
Curt Sas,370 route du saunier,38090,roche - France,,
arb,"PARC D'ACTIVITE DE LA CHAPELLE
                                                                    BATIMENT 16",89470,Monéteau 89470 - France,,
SARL DERIVEAU,2 Route de Cosne,45420,FAVERELLES - France,,
GARNIER MATERIEL AGRICOLE,35 Route de Vaux,38110,ST VICTOR DE CESSIEU - France,"Deutz-Fahr, Lamborghini, Same",
EIRL BALADIER HERVE,Route de DECAZEVILLE,46270,Bagnac-sur-Célé - France,,
GRV,814 Route de lanques,71260,PERONNE - France,,
Oenotec,"6 rue de la grande terre
                                                                    zone euro 2000",30132,Caissargues - France,"Bucher Vaslin, Cazaux, Ciat, Eaton, Francesca, Moog",
AGRI EVRAN SAS,ZA,22630,EVRAN - France,,
NATUR'AGRI,345D CHEMIN DE LA GASTOULETTE,84240,Ansouis - France,,
EUROMASTER,"Z.I. Nord, 26 Rue Lazare Carnot",61000,Alençon - France,,
TAQUIPNEU - Agence AIRE SUR ADOUR,rte de Bordeaux,40800,Aire-sur-l'Adour - France,,
AFCO,"54 boulevard du Pilard
                                                                    ZI de Chaulaudre",19300,EGLETONS - France,,
SAUVAN SARL,Route de Villedieu,26110,MIRABEL AUX BARONNIES - France,Landini,
GARAGE NOEL,Le Bourg,24270,ANGOISSE - France,Zetor,
CANTAL AGRI SERVICES,Avenue de la République,15100,SAINT-FLOUR - France,"Agrisem, Fendt",
BECHE-PAIE,3 Rue de Bellevue,56220,MALANSAC - France,Kubota,
BOOMAGRI,"1, La Saint Fraize",28250,Digny - France,,
ASD AGRI,893 AV DES DEUX VALLEES,59554,Raillencourt-Sainte-Olle - France,,
SEE COUDERC SARL,ZA SOULA D'EN HAUT,9130,ARTIGAT - France,"Arbos, Hytrack, Kongskilde, Krone, Landini, Masai, Matermacc, Morra, Saelen, Sola, Solis, Stiga, Tym",
LEPRON SAS,13 rue de la fosse des moulins,37190,VALLERES - France,LEPRON,
EUROMASTER,"EUROMASTER
                                                                    54 RUE DU PONT NOIR",38120,Saint-Egrève - France,,
FORET TECHNIC'ALP,"ZA LA PICHATIERE, 529 RUE ALDO ERIANI",38430,MOIRANS - France,,
Ets THURIN SARL,"159, Avenue des Prés Combaux",4100,MANOSQUE - France,Fendt,
LUCADOU BERTOLINI SARL,"Le Relais de L'Aubrac
                                                                    LACALM",12210,Argences en Aubrac - France,,
MANHAVAL-FABRE,Puech-Blanc,12450,Calmont - France,,
HUET 2M ETS,ZA Prée Bertain,49730,VARENNES SUR LOIRE - France,,
ELIATIS,ZI Centr'Alp - 86 Rue Emile Romanet,38340,Voreppe - France,,
SOM AGRI SOM AUTO,ZA les Douets jaunes,49360,SOMLOIRE - France,,
RG AGRI,ZA Petit Gast,44140,LA PLANCHE - France,,
LEBEURRIER SAS,"LA GOLLERIE
                                                                    PERCY",50410,PERCY EN NORMANDIE - France,"Amazone, Deutz-Fahr, Kuhn, Mailleux, McHale",
SOVERDI,RTE DE DIEUPENTALE,82600,VERDUN / GARONNE - France,,
PAUDOIE SARL,ZI des Maltieres,53600,EVRON - France,"John Deere, Manitou",
BAZOLLES MOTOCULTURE,Le Bourg,58110,BAZOLLES - France,Massey Ferguson,
SESMA,ZI de Vialard,24200,SARLAT - France,"Landini, Valtra",
SIROT SAS,Rue du Lac,85190,MACHE - France,,
QUERCY FOREST ENVIRONNEMENT,bessous,46310,CONCORES - France,,
MOSSBACH SA,27 Faubourg de Belfort,10200,BAR SUR AUBE - France,Massey Ferguson,
EURO NEGOCE,NOGUES,32120,MONFORT - France,,
A.R.P. (Agriculture et Robotique du Poitou),ZA LES PIERRAILLEUSES,79360,GRANZAY GRIPT - France,,
RINGUEDE RENE ETS,28 Rue Petit Chasseur,45130,EPIEDS EN BEAUCE - France,Khun,
MASSON SA MACHINES AGRICOLES,11 Grande Rue,54450,AVRICOURT - France,,
GIRAUD & FILS ETS,ZA de L'Etang,42440,NOIRETABLE - France,,www.giraudagriforest.com
BEVALOT EURL,100 impasse du moulin,70110,MONTJUSTIN - France,,
TAMISIER SARL,4 Route de Bourg le Roi,72610,OISSEAU LE PETIT - France,Valtra,
BONNEAU TRICHET SAS,16 ZA L'Augizière,85190,BEAULIEU SOUS LA ROCHE - France,,
G2M SARL,74 Avenue Rhin et Danube,81600,GAILLAC - France,,
DELAVALLEE REBOURS SAS,Coulamert,28160,YEVRES - France,"Laverda, McCormick, Valtra",
EURL ATELIER A LA FERME,"8 Rue Joliot Curie
                                                                    Z.A de la Lande Rose",35580,Guichen - France,"Amazone, Jeantil, Mailleux, New Holland, Sulky",
GASCOMAT SAS,Le Village,32300,ST ELIX THEUX - France,"JCB, CLAAS",
BEAUVISAGE TOULLET SARL,"1Les quatre routes
                                                                    BP 10005",80150,Fontaine sur maye - France,Valtra,
SARL PNEU LATTELAIS,840 Grande Rue,76760,Bourdainville - France,"Alliance, BKT, Bridgestone, Firestone, Kleber, Michelin, Nokian, Trelleborg",
S.P.A.I.,RN 60 - LES GREVES,89100,MALAY LE GRAND - France,,
AXION,za de la Cailletelle,44270,MACHECOUL - France,,
FENTUM SAS,51 rue de la borde aux prêtres,45470,Rebréchien - France,,
ETS G. LAVERRIERE,Z.A. la  maladiere,1210,Ornex - France,,
RIANT JARDI-AGRI,14 Place Charles Péguy,28360,Meslay le vidame - France,,
XABI HARISTOY,"1000 ROUTE D'ARMENDARITS
                                                                    garage landaburia",64640,IHOLDY - France,,
RAYNAL SAS,"Pont de Travette
                                                                    RN9 - BP86",48100,MARVEJOLS - France,"Fendt, Massey Ferguson",
ATREELOG,"178 ROUTE DE LA ROMATIERE
                                                                    Agora Guiers",38630,Corbelin - France,,
LOISIRS SERVICES,ZC Kerpont Bellevue,56850,CAUDAN - France,,
DYNALOC,"ZA la Roulière
                                                                    5 rue Joseph Cugnot",85660,SAINT PHILIBERT DE BOUAINE - France,Agrisem,
Equip'Jardin IDF,ZAE de l'autodrome - RN20 -,91310,Linas - France,,
SARL PROVERTMAT,4 rue de l'Alberta,49300,CHOLET - France,"Echo, Grillo, Kioti, Pellenc, Stihl, Viking",
C.M.A FRANCE - CODOR,"84 Route de Saint Emilion
                                                                    BP : 90235",33506,LIBOURNE Cedex - France,,
BOSSARD et Cie,1 rue Théophile BOSSARD,79300,NOIRTERRE - France,,
SEVP 2A,418 RUE DE PARIS,2105,Saint-Quentin - France,,
LOUINEAU TURPAUD SARL,"75 Rue des Diligentes
Féole - RN 137",85210,LA REORTHE - France,,
MELAIN MOTOCULTURE,2 Rue François Halley,50390,SAINT SAUVEUR LE VICOMTE - France,,www.motoculture-melain.com
MECA TECHNIQUE,23 rue Denis Papin,25800,VALDAHON - France,Zetor,
GREENMAT,35 Bis Route de Paris,77930,CHAILLY EN BIERE - France,John Deere,
AS2G,BOULEVARD INDUSTRIEL,76580,LE TRAIT - France,,
Sarl DMA,340 Route de Beaurepaire,26210,MANTHES - France,,
ATLANTIQUE IRRIGATION,"Lieu dit "" PENKER"" - Rond Point du Drennec",29400,Landivisiau - France,,
jsb,2b chemin du halage,27460,IGOVILLE - France,,
LES MERGERS,7 rue des terres d’Ecoublanc,28200,Marboué - France,,
Taquipneu Albi,276 route de Toulouse,81000,Albi - France,,
H. LECOMTE SAS,Route de Janze,35150,CORPS NUDS - France,Carraro,www.tracto-pieces.fr
CM AGRISERVICE,31 Route de la Loire,44450,LA CHAPELLE BASSE MER - France,,
CHARRIER SAS,320 La Croisée de la Boule,85480,BOURNEZEAU - France,,
JPS CAN-AM QUAD SSV SPYDER,4 RUE JEAN JAURES,59161,NAVES - France,Can-Am,www.agriaffaires.biz/JPS-CANAM
BRETAGNE SUD ELEVAGE,25 RUE JEAN MARIE BIRRIEN,29520,CHATEAUNEUF DU FAOU - France,,
ALBAGNAC,Marty,46140,Sauzet - France,,
RIVIERE PNEU,Le Hauret - Route de Lectoure,32500,FLEURANCE - France,,
AGRI CONCEPT,ZA La Falaisière,36370,BELABRE - France,,
HENRIQUES FRANCISCO ETS,Route d'Urville,88140,ST OUEN LES PAREY - France,,
LAURENT,"30 rue Albert Evaux
                                                                    ZA les Graviers",63119,CHATEAUGAY - France,,
MATIGNON AGRI SARL,"875, Route des Martins",47120,DURAS - France,Landini,
MARTIN SA,2 Rue de l'Eglise,45340,BATILLY EN GATINAIS - France,,
guieze bruno services eurl,chemin st peyre,63720,surat - France,,
MOTOCULTURE DE HAUTE NORMANDIE,Rue Pierre Gassendi,76150,LA VAUPALIERE - France,,www.motoculture-haute-normandie-76.fr
CEVENNES MATERIELS ALES,2231 ROUTE DE NIMES,30560,SAINT HILAIRE DE BRETHMAS - France,,
Estemax,15 rue des moulins,57920,Kedange sur canner - France,Can-Am,www.estemax.fr
DPHS Negoce SARL,La rivière de trefin,56350,Rieux - France,,
GROUPE MMO,11 RUE ALBERT EINSTEIN,77420,Champs-sur-Marne - France,,
WAT AGRI 62,ZI,62990,BEAURAINVILLE - France,,
SAS MIRAMON,3680 RTE DE MALCEIFIQUE,82800,VAISSAC - France,,
ROECKLIN BENOIT MA SAS,73 Route d'Eguisheim,68920,WETTOLSHEIM - France,,
Et CH15,RUE RASSEMUSE,15100,Saint-Flour - France,,
CORMAGRI,32 RUE DES CORMIERS,17600,Corme-Royal - France,,
SYMAVAL PRO,RD 347 - La Genetière,49800,BRAIN SUR L'AUTHION - France,,
V3 PRO,za la fosse aux loups,50600,st hilaire du harcouet - France,,
HURAND TEAM,ZI de L'Ecorcherie,2460,LA FERTE MILON - France,,
SODIM ESPACE EMERAUDE,ZA Les Tardivières,35160,MONTFORT SUR MEU - France,,
SARL MECA VALLEE,LE CLOS DE LA NOUE - RD23,51700,CHATILLON SUR MARNE - France,,
MATAGRI 3000,ZA de Budan - Route de Pontorson,35610,PLEINE FOUGERES - France,,
LVES SAS,Route Américaine,50500,CARENTAN - France,,www.lves.info
PM DIFFUSIONS,26 CHE DES BROUILLES,1310,Curtafond - France,,
NEUVIL PNEUS,1 Rue  de la Drouille,86170,NEUVILLE DE POITOU - France,,
VERMANDE SA,Le Vaque,47320,CLAIRAC - France,,
SAINT ETIENNE SARL,107 Route de Rouen,76520,Boos - France,,
TAQUI PNEU,6 AVENUES BORDE BLANCHE,31290,Villefranche-de-Lauragais - France,,
NEW LM,530 Rue des Frères Lumière,71000,Mâcon - France,,
MOTARD SAS,ZA Chemin Vert,17500,ST MARTIAL DE VITATERNE - France,,
THIEVIN ET FILS,PARC INDUSTRIEL DE L'ERDRE,44540,SAINT MARS LA JAILLE - France,,
BERGER MACHINES AGRICOLES,5 RUE DES NOYERS,68590,SAINT-HIPPOLYTE - France,,
JLJ BONNAUD DEBORDES SARL,19 Rue Fief de la Barre,79400,NANTEUIL - France,Landini,
CHOUTEAU,640 ROUTE DE PARIS,79180,CHAURAY - France,,
VERCAUTEREN SARL,Avenue Marcel Dassault - Chemin de la Saligue,64140,LONS - France,,
BOUVY MOTOCULTURE,Route de Bitche,57410,GROS REDERCHING - France,Valtra,
ATELIER & MAGASIN COOPERATIF,Route de Verneuil,27160,BRETEUIL SUR ITON - France,,
BEV-TECH LITTORAL SUD,"271 Rue Joseph Marie Jacquard
                                                                    PAE Mércorent Nord",34500,BEZIERS - France,,
SOMADIS - PIECES VITI,18 La Roche Croizat,16200,REPARSAC - France,,
HOLDING PEDARRE,8 rue de Casablanca,40230,Saint-Vincent-de-Tyrosse - France,"Alliance, Apollo, BKT, Bridgestone, Cultor, Firestone, Kleber, Maximo, Michelin, Mitas, Taurus, Trelleborg, Vredestein",
FAE FRANCE SAS,"84, rue du Montmurier",38540,Grenay - France,,
SAS V3TEC,"5, Rue des Tonneliers",44330,Vallet - France,,
AGRI 58,"12 RUE DU RAVELIN
                                                                    LES COUTERIAUX",58180,Marzy - France,,
ets dumontaux ESPACE VERT,"2 LA GARE
                                                                    dumontaux cressat",23140,cressat - France,,
SC AGRI,"11 RUE DE LA CHAPELLE
                                                                    namps au val",80290,Namps-Maisnil - France,,
LANG SARL,Rue Principale,67690,HATTEN - France,Valtra,
ORENGE SAS,550 Route de Bolbec,76210,RAFFETOT - France,,
AGRONOMIC SARL,16 BIS GRANDE RUE,2190,AMIFONTAINE - France,,
AGRI SERVICE,6 Rue Fourchelle,80400,MOYENCOURT - France,,
CBO TOULOUSE,27 RUE GEORGES OHNET,31200,Toulouse - France,,
GROUPE CHIRAULT PNEUS,Avenue d'auvergne,36400,La Châtre - France,,
MATAGRIF,Clos du Moulin,77165,ST SOUPPLETS - France,"Grillo, Husqvarna, Iseki, Pellenc, Stihl",www.matagrif.fr
THOMAS MOTOCULTURE SARL,25 Boulevard Gambetta,95640,MARINES - France,,
EUROTEK DISTRIBUTION,9 Parc d’activité des Massies,81800,COUFFOULEUX - France,Lovol,www.materiel-agricole-eurotek.fr
PARC AGRI,ZA Le Parc,82170,CANALS - France,,www.parcagri.com
SAS MA2I,la pucellerie,36400,lourouer saint laurent - France,,
COUTAND MA,"181 Rue Joseph Cugnot
                                                                    ZI Montifaut",85700,Pouzauges - France,,
SARL HPM FRANCE,19 RUE BERNARD PALISSY,63110,Beaumont - France,,
RN7 AGRI SERVICES,595 RTE NATIONALE 7,26600,Erôme - France,,
SOLUTION MOTOCULTURE,2064 AV DES VALAYANS,84320,ENTRAIGUES - France,,
SARL GARAGE CLUZEL,LACOUT,12350,Compolibat - France,,
VAMMOS CENTRE OCCASION GACEEN,Le Rocher,61370,ECHAUFFOUR - France,,
LEVEQUE ETS,RN 5,21350,SAFFRES - France,,
ets BOUTON SARL,"707 Rue du Revermont
                                                                    ZA La Cambuse",1440,VIRIAT - France,,
Sarl Balleydier,ZA 1100 Rue des Glières,74800,Saint Pierre en Faucigny - France,,
SOMAAF SAS,46 Route d'Orange,84600,VALREAS - France,,
PAISANT FRANCOIS EURL,Le Tremblay,27260,MORAINVILLE JOUVEAUX - France,,
SARL L'ELEOUET,ZA DE LANGOLVAS,29610,Garlan - France,,
OTECH 40,1406 rue Ferme de Larrouquère,40000,MONT DE MARSAN - France,,
Sarl Ets Foulon,676 bis route d alembon,62850,sanghen - France,,
Eloi Transmission,28 BOULEVARD DU COLOMBIER,35000,Rennes - France,,
PUECH PIERRE EURL,29 route de la Garcie,12800,SAUVETERRE - France,,
SARL QUINOT FRANCOIS,31 Rue du Bois,10110,VITRY LE CROISE - France,,www.etsquinot.com/
VITI VINI SERVICE,Terres Neyme,71680,VINZELLES - France,,
JAMO SARL,205 Avenue Raoul Aladenize,18500,MEHUN SUR YEVRE - France,,
SARL ROBOLACTIS,2 ZA la Fauqetiere,50890,Condé-sur-Vire - France,Lely,
BLANC SARL,ZI Rue Lamartine,18390,ST GERMAIN DU PUY - France,,
GEMIGNANI FRANCE - CODOR,"84 Route de Saint Emilion
                                                                    BP: 90235",33506,LIBOURNE Cedex - France,,
DVTEC,"194 Avenue des grenaches
                                                                    ZAC DE TESAN",30126,Saint-Laurent-des-Arbres - France,,
QUEROL MACHINES AGRICOLES,1150 Avenue des Alpilles,13310,ST MARTIN DE CRAU - France,,
FAIGNANT AGRI VITI SARL,Les Petites Gommerelles,37140,BOURGUEIL - France,Case IH,
SAS DG AGRI SERVICES,10 Rue de L'Epine - ZA La Petite Filée,85170,SALIGNY - France,,
sarl  techniwest,"2, Le Bourg
                                                                    Route de Neulliac",56300,KERGRIST - France,,
BRIVET RAFFIN,20 RUE REGEMORTES,3000,Moulins - France,,
VERT LEM,ZA DU CLAIR DE LUNE,44360,SAINT ETIENNE DE MONTLUC - France,,
RELAIS PNEUS SAS,35 Avenue Fernand Point,71500,LOUHANS - France,,
MOULINJEUNE,PA DU PONTEIX,87220,Feytiat - France,,
PONS FRERES MATERIEL ELEVAGE,60 rue François Arago,12100,Millau - France,,
HYDRALIANS PROSJET IRRIGARONNE,ZI DE BOE,47550,BOE - France,,
TAQUIPNEU - Agence SAINT PALAIS,"BEAHASQUE LAPISTE, LOT RECART",64120,SAINT PALAIS - France,,